;Sliced by ideaMaker 3.6.1.4415, 2020-09-13 22:18:55 UTC+1000
;Dimension: 235.000 235.000 250.000 0.400
;Plate Shape: 0
;Extruder Offset #1: 25.000 0.000
;Filament Diameter #1: 1.750
;Filament Diameter #2: 1.750
;Filament Compensation #1: 80.00
;Filament Compensation #2: 90.00
;Filament Density #1: 1240.00
;Filament Density #2: 1240.00
;Bounding Box: 55.200 181.400 64.950 174.450 0.000 0.200
;Model Gap: 0.000
M221 T0 S80.00
M140 S70.00
M104 T0 S205.00
M109 T0 S205.00
T0
M190 S70.00
; Ender 3 Custom Start G-code
G92 E0 ; Reset Extruder
G28 ; Home all axes
G1 Z2.0 F3000 ; Move Z Axis up little to prevent scratching of Heat Bed
G1 X0.1 Y20 Z0.3 F5000.0 ; Move to start position
G1 X0.1 Y200.0 Z0.3 F1500.0 E15 ; Draw the first line
G1 X0.4 Y200.0 Z0.3 F5000.0 ; Move to side a little
G1 X0.4 Y20 Z0.3 F1500.0 E30 ; Draw the second line
G92 E0 ; Reset Extruder
G1 Z2.0 F3000 ; Move Z Axis up little to prevent scratching of Heat Bed
G1 X5 Y20 Z0.3 F5000.0 ; Move over to prevent blob squish
M1001
;LAYER:0
;Z:0.200
;HEIGHT:0.200
M106 S255
G4 P500
M106 S64
M140 S70
G1 F3000 E-5.0000
G0 F4200 X68.981 Y83.533
G0 F900 Z0.200
;TYPE:WALL-INNER
;WIDTH:0.400
G1 F1500 E0.0000
G1 F900 X68.796 Y83.632 E0.0070
G1 X67.034 Y84.167 E0.0682
G1 X65.200 Y84.347 E0.1295
G1 X63.366 Y84.167 E0.1908
G1 X61.604 Y83.632 E0.2521
G1 X59.979 Y82.764 E0.3133
G1 X58.555 Y81.595 E0.3746
G1 X57.386 Y80.171 E0.4359
G1 X56.518 Y78.546 E0.4972
G1 X55.983 Y76.784 E0.5584
G1 X55.803 Y74.950 E0.6197
G1 X55.983 Y73.116 E0.6810
G1 X56.518 Y71.354 E0.7422
G1 X57.386 Y69.729 E0.8035
G1 X58.555 Y68.305 E0.8648
G1 X59.979 Y67.136 E0.9261
G1 X61.604 Y66.268 E0.9873
G1 X63.366 Y65.733 E1.0486
G1 X65.200 Y65.553 E1.1099
G1 X67.034 Y65.733 E1.1712
G1 X68.796 Y66.268 E1.2324
G1 X70.421 Y67.136 E1.2937
G1 X71.845 Y68.305 E1.3550
G1 X73.014 Y69.729 E1.4162
G1 X73.882 Y71.354 E1.4775
G1 X74.417 Y73.116 E1.5388
G1 X74.597 Y74.950 E1.6001
G1 X74.417 Y76.784 E1.6614
G1 X73.882 Y78.546 E1.7226
G1 X73.783 Y78.730 E1.7296
G1 X69.893 Y78.730 E1.8589
G1 X69.565 Y78.793 E1.8700
G1 X69.241 Y79.026 E1.8833
G1 X69.043 Y79.326 E1.8953
G1 X68.980 Y79.640 E1.9059
G1 X68.981 Y83.033 E2.0188
G0 F900 X68.981 Y83.533
G1 F3000 E-2.9812
G0 F4200 X69.381 Y83.772
;TYPE:WALL-OUTER
;WIDTH:0.400
G1 F1500 E2.0188
G1 F900 X68.950 Y84.003 E2.0350
G1 X67.112 Y84.561 E2.0989
G1 X65.200 Y84.749 E2.1628
G1 X63.288 Y84.561 E2.2267
G1 X61.450 Y84.003 E2.2906
G1 X59.756 Y83.098 E2.3545
G1 X58.271 Y81.879 E2.4184
G1 X57.052 Y80.394 E2.4823
G1 X56.147 Y78.700 E2.5462
G1 X55.589 Y76.862 E2.6101
G1 X55.401 Y74.950 E2.6740
G1 X55.589 Y73.038 E2.7379
G1 X56.147 Y71.200 E2.8017
G1 X57.052 Y69.506 E2.8656
G1 X58.271 Y68.021 E2.9295
G1 X59.756 Y66.802 E2.9934
G1 X61.450 Y65.897 E3.0573
G1 X63.288 Y65.339 E3.1212
G1 X65.200 Y65.151 E3.1851
G1 X67.112 Y65.339 E3.2490
G1 X68.950 Y65.897 E3.3129
G1 X70.644 Y66.802 E3.3768
G1 X72.129 Y68.021 E3.4407
G1 X73.348 Y69.506 E3.5046
G1 X74.253 Y71.200 E3.5684
G1 X74.811 Y73.038 E3.6323
G1 X74.999 Y74.950 E3.6962
G1 X74.811 Y76.862 E3.7601
G1 X74.253 Y78.700 E3.8240
G1 X74.023 Y79.130 E3.8402
G1 X69.931 Y79.130 E3.9763
G1 X69.727 Y79.169 E3.9832
G1 X69.534 Y79.308 E3.9912
G1 X69.420 Y79.481 E3.9980
G1 X69.380 Y79.680 E4.0048
G1 X69.381 Y83.272 E4.1243
G0 F900 X69.381 Y83.772
G1 F3000 E-0.8757
G0 F4200 X58.698 Y81.608
;TYPE:SOLID-FILL
;WIDTH:0.400
G1 F1500 E4.1243
G1 F900 X58.540 Y81.450 E4.1317
G1 F3000 E-0.8683
G1 F900 Z0.500
G0 F4200 X57.076 Y79.421
G1 F900 Z0.200
G1 F1500 E4.1317
G1 F900 X60.727 Y83.071 E4.3034
G1 F3000 E-0.6966
G1 F900 Z0.500
G0 F4200 X61.840 Y83.618
G1 F900 Z0.200
G1 F1500 E4.3034
G1 F900 X56.529 Y78.308 E4.5532
G1 F3000 E-0.4468
G1 F900 Z0.500
G0 F4200 X56.282 Y77.495
G1 F900 Z0.200
G1 F1500 E4.5532
G1 F900 X62.653 Y83.866 E4.8529
G1 F3000 E-0.1471
G1 F900 Z0.500
G0 F4200 X63.446 Y84.094
G1 F900 Z0.200
G1 F1500 E4.8529
G1 F900 X56.054 Y76.701 E5.2006
G1 F3000 E0.2006
G1 F900 Z0.500
G0 F4200 X55.992 Y76.074
G1 F900 Z0.200
G1 F1500 E5.2006
G1 F900 X64.073 Y84.155 E5.5807
G1 F3000 E0.5807
G1 F900 Z0.500
G0 F4200 X64.700 Y84.217
G1 F900 Z0.200
G1 F1500 E5.5807
G1 F900 X55.931 Y75.447 E5.9932
G1 F3000 E0.9932
G1 F900 Z0.500
G0 F4200 X55.892 Y74.843
G1 F900 Z0.200
G1 F1500 E5.9932
G1 F900 X65.305 Y84.256 E6.4359
G0 F4200 X65.820 Y84.205
G1 F900 X55.943 Y74.328 E6.9005
G0 F4200 X55.994 Y73.813
G1 F900 X66.335 Y84.154 E7.3869
G0 F4200 X66.849 Y84.103
G1 F900 X56.045 Y73.298 E7.8951
G0 F4200 X56.150 Y72.838
G1 F900 X67.310 Y83.997 E8.4201
G0 F4200 X67.744 Y83.866
G1 F900 X56.282 Y72.404 E8.9592
G0 F4200 X56.414 Y71.970
G1 F900 X68.178 Y83.734 E9.5125
G0 F4200 X68.612 Y83.603
G1 F900 X56.546 Y71.537 E10.0801
G0 F4200 X56.720 Y71.145
G1 F900 X68.900 Y83.325 E10.6530
G0 F4200 X68.900 Y82.759
G1 F900 X56.917 Y70.776 E11.2166
G0 F4200 X57.114 Y70.408
G1 F900 X68.900 Y82.194 E11.7710
G0 F4200 X68.900 Y81.628
G1 F900 X57.311 Y70.038 E12.3161
G0 F4200 X57.523 Y69.686
G1 F900 X68.900 Y81.062 E12.8513
G0 F4200 X68.900 Y80.497
G1 F900 X57.779 Y69.375 E13.3744
G0 F4200 X58.034 Y69.065
G1 F900 X68.900 Y79.931 E13.8855
G0 F4200 X68.945 Y79.410
G1 F900 X58.288 Y68.754 E14.3867
G0 F4200 X58.544 Y68.443
G1 F900 X69.137 Y79.036 E14.8850
G0 F4200 X69.444 Y78.778
G1 F900 X58.840 Y68.174 E15.3838
G0 F4200 X59.151 Y67.919
G1 F900 X69.881 Y78.650 E15.8885
G0 F4200 X70.446 Y78.649
G1 F900 X59.462 Y67.664 E16.4052
G0 F4200 X59.773 Y67.409
G1 F900 X71.012 Y78.649 E16.9339
G0 F4200 X71.578 Y78.649
G1 F900 X60.094 Y67.165 E17.4740
G0 F4200 X60.463 Y66.968
G1 F900 X72.143 Y78.649 E18.0234
G0 F4200 X72.709 Y78.649
G1 F900 X60.832 Y66.772 E18.5821
G0 F4200 X61.200 Y66.574
G1 F900 X73.275 Y78.649 E19.1501
G0 F4200 X73.785 Y78.593
G1 F900 X61.569 Y66.378 E19.7247
G0 F4200 X61.992 Y66.234
G1 F900 X73.916 Y78.159 E20.2855
G0 F4200 X74.048 Y77.725
G1 F900 X62.425 Y66.102 E20.8323
G0 F4200 X62.858 Y65.970
G1 F900 X74.179 Y77.291 E21.3648
G0 F4200 X74.311 Y76.856
G1 F900 X63.293 Y65.838 E21.8830
G0 F4200 X63.791 Y65.771
G1 F900 X74.378 Y76.358 E22.3810
G0 F4200 X74.429 Y75.843
G1 F900 X64.306 Y65.720 E22.8571
G0 F4200 X64.821 Y65.669
G1 F900 X74.480 Y75.328 E23.3115
G0 F4200 X74.500 Y74.783
G1 F900 X65.366 Y65.649 E23.7411
G1 F3000 E18.7411
G1 F900 Z0.500
G0 F4200 X65.993 Y65.710
G1 F900 Z0.200
G1 F1500 E23.7411
G1 F900 X74.439 Y74.156 E24.1384
G1 F3000 E19.1384
G1 F900 Z0.500
G0 F4200 X74.377 Y73.528
G1 F900 Z0.200
G1 F1500 E24.1384
G1 F900 X66.621 Y65.772 E24.5032
G1 F3000 E19.5032
G1 F900 Z0.500
G0 F4200 X67.317 Y65.903
G1 F900 Z0.200
G1 F1500 E24.5032
G1 F900 X74.246 Y72.832 E24.8291
G1 F3000 E19.8291
G1 F900 Z0.500
G0 F4200 X73.999 Y72.019
G1 F900 Z0.200
G1 F1500 E24.8291
G1 F900 X68.130 Y66.150 E25.1052
G1 F3000 E20.1052
G1 F900 Z0.500
G0 F4200 X69.031 Y66.485
G1 F900 Z0.200
G1 F1500 E25.1052
G1 F900 X73.664 Y71.118 E25.3231
G1 F3000 E20.3231
G1 F900 Z0.500
G0 F4200 X73.015 Y69.904
G1 F900 Z0.200
G1 F1500 E25.3231
G1 F900 X70.245 Y67.134 E25.4534
G1 F3000 E20.4534
G1 F900 Z0.500
G0 F4200 X68.980 Y155.867
;TYPE:WALL-INNER
;WIDTH:0.400
G1 F900 Z0.200
G1 F1500 E25.4534
G1 F900 X68.980 Y159.759 E25.5828
G1 X69.042 Y160.071 E25.5934
G1 X69.222 Y160.349 E25.6044
G1 X69.399 Y160.503 E25.6122
G1 X69.601 Y160.613 E25.6199
G1 X69.891 Y160.671 E25.6297
G1 X73.783 Y160.670 E25.7592
G1 X73.882 Y160.854 E25.7661
G1 X74.417 Y162.616 E25.8274
G1 X74.597 Y164.450 E25.8887
G1 X74.417 Y166.284 E25.9500
G1 X73.882 Y168.046 E26.0112
G1 X73.014 Y169.671 E26.0725
G1 X71.845 Y171.095 E26.1338
G1 X70.421 Y172.264 E26.1950
G1 X68.796 Y173.132 E26.2563
G1 X67.034 Y173.667 E26.3176
G1 X65.200 Y173.847 E26.3789
G1 X63.366 Y173.667 E26.4401
G1 X61.604 Y173.132 E26.5014
G1 X59.979 Y172.264 E26.5627
G1 X58.555 Y171.095 E26.6239
G1 X57.386 Y169.671 E26.6852
G1 X56.518 Y168.046 E26.7465
G1 X55.983 Y166.284 E26.8077
G1 X55.803 Y164.450 E26.8690
G1 X55.983 Y162.616 E26.9303
G1 X56.518 Y160.854 E26.9916
G1 X57.386 Y159.229 E27.0528
G1 X58.555 Y157.805 E27.1141
G1 X59.979 Y156.636 E27.1754
G1 X61.604 Y155.768 E27.2367
G1 X63.366 Y155.233 E27.2979
G1 X65.200 Y155.053 E27.3592
G1 X67.034 Y155.233 E27.4205
G1 X68.517 Y155.684 E27.4721
G0 F900 X68.796 Y155.768
G0 F900 X68.980 Y155.867
G1 F3000 E22.4721
G0 F4200 X69.380 Y155.627
;TYPE:WALL-OUTER
;WIDTH:0.400
G1 F900 Z0.200
G1 F1500 E27.4721
G1 F900 X69.380 Y159.720 E27.6082
G1 X69.419 Y159.918 E27.6149
G1 X69.527 Y160.084 E27.6215
G1 X69.629 Y160.173 E27.6260
G1 X69.739 Y160.233 E27.6302
G1 X69.930 Y160.271 E27.6366
G1 X74.022 Y160.270 E27.7727
G1 X74.253 Y160.700 E27.7890
G1 X74.811 Y162.538 E27.8529
G1 X74.999 Y164.450 E27.9168
G1 X74.811 Y166.362 E27.9807
G1 X74.253 Y168.200 E28.0446
G1 X73.348 Y169.894 E28.1084
G1 X72.129 Y171.379 E28.1723
G1 X70.644 Y172.598 E28.2362
G1 X68.950 Y173.503 E28.3001
G1 X67.112 Y174.061 E28.3640
G1 X65.200 Y174.249 E28.4279
G1 X63.288 Y174.061 E28.4918
G1 X61.450 Y173.503 E28.5557
G1 X59.756 Y172.598 E28.6196
G1 X58.271 Y171.379 E28.6835
G1 X57.052 Y169.894 E28.7474
G1 X56.147 Y168.200 E28.8112
G1 X55.589 Y166.362 E28.8751
G1 X55.401 Y164.450 E28.9390
G1 X55.589 Y162.538 E29.0029
G1 X56.147 Y160.700 E29.0668
G1 X57.052 Y159.006 E29.1307
G1 X58.271 Y157.521 E29.1946
G1 X59.756 Y156.302 E29.2585
G1 X61.450 Y155.397 E29.3224
G1 X63.288 Y154.839 E29.3863
G1 X65.200 Y154.651 E29.4502
G1 X67.112 Y154.839 E29.5141
G1 X68.938 Y155.394 E29.5775
G0 F900 X68.950 Y155.397
G0 F900 X69.380 Y155.627
G1 F3000 E24.5775
G0 F4200 X73.351 Y160.750
;TYPE:SOLID-FILL
;WIDTH:0.400
G1 F900 Z0.200
G1 F1500 E29.5775
G1 F900 X73.948 Y161.346 E29.6056
G1 F3000 E24.6056
G1 F900 Z0.500
G0 F4200 X74.195 Y162.159
G1 F900 Z0.200
G1 F1500 E29.6056
G1 F900 X72.786 Y160.750 E29.6719
G0 F4200 X72.220 Y160.750
G1 F900 X74.364 Y162.894 E29.7727
G1 F3000 E24.7727
G1 F900 Z0.500
G0 F4200 X74.425 Y163.521
G1 F900 Z0.200
G1 F1500 E29.7727
G1 F900 X71.654 Y160.750 E29.9031
G0 F4200 X71.088 Y160.750
G1 F900 X74.488 Y164.149 E30.0630
G0 F4200 X74.490 Y164.717
G1 F900 X70.523 Y160.750 E30.2496
G0 F4200 X69.957 Y160.750
G1 F900 X74.439 Y165.232 E30.4604
G0 F4200 X74.389 Y165.747
G1 F900 X63.902 Y155.260 E30.9537
G0 F4200 X63.387 Y155.311
G1 F900 X74.338 Y166.262 E31.4688
G0 F4200 X74.207 Y166.696
G1 F900 X62.953 Y155.442 E31.9981
G0 F4200 X62.518 Y155.574
G1 F900 X74.075 Y167.131 E32.5417
G0 F4200 X73.943 Y167.564
G1 F900 X62.085 Y155.706 E33.0995
G0 F4200 X61.651 Y155.838
G1 F900 X73.811 Y167.997 E33.6714
G0 F4200 X73.617 Y168.369
G1 F900 X61.279 Y156.032 E34.2517
G0 F4200 X60.911 Y156.229
G1 F900 X73.421 Y168.739 E34.8402
G0 F4200 X73.223 Y169.107
G1 F900 X60.542 Y156.426 E35.4367
G0 F4200 X60.174 Y156.623
G1 F900 X73.027 Y169.476 E36.0412
G0 F4200 X72.795 Y169.810
G1 F900 X59.839 Y156.854 E36.6506
G0 F4200 X59.529 Y157.109
G1 F900 X72.540 Y170.121 E37.2627
G0 F4200 X72.285 Y170.431
G1 F900 X59.218 Y157.364 E37.8773
G0 F4200 X58.907 Y157.619
G1 F900 X72.030 Y170.742 E38.4945
G0 F4200 X71.772 Y171.049
G1 F900 X58.598 Y157.876 E39.1142
G0 F4200 X58.344 Y158.187
G1 F900 X71.460 Y171.304 E39.7311
G0 F4200 X71.150 Y171.559
G1 F900 X58.088 Y158.497 E40.3455
G0 F4200 X57.834 Y158.809
G1 F900 X70.840 Y171.814 E40.9573
G0 F4200 X70.529 Y172.070
G1 F900 X57.578 Y159.119 E41.5665
G0 F4200 X57.353 Y159.459
G1 F900 X70.189 Y172.295 E42.1702
G0 F4200 X69.820 Y172.492
G1 F900 X57.156 Y159.828 E42.7659
G0 F4200 X56.959 Y160.197
G1 F900 X69.451 Y172.688 E43.3535
G0 F4200 X69.082 Y172.886
G1 F900 X56.762 Y160.566 E43.9330
G0 F4200 X56.574 Y160.943
G1 F900 X68.704 Y173.073 E44.5035
G0 F4200 X68.271 Y173.205
G1 F900 X56.442 Y161.377 E45.0599
G0 F4200 X56.311 Y161.811
G1 F900 X67.836 Y173.337 E45.6020
G0 F4200 X67.403 Y173.469
G1 F900 X56.178 Y162.244 E46.1300
G0 F4200 X56.055 Y162.687
G1 F900 X66.960 Y173.592 E46.6429
G0 F4200 X66.445 Y173.642
G1 F900 X56.005 Y163.203 E47.1340
G0 F4200 X55.954 Y163.717
G1 F900 X65.930 Y173.693 E47.6032
G0 F4200 X65.415 Y173.744
G1 F900 X55.903 Y164.232 E48.0506
G0 F4200 X55.918 Y164.812
G1 F900 X64.836 Y173.730 E48.4701
G1 F3000 E43.4701
G1 F900 Z0.500
G0 F4200 X64.208 Y173.668
G1 F900 Z0.200
G1 F1500 E48.4701
G1 F900 X55.979 Y165.439 E48.8572
G1 F3000 E43.8572
G1 F900 Z0.500
G0 F4200 X56.041 Y166.067
G1 F900 Z0.200
G1 F1500 E48.8572
G1 F900 X63.580 Y173.606 E49.2118
G1 F3000 E44.2118
G1 F900 Z0.500
G0 F4200 X62.827 Y173.419
G1 F900 Z0.200
G1 F1500 E49.2118
G1 F900 X56.229 Y166.820 E49.5222
G1 F3000 E44.5222
G1 F900 Z0.500
G0 F4200 X56.476 Y167.633
G1 F900 Z0.200
G1 F1500 E49.5222
G1 F900 X62.014 Y173.171 E49.7827
G1 F3000 E44.7827
G1 F900 Z0.500
G0 F4200 X60.988 Y172.711
G1 F900 Z0.200
G1 F1500 E49.7827
G1 F900 X56.937 Y168.660 E49.9732
G1 F3000 E44.9732
G1 F900 Z0.500
G0 F4200 X57.983 Y170.272
G1 F900 Z0.200
G1 F1500 E49.9732
G1 F900 X59.377 Y171.665 E50.0388
G1 F3000 E45.0388
G1 F900 Z0.500
G0 F4200 X68.900 Y159.692
G1 F900 Z0.200
G1 F1500 E50.0388
G1 F900 X64.417 Y155.209 E50.2496
G0 F4200 X64.932 Y155.159
G1 F900 X68.900 Y159.127 E50.4363
G0 F4200 X68.900 Y158.561
G1 F900 X65.500 Y155.161 E50.5962
G1 F3000 E45.5962
G1 F900 Z0.500
G0 F4200 X66.128 Y155.224
G1 F900 Z0.200
G1 F1500 E50.5962
G1 F900 X68.900 Y157.995 E50.7266
G0 F4200 X68.900 Y157.430
G1 F900 X66.755 Y155.285 E50.8274
G1 F3000 E45.8274
G1 F900 Z0.500
G0 F4200 X67.490 Y155.454
G1 F900 Z0.200
G1 F1500 E50.8274
G1 F900 X68.900 Y156.864 E50.8938
G0 F4200 X68.900 Y156.298
G1 F900 X68.302 Y155.701 E50.9219
G1 F3000 E45.9219
G1 F900 Z0.500
G0 F4200 X162.817 Y160.671
;TYPE:WALL-INNER
;WIDTH:0.400
G1 F900 Z0.200
G1 F1500 E50.9219
G1 F900 X166.844 Y160.663 E51.0558
G1 X167.194 Y160.516 E51.0684
G1 X167.442 Y160.271 E51.0800
G1 X167.563 Y160.049 E51.0884
G1 X167.621 Y159.759 E51.0983
G1 X167.620 Y155.867 E51.2277
G1 X167.804 Y155.768 E51.2347
G1 X169.566 Y155.233 E51.2959
G1 X171.400 Y155.053 E51.3572
G1 X173.234 Y155.233 E51.4185
G1 X174.996 Y155.768 E51.4798
G1 X176.621 Y156.636 E51.5410
G1 X178.045 Y157.805 E51.6023
G1 X179.214 Y159.229 E51.6636
G1 X180.082 Y160.854 E51.7249
G1 X180.617 Y162.616 E51.7861
G1 X180.797 Y164.450 E51.8474
G1 X180.617 Y166.284 E51.9087
G1 X180.082 Y168.046 E51.9699
G1 X179.214 Y169.671 E52.0312
G1 X178.045 Y171.095 E52.0925
G1 X176.621 Y172.264 E52.1538
G1 X174.996 Y173.132 E52.2150
G1 X173.234 Y173.667 E52.2763
G1 X171.400 Y173.847 E52.3376
G1 X169.566 Y173.667 E52.3989
G1 X167.804 Y173.132 E52.4601
G1 X166.179 Y172.264 E52.5214
G1 X164.755 Y171.095 E52.5827
G1 X163.586 Y169.671 E52.6439
G1 X162.718 Y168.046 E52.7052
G1 X162.183 Y166.284 E52.7665
G1 X162.003 Y164.450 E52.8278
G1 X162.183 Y162.616 E52.8891
G1 X162.634 Y161.133 E52.9406
G0 F900 X162.718 Y160.854
G0 F900 X162.817 Y160.671
G1 F3000 E47.9406
G0 F4200 X162.577 Y160.271
;TYPE:WALL-OUTER
;WIDTH:0.400
G1 F900 Z0.200
G1 F1500 E52.9406
G1 F900 X166.763 Y160.263 E53.0798
G1 X166.968 Y160.177 E53.0872
G1 X167.119 Y160.028 E53.0943
G1 X167.183 Y159.911 E53.0987
G1 X167.221 Y159.720 E53.1052
G1 X167.220 Y155.628 E53.2413
G1 X167.650 Y155.397 E53.2575
G1 X169.488 Y154.839 E53.3214
G1 X171.400 Y154.651 E53.3853
G1 X173.312 Y154.839 E53.4492
G1 X175.150 Y155.397 E53.5131
G1 X176.844 Y156.302 E53.5770
G1 X178.329 Y157.521 E53.6409
G1 X179.548 Y159.006 E53.7048
G1 X180.453 Y160.700 E53.7687
G1 X181.011 Y162.538 E53.8326
G1 X181.199 Y164.450 E53.8965
G1 X181.011 Y166.362 E53.9604
G1 X180.453 Y168.200 E54.0242
G1 X179.548 Y169.894 E54.0881
G1 X178.329 Y171.379 E54.1520
G1 X176.844 Y172.598 E54.2159
G1 X175.150 Y173.503 E54.2798
G1 X173.312 Y174.061 E54.3437
G1 X171.400 Y174.249 E54.4076
G1 X169.488 Y174.061 E54.4715
G1 X167.650 Y173.503 E54.5354
G1 X165.956 Y172.598 E54.5993
G1 X164.471 Y171.379 E54.6632
G1 X163.252 Y169.894 E54.7271
G1 X162.347 Y168.200 E54.7909
G1 X161.789 Y166.362 E54.8548
G1 X161.601 Y164.450 E54.9187
G1 X161.789 Y162.538 E54.9826
G1 X162.343 Y160.713 E55.0461
G0 F900 X162.347 Y160.700
G0 F900 X162.577 Y160.271
G1 F3000 E50.0461
G0 F4200 X163.615 Y169.555
;TYPE:SOLID-FILL
;WIDTH:0.400
G1 F900 Z0.200
G1 F1500 E55.0461
G1 F900 X166.293 Y172.232 E55.1720
G1 F3000 E50.1720
G1 F900 Z0.500
G0 F4200 X167.507 Y172.881
G1 F900 Z0.200
G1 F1500 E55.1720
G1 F900 X162.967 Y168.341 E55.3855
G1 F3000 E50.3855
G1 F900 Z0.500
G0 F4200 X162.611 Y167.420
G1 F900 Z0.200
G1 F1500 E55.3855
G1 F900 X168.428 Y173.236 E55.6591
G1 F3000 E50.6591
G1 F900 Z0.500
G0 F4200 X169.241 Y173.483
G1 F900 Z0.200
G1 F1500 E55.6591
G1 F900 X162.365 Y166.607 E55.9826
G1 F3000 E50.9826
G1 F900 Z0.500
G0 F4200 X162.225 Y165.902
G1 F900 Z0.200
G1 F1500 E55.9826
G1 F900 X169.946 Y173.622 E56.3457
G1 F3000 E51.3457
G1 F900 Z0.500
G0 F4200 X170.573 Y173.684
G1 F900 Z0.200
G1 F1500 E56.3457
G1 F900 X162.163 Y165.274 E56.7413
G1 F3000 E51.7413
G1 F900 Z0.500
G0 F4200 X162.102 Y164.647
G1 F900 Z0.200
G1 F1500 E56.7413
G1 F900 X171.200 Y173.746 E57.1693
G0 F4200 X171.751 Y173.731
G1 F900 X162.117 Y164.097 E57.6224
G0 F4200 X162.167 Y163.582
G1 F900 X172.266 Y173.680 E58.0974
G0 F4200 X172.780 Y173.629
G1 F900 X162.218 Y163.067 E58.5942
G0 F4200 X162.281 Y162.564
G1 F900 X173.284 Y173.567 E59.1118
G0 F4200 X173.717 Y173.434
G1 F900 X162.413 Y162.131 E59.6434
G0 F4200 X162.545 Y161.696
G1 F900 X174.151 Y173.303 E60.1894
G0 F4200 X174.585 Y173.171
G1 F900 X162.676 Y161.262 E60.7495
G0 F4200 X162.808 Y160.828
G1 F900 X175.011 Y173.031 E61.3235
G0 F4200 X175.380 Y172.834
G1 F900 X163.295 Y160.750 E61.8920
G0 F4200 X163.860 Y160.749
G1 F900 X175.748 Y172.637 E62.4511
G0 F4200 X176.117 Y172.440
G1 F900 X164.424 Y160.747 E63.0011
G0 F4200 X164.989 Y160.747
G1 F900 X176.486 Y172.243 E63.5419
G0 F4200 X176.810 Y172.002
G1 F900 X165.554 Y160.745 E64.0714
G0 F4200 X166.119 Y160.745
G1 F900 X177.121 Y171.747 E64.5889
G0 F4200 X177.432 Y171.492
G1 F900 X166.683 Y160.743 E65.0945
G0 F4200 X167.133 Y160.627
G1 F900 X177.743 Y171.237 E65.5935
G0 F4200 X178.042 Y170.971
G1 F900 X167.448 Y160.377 E66.0918
G0 F4200 X167.650 Y160.013
G1 F900 X178.297 Y170.660 E66.5926
G0 F4200 X178.552 Y170.349
G1 F900 X167.699 Y159.497 E67.1031
G0 F4200 X167.699 Y158.931
G1 F900 X178.807 Y170.039 E67.6256
G0 F4200 X179.062 Y169.728
G1 F900 X167.699 Y158.365 E68.1601
G0 F4200 X167.698 Y157.799
G1 F900 X179.278 Y169.378 E68.7047
G0 F4200 X179.475 Y169.009
G1 F900 X167.698 Y157.233 E69.2587
G0 F4200 X167.698 Y156.667
G1 F900 X179.672 Y168.641 E69.8219
G0 F4200 X179.868 Y168.272
G1 F900 X167.698 Y156.102 E70.3943
G0 F4200 X167.964 Y155.802
G1 F900 X180.046 Y167.884 E70.9626
G0 F4200 X180.178 Y167.450
G1 F900 X168.398 Y155.670 E71.5167
G0 F4200 X168.833 Y155.539
G1 F900 X180.310 Y167.016 E72.0566
G0 F4200 X180.442 Y166.583
G1 F900 X169.267 Y155.407 E72.5822
G0 F4200 X169.724 Y155.299
G1 F900 X180.551 Y166.126 E73.0915
G0 F4200 X180.602 Y165.611
G1 F900 X170.238 Y155.248 E73.5790
G0 F4200 X170.753 Y155.197
G1 F900 X180.653 Y165.096 E74.0446
G0 F4200 X180.703 Y164.581
G1 F900 X171.268 Y155.146 E74.4884
G0 F4200 X171.866 Y155.178
G1 F900 X180.670 Y163.983 E74.9025
G1 F3000 E69.9025
G1 F900 Z0.500
G0 F4200 X180.609 Y163.355
G1 F900 Z0.200
G1 F1500 E74.9025
G1 F900 X172.494 Y155.241 E75.2842
G1 F3000 E70.2842
G1 F900 Z0.500
G0 F4200 X173.121 Y155.302
G1 F900 Z0.200
G1 F1500 E75.2842
G1 F900 X180.547 Y162.728 E75.6335
G1 F3000 E70.6335
G1 F900 Z0.500
G0 F4200 X180.329 Y161.944
G1 F900 Z0.200
G1 F1500 E75.6335
G1 F900 X173.905 Y155.521 E75.9357
G1 F3000 E70.9357
G1 F900 Z0.500
G0 F4200 X174.719 Y155.768
G1 F900 Z0.200
G1 F1500 E75.9357
G1 F900 X180.081 Y161.131 E76.1879
G1 F3000 E71.1879
G1 F900 Z0.500
G0 F4200 X179.554 Y160.038
G1 F900 Z0.200
G1 F1500 E76.1879
G1 F900 X175.810 Y156.294 E76.3640
G1 F3000 E71.3640
G1 F900 Z0.500
G0 F4200 X177.743 Y157.661
G1 F900 Z0.200
G1 F1500 E76.3640
G1 F900 X178.188 Y158.106 E76.3849
G1 F3000 E71.3849
G1 F900 Z0.500
G0 F4200 X162.817 Y78.731
;TYPE:WALL-INNER
;WIDTH:0.400
G1 F900 Z0.200
G1 F1500 E76.3849
G1 F900 X162.718 Y78.546 E76.3919
G1 X162.183 Y76.784 E76.4532
G1 X162.003 Y74.950 E76.5144
G1 X162.183 Y73.116 E76.5757
G1 X162.718 Y71.354 E76.6370
G1 X163.586 Y69.729 E76.6983
G1 X164.755 Y68.305 E76.7595
G1 X166.179 Y67.136 E76.8208
G1 X167.804 Y66.268 E76.8821
G1 X169.566 Y65.733 E76.9433
G1 X171.400 Y65.553 E77.0046
G1 X173.234 Y65.733 E77.0659
G1 X174.996 Y66.268 E77.1272
G1 X176.621 Y67.136 E77.1884
G1 X178.045 Y68.305 E77.2497
G1 X179.214 Y69.729 E77.3110
G1 X180.082 Y71.354 E77.3723
G1 X180.617 Y73.116 E77.4335
G1 X180.797 Y74.950 E77.4948
G1 X180.617 Y76.784 E77.5561
G1 X180.082 Y78.546 E77.6173
G1 X179.214 Y80.171 E77.6786
G1 X178.045 Y81.595 E77.7399
G1 X176.621 Y82.764 E77.8012
G1 X174.996 Y83.632 E77.8625
G1 X173.234 Y84.167 E77.9237
G1 X171.400 Y84.347 E77.9850
G1 X169.566 Y84.167 E78.0463
G1 X167.804 Y83.632 E78.1075
G1 X167.621 Y83.534 E78.1144
G1 X167.621 Y79.641 E78.2439
G1 X167.557 Y79.321 E78.2548
G1 X167.343 Y79.008 E78.2674
G1 X167.028 Y78.791 E78.2801
G1 X166.706 Y78.730 E78.2910
G1 X163.317 Y78.731 E78.4037
G0 F900 X162.817 Y78.731
G1 F3000 E73.4037
G0 F4200 X162.578 Y79.131
;TYPE:WALL-OUTER
;WIDTH:0.400
G1 F900 Z0.200
G1 F1500 E78.4037
G1 F900 X162.347 Y78.700 E78.4200
G1 X161.789 Y76.862 E78.4839
G1 X161.601 Y74.950 E78.5478
G1 X161.789 Y73.038 E78.6117
G1 X162.347 Y71.200 E78.6756
G1 X163.252 Y69.506 E78.7394
G1 X164.471 Y68.021 E78.8033
G1 X165.956 Y66.802 E78.8672
G1 X167.650 Y65.897 E78.9311
G1 X169.488 Y65.339 E78.9950
G1 X171.400 Y65.151 E79.0589
G1 X173.312 Y65.339 E79.1228
G1 X175.150 Y65.897 E79.1867
G1 X176.844 Y66.802 E79.2506
G1 X178.329 Y68.021 E79.3145
G1 X179.548 Y69.506 E79.3784
G1 X180.453 Y71.200 E79.4423
G1 X181.011 Y73.038 E79.5061
G1 X181.199 Y74.950 E79.5700
G1 X181.011 Y76.862 E79.6339
G1 X180.453 Y78.700 E79.6978
G1 X179.548 Y80.394 E79.7617
G1 X178.329 Y81.879 E79.8256
G1 X176.844 Y83.098 E79.8895
G1 X175.150 Y84.003 E79.9534
G1 X173.312 Y84.561 E80.0173
G1 X171.400 Y84.749 E80.0812
G1 X169.488 Y84.561 E80.1451
G1 X167.650 Y84.003 E80.2090
G1 X167.221 Y83.773 E80.2252
G1 X167.221 Y79.680 E80.3613
G1 X167.181 Y79.479 E80.3681
G1 X167.055 Y79.295 E80.3755
G1 X166.871 Y79.168 E80.3830
G1 X166.669 Y79.130 E80.3898
G1 X163.078 Y79.131 E80.5092
G0 F900 X162.578 Y79.131
G1 F3000 E75.5092
G0 F4200 X163.220 Y78.650
;TYPE:SOLID-FILL
;WIDTH:0.400
G1 F900 Z0.200
G1 F1500 E80.5092
G1 F900 X162.662 Y78.092 E80.5355
G1 F3000 E75.5355
G1 F900 Z0.500
G0 F4200 X162.416 Y77.280
G1 F900 Z0.200
G1 F1500 E80.5355
G1 F900 X163.785 Y78.650 E80.5999
G0 F4200 X164.351 Y78.650
G1 F900 X162.237 Y76.536 E80.6993
G1 F3000 E75.6993
G1 F900 Z0.500
G0 F4200 X162.176 Y75.909
G1 F900 Z0.200
G1 F1500 E80.6993
G1 F900 X164.917 Y78.650 E80.8283
G0 F4200 X165.482 Y78.650
G1 F900 X162.114 Y75.282 E80.9867
G0 F4200 X162.105 Y74.707
G1 F900 X166.048 Y78.650 E81.1721
G0 F4200 X166.614 Y78.650
G1 F900 X162.156 Y74.192 E81.3818
G0 F4200 X162.206 Y73.676
G1 F900 X172.671 Y84.141 E81.8741
G0 F4200 X173.186 Y84.090
G1 F900 X162.257 Y73.162 E82.3881
G0 F4200 X162.384 Y72.723
G1 F900 X173.625 Y83.963 E82.9168
G0 F4200 X174.058 Y83.831
G1 F900 X162.516 Y72.289 E83.4597
G0 F4200 X162.648 Y71.856
G1 F900 X174.492 Y83.699 E84.0168
G0 F4200 X174.926 Y83.568
G1 F900 X162.780 Y71.422 E84.5881
G0 F4200 X162.971 Y71.047
G1 F900 X175.300 Y83.376 E85.1680
G0 F4200 X175.669 Y83.179
G1 F900 X163.168 Y70.678 E85.7561
G0 F4200 X163.365 Y70.309
G1 F900 X176.038 Y82.983 E86.3522
G0 F4200 X176.406 Y82.785
G1 F900 X163.562 Y69.941 E86.9563
G0 F4200 X163.790 Y69.604
G1 F900 X176.744 Y82.557 E87.5656
G0 F4200 X177.054 Y82.302
G1 F900 X164.045 Y69.293 E88.1775
G0 F4200 X164.300 Y68.982
G1 F900 X177.365 Y82.047 E88.7921
G0 F4200 X177.676 Y81.792
G1 F900 X164.555 Y68.672 E89.4092
G0 F4200 X164.811 Y68.361
G1 F900 X177.987 Y81.537 E90.0290
G0 F4200 X178.242 Y81.227
G1 F900 X165.122 Y68.107 E90.6461
G0 F4200 X165.432 Y67.851
G1 F900 X178.497 Y80.917 E91.2606
G0 F4200 X178.752 Y80.605
G1 F900 X165.743 Y67.597 E91.8725
G0 F4200 X166.054 Y67.342
G1 F900 X179.007 Y80.295 E92.4818
G0 F4200 X179.236 Y79.958
G1 F900 X166.391 Y67.113 E93.0860
G0 F4200 X166.759 Y66.916
G1 F900 X179.433 Y79.589 E93.6821
G0 F4200 X179.629 Y79.220
G1 F900 X167.128 Y66.719 E94.2701
G0 F4200 X167.498 Y66.523
G1 F900 X179.826 Y78.851 E94.8500
G0 F4200 X180.018 Y78.477
G1 F900 X167.872 Y66.331 E95.4213
G0 F4200 X168.306 Y66.200
G1 F900 X180.149 Y78.043 E95.9784
G0 F4200 X180.281 Y77.609
G1 F900 X168.739 Y66.067 E96.5213
G0 F4200 X169.173 Y65.935
G1 F900 X180.414 Y77.176 E97.0500
G0 F4200 X180.540 Y76.737
G1 F900 X169.612 Y65.809 E97.5640
G0 F4200 X170.127 Y65.758
G1 F900 X180.591 Y76.222 E98.0562
G0 F4200 X180.641 Y75.707
G1 F900 X170.642 Y65.707 E98.5266
G0 F4200 X171.157 Y65.656
G1 F900 X180.692 Y75.192 E98.9751
G0 F4200 X180.683 Y74.617
G1 F900 X171.732 Y65.666 E99.3961
G1 F3000 E94.3961
G1 F900 Z0.500
G0 F4200 X172.359 Y65.727
G1 F900 Z0.200
G1 F1500 E99.3961
G1 F900 X180.622 Y73.990 E99.7848
G1 F3000 E94.7848
G1 F900 Z0.500
G0 F4200 X180.561 Y73.363
G1 F900 Z0.200
G1 F1500 E99.7848
G1 F900 X172.986 Y65.789 E100.1411
G1 F3000 E95.1411
G1 F900 Z0.500
G0 F4200 X173.731 Y65.968
G1 F900 Z0.200
G1 F1500 E100.1411
G1 F900 X180.382 Y72.619 E100.4539
G1 F3000 E95.4539
G1 F900 Z0.500
G0 F4200 X180.134 Y71.805
G1 F900 Z0.200
G1 F1500 E100.4539
G1 F900 X174.544 Y66.215 E100.7168
G1 F3000 E95.7168
G1 F900 Z0.500
G0 F4200 X175.549 Y66.655
G1 F900 Z0.200
G1 F1500 E100.7168
G1 F900 X179.694 Y70.799 E100.9118
G1 F3000 E95.9118
G1 F900 Z0.500
G0 F4200 X178.745 Y69.285
G1 F900 Z0.200
G1 F1500 E100.9118
G1 F900 X177.064 Y67.604 E100.9909
G1 F3000 E95.9909
G1 F900 Z0.500
G0 F4200 X167.700 Y79.736
G1 F900 Z0.200
G1 F1500 E100.9909
G1 F900 X172.155 Y84.191 E101.2004
G0 F4200 X171.640 Y84.242
G1 F900 X167.700 Y80.301 E101.3857
G0 F4200 X167.700 Y80.867
G1 F900 X171.066 Y84.233 E101.5441
G1 F3000 E96.5441
G1 F900 Z0.500
G0 F4200 X170.439 Y84.172
G1 F900 Z0.200
G1 F1500 E101.5441
G1 F900 X167.700 Y81.433 E101.6729
G0 F4200 X167.700 Y81.998
G1 F900 X169.812 Y84.111 E101.7723
G1 F3000 E96.7723
G1 F900 Z0.500
G0 F4200 X169.067 Y83.932
G1 F900 Z0.200
G1 F1500 E101.7723
G1 F900 X167.700 Y82.564 E101.8366
G0 F4200 X167.700 Y83.130
G1 F900 X168.254 Y83.684 E101.8627
M106 S0
G1 F3000 E96.8627
G0 F900 Z5.200
G0 F4200 X168.254 Y83.684
M221 T0 S100
G92 E0
M1002
M104 T0 S0
G91 ;Relative positioning
G1 E-2 F2700 ;Retract a bit
G1 E-2 Z0.2 F2400 ;Retract and raise Z
G1 X5 Y5 F3000 ;Wipe out
G1 Z10 ;Raise Z more
G90 ;Absolute positionning
G1 X0 Y0 ;Present print
M106 S0 ;Turn-off fan
M104 S0 ;Turn-off hotend
M140 S0 ;Turn-off bed
M84 X Y E ;Disable all steppers but Z
;Data start:52188:119e9a23b75deb90049e1875734344dc
;SURFQSAtIFBSSU5UREFUQUlZDHzi6E17riyBkcQfrmfJM1k3TZZ8P1L16NVJSnsU8DNAPfSj9H2o9h8
;ermQEiEjHPEVt3BVQqKuKujk+FHmSMiw9gaORfSGlHwWuBWeKTsg8W2naHUuvm4aKLyUPYP1ec0700f
;ccy4AfH64FZ+stq9B3DLt8P8aVi7YoJh5m80dFUu/8+BPOjHNyrgRn6y2rWTeF6HwnxvTotC4pHnj3Q
;U1J6Mz/IsGLbHvaWg6FQ84rNw2ofD/G9OhcDUpjFJIzTV7ixv0Y2oRrd8FrOIJD2DxDU8cJS6OG6NRN
;SnsUkjOlfYGxkX2ohHx9y2kCmUzfMFhi9wxNr5qc1UxKexSSMyy0waOBfajlfn3NYAuOX8otXmPGI0u
;phOjUTUp7FJIzpX2Bu5F9qIR8fctpAplM3zBYYvcIULarm6A/LBp39zMtPYGjkX2obF8evQVn60zIOl
;JgzQ5esp2HuxI+CXXkVkA9gKORfajlb4nuBU7rLas4QWPBGGCyhomjKCYkfP1fSU7e0/AJwLpyf9ZaC
;45DzC1fU84dXLKbmtVMSnsUkjMsVMGjuH2o5X5owWwDtFnZOEFpxCNXqZiNphI6GmD6bEFc+fz/EveX
;emrcZASfRMQ3Nw2ofD/G9OjVTUpoFJIzTUXo0M4ex4hve8B2Bp9ExDdodKh9P8b06NVNEzsUgTMsPeD
;b+A73hnBz3mAJmEzfMFhi9wU/x/To1U1Ke03SMz49gaPzEtyRcHPxaQaSSNkGRHzNGVvG9ejVTUp7FL
;xzLC2Bo5Efx5FrccNaE4NEyDJZadsPP8ducUzU0+LdrTMyPYGj8w/BgXh3wGI4jlXfK0J/wRNRmYOBs
;TkiJGbzR0VSgaKRfajlH57PRWf5LatZVX7BGFivmo+KKysVS+FDSVjlo5B9qOUfHq5cJ+s5q1k3btoV
;W6GdhrISLBJs91dzXO/E/Rio5B8ergVnC03rWS4MqHxdtJ2MsiQkHEv0X0Nc9cb1IsmXen/xaA6FLap
;ZNwyofD/ytOjETUp7duBaSFrozfYizolwadxkE44tqlk3DKh8P5+06M1NSnt24FpIWujN9iLbjXpywn
;Y4jUHELkVt3Bk/x/To1U1Ke03SMzk9gaPzD8GBeHfAYjiYRc41W3/3D0+jkYzVTEp7FJIzLAPBo599q
;OV9bMdhAIJDzAZEfM0ZW8b16NVNSnsUtnMsHIGjkR/ajHt5x2sAtF7eKUdj2ghaoquJpygrJGbzR0VS
;3s7wBajkHx6uBWfrZOtZOAyofF20nYWKISMVcc1QQ0jv15F8qOUfHq4Fc6stuVk3DMsTXrWAgbsqFR9
;94UdNU+LGoH2p5R8ergVnCxKrSzcMqB9Qp4ecvCMtJHD7QFhc78D0T6jkHx6uBWfrzZRZJgyofFypm4
;SKICMVS/RWSVnzwuUYqOQfHq4FZ+sJ61kkDKh8XKmbhIogIxVL/lJVWPP85RTFgB8frgVn6y2rTXcMt
;Xw/xpCNuz4vJGfnQ1xS89fOFMaDdnLCWgieWccwWWnbfD7G9OjVTUp7FJIuLD2Bx/QT24BAbdt1F4Rf
;3wZeYsYZTZmRkKUsJAh9/V0sPBs6COQxfPYhrh5n6y3PPFl/zSNMs4SYuj8+JHjzSklP8vzzEtyRcHO
;uBGfrLatZNwyofCzG9OixKCQIcc1AWU3xzOMJ95Zve8thZ+otq1k3DKhCf8bt6NVNLhJ5911fVO7Nzg
;XRunxxw3UChV7KLV5jxnw+xvTo1U1KexSSLSw9gcf4EM2LbHfBaziTVPQ6WGHYGVG1lZy8IiQkfP1fS
;T2Ao5F9qOUfHq4FaOstqzxPeNoJW6OGt7QgJQ565jMtPYGjkX2oFSAevAVn60jTLUV5zBlNmZuOsz4v
;D0vqAiw8gaORfajlJl6uF2frLc4hQ37dGFq0q4ezKzkeYM1LHj2Ao5F9qOUfHq4FdestqzxPeNoJW6O
;Gt7orLAhx5mxUDoGikX2o5R8ergVn+S2rWVJ03A5KopGaiiIsHWf3R3NEsKOQfajlHx6uBWfrP6tZN2
;nQCE2zkI2nEiUdcuFWWGL4kZF8qOUfHq4FZ+stuVk3DM0ES7SBjLA/FRRy9EBJSd7aon2p5R8ergVn6
;y2rajcMqBlHsoadsSg4JGflWlhe6fzyEseJdnDJWg+OTN8sR1PJGEmnmouwEj4eeeJWXlz11uMYmeUe
;Hq4FZ+stwhk3P6h8P6OMnKc4Lh5mzUBbVPXA+SLLinByx2sAtEXOOEN52CNeooKJuy4vJGD3XlxY88L
;lCNqALR6vBWfrLatZXkyoVz/G9I2tOTgOcPdBc072yuUewLp8ccFpDoVK9DFSbdwJT5mVjKMsJBhxzU
;dFUOSjkH2o5R8erkEn6zOrWTdp0AhNs5CNpxI5DH3mUERi4sz+EcGLeEHeZBWActNZNgyofD/GdKqVT
;VR7FJJWVEnz1vUY2rpsacdxBINyyDZYYMESWJmEiacmFQIUkzMsPYGjoRbo5TsergUCk1nZLFNp2iNM
;sZ2ctiUVGHv9X0VT5vzlGMWVemzPcRKZSJpZNgyofD/GdI6VTW57FJJWVEnz1vUY2rpsacdxBINyyDZ
;YYMESWJmAjbg9Lwl15kZeWLOjkH2o5R8eLmMn6wirWTdp0AhNs5CNpxI5DH3mUERi88biCcmXa0HLfR
;OZTPQ4WmPdEkv09OnVTUp7FJIzLD2fo5F9zZ1rbNthAply2C5eeMsUYLSRm6EsOA9L4UNJWOWRkXyo5
;R8ergVTqy2JWTcMzQRLtIGMsD8VCGP7R09V3tH0CdqEfGrHagm0TMY2QmLcTj/H9OjVTUp7MNIzDT2B
;o/QF3Jdqest3OJhawi1UZPcOWrKGibY5IxR6zUBcWOTHo32p5R8ergVn322rVjcMqBlHsoadpiQlFUv
;lWkhJ6aOQ5zF8hoc33FjrPKtZN2nQCE2zh4G6IxUMffZHRGKzo5DnMXyGhzfcWOs+q1k3askSYKSYga
;USOhph4VZzUPLG8n2p5R8ergUnlG2rSzcMqBpeqKuKuSQ6JGD6QUlO6cz9GajkHx6uBWfrE+tZOAyof
;FmnmrezOCYXS/pWRVrp15F8qOUfHq4Fh9QtpVk3DM4dUZmSnbkhFRd161ZePYCjkX2o5R8e7gVu6y2r
;P1Zi9w9Po5GM1UxKexSSMyxkwaOcfajleX/AWhSbSM49aGHJBD/H9OjVTUp7TdIzPT2Bo/cUxIRye8B
;xOI9EyjRSeM0OP8f06NVNSnvorTM+PYGj9xTEhHJ7wHE4j0TKNFJ4zQ4NxvXo1U1KexRuDCwvgaORG8
;GJfnPLaxO0ScI4WmncGU319OnVTUp7FJIzLD2To5F9zoxzf8NgCZ9yzzBWYc0IWrTA6NRNSnsUkjMsP
;YGukX2og3Zyz2gChVn0P1tj33w+xvTo1U1KIlSSPSw9gcX4EcmIenDaWgGHQtxoNw2ofD/G9OiMDUp1
;FJIzSlTtwvwYxpFAeMJqENktqlk3DKh8v5C06NhNSnty+19NUOTN5SLcnG97rgRn6y2rWTcM6HwxxvT
;osyQmGnn3XVhi9drhGJrlHh6uBWfrLasZNwCofD+gnYS5Ei4eeuFaWESBopF9qOUfHrpFZ+ctq1lRZc
;QQYKmCjachKwsUkzMsPYGjkUPo5T4ergUBgl/YLWhgyQVatKuNrTk4Dmf7XEJi9sr1CcC6bX/abAjrL
;KtZNwyofGaG9PrVTUodfeBAWGLtwugY2rpsdstpC5gtqlk3DKh8P8K06PtNSnty+0FfSd7P8ATNl0Bt
;wWkOj3LCN1FlxBBgo4ycpzg5Env8bFtU5df5ItqEa3fBBWbrLatZNwzxPD/e9OjVKyMJZ+ZfTUTk0c4
;bwYl+c8trE7RLxzZADKl8P8b06NUUCnsHkjMsW+jb9Bn3iX5ny3c4mFnKK0NT0Hw+xvTo1U1KIlSSIC
;w9gcX4Bc2BQHLPfAKZctgtVn7cI0bG9ejVTUp7FMxzLB6Bo5EayZVAeMdpC7RewjdQYM0jWr6AmqA+I
;xR6zUFNSejMzhDJnR8frgVn6y2rMHcMi3w/xpOJpRIsEnj+bF9U78T9GPeAZ2rccBSCQsUGRW3cFVCZ
;mYG7TUt7FJIzLL3B45FiqOUfec91OI1ExzVof8ESWKqRt7A1Pglh4VpDU97Q4RjNgR8frgVn6y2rHXc
;Mpnw/xpOJpRIsEnj+bF9N5Mb1fanlHx6uBWeibatJNwyoG1ypkI2KOTMLcc1aQlnk25F8qOUfHq4FZ+
;stpFk3DM8QUKSVhIoiLB1n90dzRYGikX2o5R8ergVn5C2rWVBgxx5eqquHsys5HmDNSiw8gaORfajlH
;x6uCmfrLcw1WG7JEGCpko6mKD4kbpIyLD2Bo5F9qOUfC64FZ4NIyi1CfPcbXKmQjYo+Lwph911PWIGi
;kX2o5R8ergVnyy2rWV5izhVTqquJsSw6D33kVnNU78X4EcS6bX/abAi0QMohNw2ofD/G9OjrDUpbFJI
;zRVPnyv0R94R7f95xDp1I9DBZasEQU5mGiaEkJSR5+10sPIGjkX2o5Qterhpn6y3CN1FlxBBgp5CJpT
;kjDXHNWkJT5NHOGNCVfnDdbAiFLarDrpUx5aYvy+jDTUp7ffxVRVHt/PAZyZVrd9hgOIdM0jxFf6h9P
;8b06NVNXjsUiDMsPejN9xTEiUB/ymQXn0TdPGh+zRhKpYCBuiM5exWSMyw9gaORPaj8Hx6ubAmNRMc1
;aG3MHU+ynZ6wEj0ScOZbc1DozZF8qOUfHq4Fb6stt1k3DMESWa+YhIooMg9m50BFUu/85hTMkXdB3GQ
;TgkKrWDcMqHw/xq2o1VlKexT7XUpU7c/OG8GJfnPLaxO0S8c2QAypfD/G9OjVFAp7G5IzLFTvxfgRxL
;pweMh2Ap9y01k2DKh8P8b06NVNRXsUklpCW+jP/SLHg3lty3E4ki2qWTcMqHw/xvTo2E1Ke338VUVR7
;fziFc2Jc22uBGfrLatZNwyofCPG9Oi8IywSeP5sX03g0eIY94Zwc8xsCY5yxzhOadoPP8f06NVNSnvk
;rTMgPYGj+BPOjHNy8XYXjkjPWTYMqHw/xvSslU1GexSSWkJO5NehItuVenvKBWbrLatZNwyWPD/K9Oj
;VJCQIceZLc07xxvQZqOQfHq4FZ+tp61knDKh8VrSbhrwjLSRy/lxbT+DX9H2p5R8ergVn/22rVDcMqB
;VNqZqBuyoVCGT3Vkg9gKORfajlHzruBWzrLaszUn7DI12pgJy6IEp6FJIzLD2Bt9F9u+UfHsRgFYByy
;TZDeMcRYLWBmrMsKR4UkzMsPYGjkWno5RQergUNjl/ABl5izhVTqvTp1U1KexSSJ2w9kaORfcKAbXXx
;bAmYSN8GXmLGGU3G9ejVTUp7FIZzLC2Bo5EXzZd0QcdrFI5Z9DZCeM0OP8f06NVNSnsc0jMmPYGj+xj
;ajkBu3GwJny2qWTcMqHw/xrTo3U1Ke373QUdi9czhfanlHx6uBWf/batJNwyoFlq0n7ehIjokZ+dBSl
;zixpF8qOUfHq4Fc6stoFk3DMIZTa2rnKcsPB54kjJKW+fF9xuipR8SrgVnh0zSPEVTwBlWoZyc1UzQ4
;o0LqrX0vqO3fajlc3/XYBW0Rc4wUGTcI16ilZihJDweS/9SVGLpxvgawJFAbM9xDoQtqlk3DKh8P4i0
;6PNNSnt480pJT97L9BTPjWtBz2EGm1nCL1JTxRVRmZyNvCoiD0vgUlhU7qOQfajlHx6uPCfrDqtZN2D
;JBVq0q4CwJC0TYM1SSFzx1/gLzbpsf8N1C4JDzAZEeM0MP8eP/HsKqwGQrTMHPYGj/RzRgG1BxmAOjE
;XfBlZoyQxLr4KNij4+HmT9RUlP3sH+CdyKckHcZBOCQqtYNwyofD/GvajVZUp7FP5SVVjz/PkYwYJ3a
;vFkA4pd3zBBafcPS6OEh6MoOCRg/UNzT+DX+BKo5B8ergVn62TrWSAMqHxTp42NpxInHmb1VnNe7czi
;GPeDfn3LdmfqLatZNwyofD/G7OjVTSYabfdBc07kxPwYxpFAcstrAJ9F9DReYqh9xbieVKHewkQUhjM
;sPe3C6Bjaumx2y2kLmHLEL1J+xB1PxvXo1U1KexTbcywogaOREcmcemzxdhOKX98pWGXGCGCyjZiwTU
;t7FJIzLD2J45F2qOUfcMF/HYdI9Cpeds18Psb06HXU06IrkjwsPYHM8xfNhmtBzWAJn0jZBk8MqXw/x
;vTo1b31exuSMyxS48n0Hty6fHvAcQKZctJZNgyofD/G9BhqTUF7FJJcTlfkwOUi24xxda4EZ+stq1k3
;DKh8Lsb06LoiMB5L4VtFWO3HzhzGgnN7rgRn6y2rWTcy6HwpxvTouiIwHkvhW0VY7cfOEcGLekHNahK
;FWatYNwyofD/GBNfVX0p7FP1cVlje0PkUzYl7QcFjAZhI31k2DKh8P8b04JVNX3sUklxaWPPL8BPPum
;x2y2kLmHLKN1BgzXw+xvTo1U1KRVSSKiw9gcznGNqNfnDJWhSDSMc1RFPOHVGZh5iwKC57FZIzLD2Bo
;8g9qP0fHq5qEY5fwzhZa/cPV6OYhKYSLBd75UFNSeSjkH2o5R8erlEn6zirWTdj3hlNrpWGshI5E3H+
;X19i8tP0GMzlHh6uBWfrLY8ZNwCofD+pgo2nISsLS/ZGTVGBogvkMXyGh2c6Z/4tq1lHfsESS5mWjbE
;SPh554lZeXPXW4xio5B8ergVna3zrWTwMqHxPtJ2GoRI5C3H3Vyw8gaORfajlVl6uFGfrLdsrXmLcI0
;ujmZiwPysPYeBWLDyBo5F9qEV2Xq4XZ+st2yteYtwjS6OZmLA/Kw9h4FYePYCjkX2o5R937gV16y2rK
;UVlxghgspGFpSg4GmDnQUkOgaKRfajlHx6uBWf5LatZR37BEkuZgI24PS8JdeZGXli1o5B9qOUfHq4F
;Z+smq1k3fskaS5mVgacqKwsUk6m1pBg6CLSX5QAergUVikvfBlVt2xlgo4ycpzg5Env8bFtU5df5Itq
;Ea3fBBWbrLatZNwzBPD/Q9OjVPysdYM1RTU7k/PgTzoxzcvFkCYxBzlk2DKh8P8b06NVNXHsUkkFNW/
;X88xzbgEB3wGMOh0H0K1Z4wRM/x/To1U1K+1TSMzw9gaPjHM6RQHzPdgK0QcogUn7bfD7G9OjVTUp7V
;JIgLD2B0fAb3Lp9f91gOIdExTxAZcwIV8b1ckzU0+KNewwsMoGjkQ/Jg2tBzGQUjnLYKVJpzHw+xvTo
;1U1KW1SSICw9gdHwG9y6fX/dYDifRcI6XGLND0zG9ejVTUp7FHIMLBmBo5EPyYNrQcdrE45fzThUafc
;ZR7KGnaYkJRVL5VpISen84xzcjHAerwVn6y2rmVVMqGc/xvSatCs+JH38R0lP58LyGPeMcXjHaQu0TM
;U+W2mofT/G9OjVzRw7FIkzLD3zwvcJ94xxast3AYpOzgZeYs4VU6qrmrQ5IxQUkzMsPYGjkTTo5Qoer
;gUVikvfBl5i3BlNoJWLsBImGm33QV89gKORfajlH+6RBX/rLasrVmrcI1aogI2nKysYcc1fRVPk1PgZ
;3I0fH502VNgemLoIDL58P8aGibM5FRJ65lZeW+DA9CLblX59x2sA6yyrWTcMqHzP+fT81U1KCXX0R3N
;U79f0D86EfHvxdheOSM9ZNgyofD/G9NaVTVJ7FJJBTVv1/PgT3IBteM9mArRZwzBUZ8YZTLX06Yf1VP
;7/w+sTPZCjkX3ahHlq8WkOhUj0KkdtyxVRofTp1U1KexSSO2w9iqORfdqEeWrxaAaZSsI3Nw2ofD/G9
;OjBDUpUFJIzXlzn184S3oBtbMdhArRLwitEePcQXr+RmoooMg9m50BFUu/85hTMkXdB3GQTgkKrWDcM
;qHw/xq2o1VBKexTgUkpJ3sznGNqXdnrLWgCHQsk4W1PHGlm1kZyKN0p6jguqtaQYai59iuUfHtxkAZ9
;y2CxFaskfWpmRkKE/Pwh9/V1zSujH5RX3l35qx2pn6i2rWTcMqCV/xuLo1U04GnLmbF9I88XwHs26eX
;fCaTiZTN88Nw2ofD/G9KiADUpuFJIzXlzn184O3Zd5f81gOI1BxC5FbdwZP8f06NVNSvty0jM1PYGj4
;xzOkUBt23cBik7OBl5izhVTqquJuyomHhSTMyw9gaORQ+jlDB6uBRWKS98GRHnaGl6lkbe5LDMeZuEz
;LT2Bo5F9qOVfHrgFZ+tfyj9DU9sJTaCVi7ASJhJ690RFWfXLkXwyfIaHN5y+1C2/WTcM2h1ZsquboD8
;sGnf3bF9N4MD4E8/lHhR5phfWJ3xmNx6ofD+0lY6hEjkOZvRST1je0OEYzYEfH64FZ+stqxd3DL58P8
;aGibM5FQhh4FVNXuT85RXBhnRwy3YU6yyCBbjOXVTz+fT61U1KCXHhR01P9fz1CMmJQG3eYAKPLapZN
;wyofD/ytOjBTUp7ZvdAWFzz184Y0JFtf/FkCoRYxS03Dah8P8b06NVNSm0UkjNeWPLX8A/cunpm2ncG
;tEzGNkJi3CMNxvXo1U1KexSSMywkgaORD82Wa3/ccTiOVd8rVlPMCV6qq4m4Ij8VYJIyLD2Bo5F9qOU
;fE64FZ5lI2C1WftwjTLaRjbFNS3sUkjMsPbjjkXKo5R9sy3YTil/fBkR8zRlbmcbo1E1KexSSMxV9gb
;KRfaiXemrcZASfRMQ3aG3FE0qogOjUTUp7FJIzOH2BsJF9qJd6atxkBJ9ExDdobcUTSqiAt+dNS3sUk
;jMsPZXjkWuo5R9sy3EVik7fMFhi9xhKp5i3tCAlDnrmMy09gaORfajBXx67BWfrX84tRW3LCFapmrex
;OCsXS+FDSVjlo5B9qOUfHq4xJ+sKq1k3fs0ITaeXnLwiJCRx/FJOUeT8/gjclnZ6y1oFhFnfNlpTxB1
;Go4ab1UxKexSSMyw9waO1fajlbXvadwaIWcI2WVPNEl6kmI2KIj8PZ/tXSWL1zOEixIRme9x2Z+otq1
;k3DKh8f8b66NVNOB5g4FJPSejM/yLAim8erzZU2B6YauQzqGw/xvSasDk4GnfmWkNT3sv+DffXHx+dN
;lTYHpiKCAy9fD/Gho2hPysYYPtcQmLsyv8i3Jd+aMtpZ+oemGoEP5ufAMbj6NVNOB5g4FJPSejM/yLF
;jHFB2ncGnUjHBgUMqU8M9cfb5q51ewiSMyxP5NfjHMuRdnHAWgqCQ8I0VmD3GUeyhp2mJCUVFJNIOJP
;GQuvpl+UBHq4FFY5Z2ThUeMETUZmZgbskJxp4zVZUSfPW4hTHi0AsrgQc/4PsuE2Yl3wvxvTopyg+CX
;XxR0VS7/ziDc2Aex6vBWfrLatZfkyobj/G9JqwOTgad+ZaQ1Pe0OEYzYFALK4EZ+stq1k3Reh8Jcb06
;KcoPgl18UdFUu/86xXHlUB9wWsDglnCNlk9qH0/xvTo1U26RBSIMyw988blD8mGa3fBaziRRcQpaG/H
;EluvgIG6I3h7FZIzLD2Bo2FCqPYfHq52AohCxT1oYMkFWrSrkoohIx1gkjIsPYGjkX2o5R8XrgVnmEb
;CK0NTzx1PxvXo1U1KexSacywtgaORDsOMbWrxaQ6FSPQ6WHnGCD/H9OjVTUp75K0zOD2Bo+IWwZdrQc
;NsCYJAyjVoYM0SWLKc6NRNSnsUkvNOfYGokX2olnR33HE4mF3OPFMMqXw/xvTo1XkKew6SMyxO7czmI
;syKaHDxYw6ZXt8GUWnfI1OnjY2nPkp6FJIzLD2BU659v+UfHt1oBodB9D9SbdwJTaOHt7EkKxZx5lZe
;PYCjkX2o5R867gV76y2rKlptxBBgoJGJoTg4HmfNW0NR5Pz1FMmIemrLd2fqLatZNwyoYH/G7+jVTTk
;Wdf5fc1vkwuUI2oBsQcdrAYJBxwZFbdwVUMb16NVNSnsUy3MsJ4GjkQ7FhHNy8WMCilneK1J/9w9Po5
;GMij8rD339My09gaORfaisXx6MBWfrXsQ1Xmj3HlCygIe4Ei8DYOBGX1Tuzc4KwYFrdvF3Bp9ExFk2D
;Kh8P8b0sZVNUHsUkkBDUejHzh/HkWtxw1oBgkHKNFJi3CNZqpuf1UxKexSSMyxkwaODfajlbHHCbAO0
;T8QtQ2PFI1OnjY2nTUt7FJIzLH0O45FvqOUfbcFpDo9yyTZDeMcRYLWEjbApSnoUkjMsPYHn0X2+5R8
;e3WoLgkn0MFlqwRBTmZGQpSwkCH39XSw8gaORfajlHx6uFmfrLdg2W2XMI1aokoG5IRUIfPdfQE6Bop
;F9qOUfHq4FZ/0tq1lEY8QVW5mdhrMkJhdL5VpISen8/BTG5R4ergVn6y2rWTcZqHw/tZuEvCkVF3XrV
;l5i9cv4HsOLem3dBWbYHphqBD9LQz/Z9OjVPiUXffZsWFLx/PQF3JdqbcdqCbRawj1DZPcOXrKdh9VM
;SnsUkjMsZMGjhn2o5WxxwmwDtFnEKWhqwRBeq5GGoRIsF3vlMy09gaORfai8Xx6hBWfrXsQ1Xmj3CFC
;2q4S0NC8JFJMzLD2Bo5Fl6OUQHq4FFIRBwj1oeMcMYLWEjbApSnoUkjMsPYHn0X2m5R8e3XUSmV70NF
;Z03xVbspzo1E1KexSSM8wCgYKRfaiWam7eahWfcso9VnzcFUmjq4G7KyMXeM1BTUnozM4QyZ0fH64FZ
;+stqx13DIl8P8aHnaU9JQlgzVJIXPHX+AvNunZwyGwLh3LZOENlxyNSr5ro1E1KexSSMwJ9gYORfaiW
;am7eahWfcso9VnzcFUmjq4G7Iy8JS/dLXFzv0PgSxuUehDec/nK0cmY3G6h8P7WBmKUiOA9L81dNTfX
;K5xj3iX5ny3cU6yyrWTcMqHwrhvTz1U1KCGHiQ0NP9fzwGcmVa3fYYDiZSM8sVHjBE1G19OnVTUp7FJ
;InbD2bo5F925BvbsF3E7RMzzhHeMEKWpmDgbE5IiR5+10sPIGjkX2o5Rderghn6y3YLEd8xw5LmZWGs
;iEvexWSMyw9gaPfPaj2Hx6udhKbXcQrQ1PKHUyjq4S0NC8JZ5IyLD2Bo5F9qKUfB64FZ5hY2ylYftwj
;XaeHjYohKwJx4EBzTvHG9Bmo5B8ergVn6xPrWSkMqHxMs4SYuj8+JHf9XUJY4tf4Esa6Z2fxYQ6YWco
;3VGmofaVfbXFM1PNEFIUzLD3y1uENx5drQcpgCZhI9D9eYMQjTaeAjdVMSnsUkjMsacGjgn2o5Wxr3n
;UImVn0PVJi2xlgqpWRsD9KehSSMyw9gaORfb3lHx7dcBebQtktaGrBEF6rkYahEiwXe+UzLT2Bo5F9q
;LxfHr8FZ+te3ilHY9oIYKCdhLkSOBpg9zMtPYGjkX2o218euQVn617eKUdj2ghgr5qOvCEmJHvnR0BU
;78bifanlHx6uBWfrLatKNwyoD0q2hIenORULff5fTU/e0PgHzeUeHq4FZ+stuxk3J6h8P7WBmKUiOA9
;L4V5NUe389xHHhGt7yloBjkzfLEVp2yNHv6uNrT0rFWf7XEI9gKORfajlH+6RBWrrLasqQnzYE02yq5
;ulKC8fFJMzLD2BoxE76OUMHq4FFJ5d2zZFePcERpmQgaY5KxV39zMt8E1vXbFkCSAeugVn617eKUdj2
;ghgvo23sDU6GnrhWkNTgaIL5DF8hodnOmf5LatZRHnYDFC0gLevEi4SZ+ZSQl7ko5BOm9YsLZ3GWOsx
;q1k3f90MT6mGnIo3FRRy9EBJSd7H/grGunN/12AVmC2qWTcMqHw/Nsvoz01Ke2fnQ1xS89fOB/eKeXj
;dYBO0WNsGW23RGU219OnVTUp7FJLDEz2ro5F925BteM9mArRexDVeaPceULKAh7gSLwNg4EZfVO7Nzg
;rBgWt28XcGn0TEWTYMqHw/xvSxlU1XexSSQFlP58LyGPeWcHLHYTiJQt8tWGH3GlOpg5q0OS97FZIzL
;D2Bo8g9qP4fHq52EplLyjpSU9sTU6+Qt7ciPg97/2xAXPjG4w6o5B8ergVn692UWS0MqHxMs4aOtC4v
;JGf9X0VZ3sH+CdyKckHddQKOSatYNwyofD/GyqjVakp7FOFGXlvgwPQi24pzd8paE4Rd9DxPeNoJTK+
;bhoo6Ix9g+mxeXPXK/n2p5R8ergVnsm2rQzcMqA9KtJKJtigVCHv+Wkhi9czhIs6JcGncZBOOLapZNw
;yofH+etOjNTUp7Z+dBSlzixs4Ox4l2evFxCJtyxzhOadoPP8f06NVNSnvkrTM7PYGj4gjag359y1oUh
;EHCPWh4xwxgtYSNsClKehSSMyw9gZ3RfaflHx7abQ6Fctw4W2D3D0+jkYzVTEp7FJIzLAPBo4h9qOVr
;dsdrOJxMxzVoe8EYS66rmrQ5IxRL/1JUPYCjkX2o5R937gV+6y2rLV9lxiNIp5iEijojH2D6bF5c9cr
;+IsWMcR6vBWfrLatZDkyobD/G9Jy6PRUZe+ZHQ1De0OEYzYEfH64FZ+stqxd3DKR8P8aAmrQ7LxdL4U
;NJWOWjkH2o5R8eLlQn6zOrWTd42h1Jo5i3rxItGHv2VnNZ6NDlHMaGekHIbAmCXsNZNgyofD/G9PyVT
;Vt7FJJFSU/yyv4T94l+bdpaAo9E31k2DKh8P8bLWZVNQXsUkkRNUe384hXNiXNtrgRn6y2rWTcM6Hwx
;xvTooiwmF0vmW0Ve6s30DtvlHh6uBcdytEJmNxaofD+xnZiwEiUOYPdBc1Tv0PQJ94F2bdpkCYhImlk
;2DKh8P8b06NVNUHsUkkRFTeT8/gjcgG1Bx2sUjln0PV5/3B1RpZHa1UxKexSSMyw9gaOGfajlaHfeYD
;iEWN88RVPBEkyjgLemPS8ecKMzLT2Bo5F9qKtfHrkFZ+tawilSU8cJS6OGt7wjOR5gzUBcWOTHo32p5
;R8ergVnpW2rTDcMqAtWtpG3oSI9HmbNVUVF5MfODceWZx6vBWfrLavZfEyoaT/G9J+8PS8kYP1ESU/e
;xfgFzYFAbsF2Hussq1k3DKhMVIb0/tVNSgx94lZzSe7U9A/3jHF4x2kLtF/KLVIMqXw/xvTo1RQKewa
;SMyxK6NP0ItyKaHvcWgiNS9g8Q3SofT/G9OjVTUq7FIAzLD32yuEY95Fwact3OIRLzSpSeNF8Psb06N
;VNSntUkiMsPYHU+A3Numtx2WAVtF7bPFJoqH0/xvTo1U0DOxSDMyw99srhGPeRcGnLdzidQscsWmmof
;T/G9OjVTWQ7FIczLD32yuEY95Fwact3OJ1CxyxaafcRVqj06dVNSnsUkhdsPZGjkX3fjG978XEInEjZ
;BkBlzAhXxvXo1U1KexSmcywygaORCsGVekHZZAuHctgpUmnMfD7G9OjVTUoyVJI9LD2B2c4J2oRpe8J
;aFJtIzj03Dah8P8b06PsNSmgUkjNNXuLG/RjahGt3wWs4jkPKO1tpqH4/xsTo1U0rDXv7V3NJ88LnGM
;S6d3HCYBS0XcotX1PFHUeZmI27Kj4TS/RST0nu0c4YxoR9cssFZestpFk3DMoOVqKTgbsqFR5681FAW
;IGhkX2x5R8ezHcOj0rCN1BTzh1RmYeYsCguJHH8Uk5R5KOTfaj+Hx6uZxWCScwwWWv3Gla+kYyKLCQc
;ePdsSVPgwf0YqOceHrgFZ+tP2TBTa8ESWJmHgLAhJghL911NX+3GkX+o5QUergUFmUTGBlJ03BlNqJW
;Eij4iHnj+QHNb6NHiCajnHx68BWfrT9kwWlPBEkyvkI2KKCQadv5WLD+Bo7J9qOV8cc92E4JDzAZSYs
;keU6OrgbsrIxd4zUBFU+bP9CLEjHF7nwVl6y2IWTcMyxNetYCBuyoVHnrzUUBY3sr/G8GJc0HdbAmMQ
;c4GW2XGGQ3G9ujVQ0p7FPFcQ1Hey/QczLpzd8hxZ+ktq003DKgfUKmYgbsqFR11/GxFU+LR9BzbgB8c
;rwV86y2rOlhjxBVRoauYpyQkD2fiVklZ3tD9Et+BcGnABWXqLZhZNwzMGVG1kbemODoLe+BHc1Tvxfg
;RxLpqbctaC4JDzipoZcYjV6+TgIopLxVn+0dVYubR+Bmo5x4ejAVn60nON0Rp9w9KtoSHpzkVF3XrVl
;5O3sH+CdyKckHLawaJQc5ZNQyobT/G9I27LCgXcc1ERU3k/OUS34BtHqwFZ/4tq1lSdNwZTaiVhIo+I
;h54/kBzW+jR4gmo5x8eiwVn60jTLUV5zBlNmYefvDkpE0vxXENR6M32IsqAeXHcYDiYWsItVGSofj7G
;0ujVTS8DYOBGSFjz/OIKwZF8dvFmCIRBwjdQU8AZXrKBmIosLg11/FBJPYOjkV2o5R971nEVnknOK2h
;/3xVLpZy3tiIlF338VHNU78LyCcGTeh6sBGfDLatZUnTcDkqikZqKPj0SYPFbc17uzP0UxoJAbs93DL
;RAxC9SU80SXqSYjdVPSnswkjMsWPnX4wjMgG1B3XIOn07DBkR4xwxgsZ2YsBI9Gnj+bFhS9sbjfarkH
;xGuBWeNTMUGVWDBDGCjmom3IS97FpMzPj2Bo/ccxrp8ccFpDoVK9DxZbcoQWsb26dVGSnsU9FJCYuTN
;8B/EgHserARn+C2rWVFtxhNZoKuPtiIuHkv3XU1f7caRf6nlBh6uBQGCX9gtaGDJBVq0q5u9KCYXZ81
;WQlzjz/R9quUfK64FZ41E2SpDU8QdRqOGt6YiJhJwzVpCW+jP/SLNnWts23YOhEP0Ll5o3BRgtJWcvC
;IVHnrzUUBYgaGRfYjlHx7IbB+0RcQrRWXKEFqZkZChKCQIfeRWc071yuUewIxxea4HZ+swq1k3asEEY
;K6bmqckKBdxzUZCVO7NzhzEiUBq13UCtEyrWzYMtXw/xpKBrRIiFGbgWk5R5PzkE8GKcUHPaQu0WdIp
;UlPKfD3G9PXVTUodfepsRFLz0fgfxIBAa8BsCIVyxC9SfsQdT7aRjNVPSnsOkjMsW+jbzhXHl213zGk
;CtFjYPGhj2BlRmZaBoT5KeRSSKCw9gcX9Et+XfmrLWhWOXs4taGvLE1ujq427LCgXcZIxLT2Oo5F9z4
;RvQchsC4dy2DFSYMQPP8T16MxNSntz80NzW+jP/SLbjHF5wmA4jlXfK0J/wRNRxvbo1VFKexT1UENZ5
;Pz3FMSAcX/DYDiNQtk0Vnj3GVGnloSwTUh7FIkzLD3ozfcUxIlAL541OJ5ezgZEY8QVW5mdhrMkJhcU
;kDIsK4GjkRTGg3ZywloGj0zbLV56zSNaqJWKuShKeRSSFyw9gcr/G8GJc0HNagmISMUtRWXLI0ypmIG
;xEj8Icc1UTU3exfgRxOUdHq4dZ+stwjdRZcQQYKWbhrsoKQ9L911ITe7K/wnb5R0ergln6y3CN1FlxB
;BgoJ2apjlKeRSSKSw9gcr/G8GJc0HdbQKHQdgGQn/NI1inhLezJCYXFJAyLBiBo5EUxoN2csJaEphI9
;DVeYs0PYK+at70kLRNL9lZCTujX6CLPl3Z6rgdm6zerWTdlxg9atIC3vSgrD2HibEte7sf0Is2LfnzC
;YGfpLKtXNwyoFU2pmoG7KhUeevNRQFiBoZF9o+UfHsRgFYByzjdWbsQZP8T06MlNSnt480pJT97L9BT
;PjWtBz2EGm1nCL1JTzRJepJiN1U9Kew+SMyxR4Nr0D/eWd3vCaRS0Qtk9Un73E0+ynYW8Ny97FpMzMD
;2Bo/wSzIx5d8t3OJhFzjVbf/cRWrSTjYo9Kwlx/EcsP4Gjn32o5XFx2loUilvOBkR4yQhaxvbo1UZKe
;xT9XFZY3tD5FM2Jex6sBWf9LatZWHrNDlenmo+KPiIeeP5Ac1jvwvMRzeUdH64lZ+stxC9SfsAdUaGr
;m70oJhdnzVVNU97Q4RjNgUB7wGQFh0irWzcMsHw/xpuesD84EnD3bEpU7cL8GMaRQHvAZAWHSKtbNwy
;xfD/Gm56wPzgScPdsSlTtwvwYxpFAe8BkBYdImVk1DahmP8b0mKckJA9L4lJeSfL84hjZkHpwzWA4hF
;/PPEUMqnw/yfTo1T8rHWDNWElY8fz5EsSAbB6sBWf/LatZRW3OCGCpgo2nPyMfcc1WQlzjz/R9quQfN
;q4FZ5lI3ytWb9wVUKiriaMiIx9L511CWOLG4g7Jl2ZBx2s4mFjbKVh+3E0/xPTo/U1Ke2b3R15c4tf4
;Esa6fmjBbAO0WMU3Um/ND0ynhpGKJCQkZ+dDXFLz16N9quUfDK4FZ5lI3ytWb9wVUKiri7ogKBJ69TM
;uPYGykX2ol3pq3GQEn0TEN2hpxh1dqpHo10xKaBSSM15Y9dHwHtyMcHDxYAmKT8c8aD6ofj7G0OjVTT
;geYOBST0nozP8izYt+fMJgOIlIzTZFafcTSrKRmoo+Ih54/jMuPIG6kX2ol3pq3GQEn0TEN2hpxh1dq
;pG3ujg+CH32Viw/gKOHfajlbXvadwaIWcI2WVPEHUajhou9LCQccZIxLT2Uo5F92oBrbM9mE4JCxQZZ
;Y9wjVqiHgbEoSnkUkigsPYHR9AnahHxqx2oJtFfDNkdTxxJTv6ubuiEjHyWSMS09mqORfdqAa2zPZhO
;CQsUGTWTHDGCpmoSsEjkUePtXHj2DopFkqOUfbctxE4JDzAZSdNwOSqKRmop/FR5681FAWIGhkX265R
;8e3W4OmVn0P1h+yxlgo5qJtyEvexaSMzk9gaPiEMmJc0HIYAafWNk8RFPNEl6kmI3VT0p7NpIzLE7sw
;v0R94N6f9pwFY5e9DBZasEQU5mGiaEkJSRx/FJOUeSjk32o6R8ernYIh0TPBlVj3AhQq/Tq1E1TexSS
;QENR6MfOFMaDdnLCWhKYSPQ+Vnz3GlaqmOjXTEpyFJIzX1LtyvUi3IpvHqwEZ+Itq1lEfMEOXqqdkrB
;NSHsUnjMsPfLT5A/bunpwz2cLji2pWDcbqHw/tYGYpSI4D0vzV01N9crnGPeAcX/MaQLrL6pZOQyofE
;yzhJi6Pz4kcfxSTlHko5N9qMgfHq52EptdxCtDU8ESWa+YhIo4OR5L/lpCWPL8+BP3jXZ5xloDjkPYM
;EN19xtNr5Do10xKYxSSM19I8dP+D9y6c3vPbh60TsQ3WWnLCFapmujXTUpiFJIzX0jx0/4P3Lpyccps
;AYJI2QZQacYZTaeAjdVPS3sKkjMsTvTT4RLakUBtw2QLh3LNNVht3BlbmZKNtDk/CXHhMy48gbSRfai
;RenPeYBWKWd4rUlPEFUyyq427LCgXcZIxLT2To5F93IBybst3Bp9Y2TxoYckSSqeY6NdNSnEUkjNbVP
;HGzgnHknpsrgdn6w2rWTd7wQxamYCHoig4JHL7S0lZ3tP+DsGRdnHAWgKFTMk1UgyqfD/X9OjVLisPc
;fVcXkTezfAQzbp3e9YFZPstq1kHPJ5OD/bCq+V9fU4kogUZPYijkX3Ni3swyWYIj0irWh0NqHx4/8XI
;7h8vF3XmWlpYodP+DsGRdnHAbAmMJ+xoF0mFTh+Axt/lfWpARvdHXlzi17EciId2aqRCVstohmsXVph
;SDeay2uF9elsvwFZYT+DA5V3Ji3s+3GQOmEiLAz1LmVxn89Sx4G0MSCSiAwwG1srhGIiKamqkQlbLd5
;ppFzf6HVa1kciPbScUZvc5awSxg6o8ypZwcttxAstdxCpeeMETUaidhrJHQDwlsmscHdiTsUb4l3pty
;2sTy13ZMFl4ojEO9sLIhn1qQEDnQUIQ7sX3Xc6EcRTjNFffDfhpFzf8CU2o2YezK2oTe+ZWQlmL7qBJ
;mMVMLo4+M55fxXRYas5cXaOQ4t8Ack80yhN1HcSDqjnBln58wmBHikHHeUR4zQxPo4ab9S8/DzTIMyY
;9gaP0E8zXMXnNagOOLajZNwyoMQ30xciBfWooJaIDJnCzkaBd/NQ/TZ81V+FgmmkDLPxMH5XE4ph8ek
;80xgIMbrGp3Eyc1T9Nng8q2h2cU3A1mXZ499St+HxqPSeiAyZ6sIPLVpjLKj7rKFLLdIZrByzuB0u0l
;Z6wIRUIZPdWSECL5KNFiL0vPvc1baYVn1NwNZh8Ksb06LA1Pglh9lZeYvLU+AnLjTF5zWoDji2oWTcM
;qHwxxvTosywkJGfiVklZ3s/4DtzlHBGuBWfaFplsDD6TSQ/9x9PkfXp7BZIzLFvoz/AQzYtrQdp8F45
;y2C1FDKt2P8b0uJkMako6pQZBUIGxkX2og3Zyz2gChVn0LU58zSNMsoba1U5AexSSY2B8oZK/Sp2Ich
;6OBWfrS8IrRHj3EF6/kZqKPiUXffZsRVPnyv0R95V+atpgFYUtqFw3DKgwVqiRm9VYSnsU9VBDWeT89
;xTEgHF/w2A4jULZNFZ4qH9YxvToriopFHD3bEpU7cb/HMWAQGnHcQ+EWN8GUnTcAWC9mYm2JSMVcc1H
;VU3k/PAfypd6aMdkE4JCxSRod84VU6eZjbs5FRV1/1ZzXOPB4xjejH5qx2oJ2lD0Iltt0RlNmZyNvCo
;iD2n/XiwsgaORGsuKe3vxdQiYWdsrWG/ND0zG9+jVTUp7HpIzLFrizPUY95FmbssFZO0tq1lladguXr
;b0+dVNShJ69FpAUd7C/xrEgEByx3YT6y6tWTcMnEkE98fd1VhKexT7XUpU7c/OGd2Ec0HLfROZWNgwW
;GKofzPG9OiUISZbcepHXkjlxuN9puUfHsdrAYJBxwZHbdwIWrSa6NZISnsU3lpCWPKjg32o5XN/12AV
;tE7DOFlrzVJYpZuMsE1JexSSMywggaOREcmcemzxdhOKX98GR2PBEkuZh420IBUYe+BdSU+BoJd9qOV
;Ne8hpApMtu1k3DMcTRaOrm70kLxdwzUdVTeSjknSo5R9Jz3ECmWvKNVsMuXw/xoSJoD4vJHz3WktV9f
;z9FNuRHx2uBWfrLbpZNwzYEF6ykoenIBUacPZaWFTuzZF+rOUfHuBqCY4tulk3DNgQXrKSh6cgFRpw+
;lZfVO7NkX6s5R8e4GoJji2nWTcM2A5WqICNpxI+AmT3My82gaOROMaBemyONkelSN9ZJAyofE2nkpyK
;KT8aeM1WVEnz1uIUx4sfHaAFZ+trwitEeIgZR7KGnbEoOHsHkjMsT+DF5SLBi3l3wmk4m0zfLVJ+xnw
;8w/To1QEjFXHhMzw9gaPjGNyXfn3abAiFA8w6WGjNfDzG9OjVTV57FJJAR1Tz184Z3YRzQct9E5lY2D
;BYYqh/Mcb06JMkOAhgslZUSfPW9Rja5QgergUUhEHCPWhlxhpWqpi3tCMtF3HNX0VO9aOSe6jlHyqbP
;lbYGKtNNwyoD1CqnYyKJCQdff5fc03g1+UY2osfHaUFZ+t/zjpDZcQVUaOVmtVWSnsU4VxAVOX8+BPO
;jHNy8XUGn1nOK1lTyhNLspuF1U5BexSSYUle9cr9FMaAfmyuDmfrLdgtVn7cUlilm4ywTUmAFZIzFx3
;EzfUY2sUsPu1wFJ9CxnlkeMkOS+azxbYiLh4e1QoeHcSTsUaIt3pty3FHrlXfK0JozQ41gcbQ9XZqM3
;v/Vgxc7c+xHNCAbBTpNEexH4VpF0qbTA/21NP1ACUNcbJpDHz5yuJd3ZU/csdxE4dIiy1YLNgOWrCRh
;qFtORhm80dPVejN9l3Hgz9Wy2QTy2/OPT1LmVxn9trZ9RR4SzTIAwIOoeWkTZjVMS6OPkemQt08F3jH
;XEyylZqhbToUZ/tHRVLvqdZMiL0vMJ8lPtkdm3cHLPJMEfXUruR4eks6ohNpDLSDql3sl35pjnEPjg3
;NMEV/3FxTr5qN3wp7W0yiHRgd2JGhTYbVP0SeK1TLa55pBzyGTB/91KW6Oy9bYP0TX1TlxrEciIl2at
;ppAuFqmnlvPIZIH5/G2PUXelUnsnUdCLGTv02IoCwujj5Hr1/KLhd4wBkftZGLuiMuW3j7XUk3xpqjX
;e3VPyWOVwKYSN95cnTcDkqikZrfCntbTqAdHB3HkKFNmMUkPuNqEY4N8Xl2dMEPH7OEyLkkPg949xNY
;UqHT4xjegHFqjnYEmUzfOl9lxhsfqZLInSgrDzTQVkg3xpKxJZ3FRiyeJT3bA5h5cTmYTA/oxMjubQc
;UYvcTQ0vk0bEJx8VvbMtzAoVZiztbY8pcTLeBgaYlSncUkjNfSeDR5U+GgnxxymBn6EGqWTdBnUsN5r
;DY9R56VSSrOWEItpGxOZnFTC6ANV7haploPUuRTDWLzNrfAHtLI5h0HgWL5KBd8tQqMJ4lIZBZ2ThBa
;cQjTLaRjbEwQC8kmHQVD6HmoXfv1D9GnTVHsgCZeXE0mEw1gcXIj31kSCGydR4NsanWTIi9JyuOXErZ
;De5oBCzuTg/2/q/kbQ9KIbJ1Hg2xqdZMiL8qPug3V9sn7GAFLO1MNYHEyJBgMQlx5kFNXvXK/hP3gWp
;/wloGhkLeN0NxiDoN9sTigXxAPC2gE2kNi+SgXfDWLy6OXErZDe1hBzyiOw7mrtj7fn9bUqADHDfGkr
;Elm9MvPvcoVctommoXSppMD8yz2fUIe0401AEcDYvkoF3y0D9YnDVX4WqSaxdJmHZ49tSt+DY4HmDgU
;k9J6Mz/IsyQfnLxZAqEWMUtSizuTg/2/rzlRw1KNNRIWE/g1fQR95Zve8thGuFgmmgALPgOVqiAgbsq
;ZFU6kjQsPYHQ5A3Yim1qrgZj6y2rF1hizXwjxvTopjg6C3vgR3NZ5M3iGPeBan/CWgKTWdksRGXHEj/
;F+OjVTQsXeLJWVEnz1vUY2uUNHq4FFJ5d2zZFePcYWqiHjYo5MwtxkjApPYGj3RTGgGweuAVn617eKU
;dj2ghgooGJuRIvA2DgRl9U7s2RfqblHx7obBWYWYs8T3jaCVujhujMTUp7Z+dDXFLz184UxoN2csJaB
;oVKxzxoYMEPS8b369VNSlYgpzM8PYGj4gjYlXBs2loUn1/KLVJr0Xw8wPTo1QMlCXnzXywxgaORDt2V
;b3HccTifVNs8Nw+jfD/Gpo22OSMXffxWTU+BgJF9qJZqbMhkBI5y2DZbZcwjXamAnLogFRJ69FpAUd7
;T8AncgG1wrgZi6y2rFV5izQ8/5vTo1T4/CXLzUEli8sz9FMy6a3HeWg6FS8I1W1PYHUuykZq7TUl+FJ
;IzYFTvxuJ9vOUfHtpgCptI2ThDedoZYKSRjIohIwhgkjAlPYGjoEaf1SQslTFS6zirWTd4zRFPo4aJo
;Tg4Hkv+VkpJ3s/4DtzlHB6uBWfrO6tZN3jNEU+jhomhODgeS+BaS1X1/P0U25EfHa4FZ+stpFk3DN8V
;T6OrnLo6LwlL/1xIWIGgl32o5VF73XECjy27WTcM3xVPo6ucujovCUvhW01N5KOSe6jlH13HdwSHSKt
;XNwyoC1a2kbeiLCYXS/9cSFiBoJt9qOVWcNpgFYdMyDxTDOF8P8b/6NVNDxVw90EMDqHt9Amo5R917Q
;VngG6rWU1PqHw/xjkkGXNLexRacSw9SeGQfajlHx5mRGfrLatbNwyofj/G9OhRTkp6FJIzAz2Bo5t9q
;OVPUu8lVsUanjRaDKh83/n06E4JSnsC0TMszcCjMfHt5acW6QVnS29fUTcMISxxgfniz0dKexSfemR5
;06ORf1LlHx6RDWHrLavIkmBTfD/G/ZidFDl7FJkgLD2KsJB9MnkHHq4NxaJp6g1PkEWhcKnvgdSKu6Q
;sba0LECFS58qKuJYUL0GE4725ly5SqFubG/f6x+oWO6iTlxTSAcgHfvTdbb/VY6CxY8sqbabt15Jwng
;NjF1BcxF+/d/K9v63uJPjYyuNnXCXa2NDQg0Q7QeA7G65TxWRvkB3khzRiKSIb9Fr/Flp06x3wn+pze
;QveZIx7+03sNKUT6ByADH4ryDMY+HHiJbdkj3WOtzoK1BmPARCtcsdXFF6lkBKadR4gHhtUJEDG6SWM
;hJonCFVXW5ZXf+I1maXMH3jylW8VZwuM/1IeFgnRF1/+s8FlXBtiA7Wq9scgdxw8Fa7DDfkmS2DmIhN
;xnrw29nCAWuH9W2LI9CicFjTCrscdQ3I7vwZsu75I3VKhbGve7vpAckI1HXFAkDcbb3vU5suKZFvfcO
;EGntNFIC/46/Eb7jWls4Akl6CLpyb8t1koMxQCKmWVwtECgsGB1YdWvNHLn+U0llZke3qROr2MY6xP0
;sGWML9qqIWvuTPL5DnRV7RIsdKJ+hESDrrygI1jrlqtppflI88YlUSVJURaYUeEy9OH4es4IXcXV1S5
;5fvFTMLGWj21QqMZeZgE/P6g2GkQAEc2EqsgOo1xt5GE6rVPtJv7cf+qjExubv444Ewoq9Xmppn9Gxv
;F3i3zf+DD2BbRWXj54atPeOwig00tOXmExWTrBDMHg27GgH4/6bDoqYRM8RPSYpC+eTmvpyAutcuU7W
;xl5HKPrlvjfc+YX8vmAzA5oX1p9vPQQgT+DkE2Nf6sUuGrAylBqque7xHSf2PGYCgDjzqJEjwcbul8X
;7938RzjPFgSvmoO8HQDFvMGr1t8TmIGs12JIGsHP8mcdjlHDavvDSMg57QYo6kLeJf29HHeAVL48i55
;ItwQDGiRpvFTjyogeBSeiVDTr7mlpghSp8VxOlxvXvgmEykLXNex8cx9tAKqK0d2cqLeMe6muUa2go3
;KK7vlH4L7+p0S0OAqycRysWgsck+yFCKV+7mW/cfKCkoipv4nEkUq7JaIj+TadQJrGXAuesuKO1NdHT
;rfao/ijppOnmKdJvshAJ4H+DYMSFacefDo1U1KexSSMyw9gaORfajlHx6uBWfrLatZNwyofD/G9OjVT
;Up7FJIzLD2Bo5F9qOUfHq4FZ+stq1k3DKh8P8b06NVNSnsUkjMsPYGjkX2o5R8ergVn6y2rWTcMqHw/
;xvTo1U1KexSSMyw9gaORfajlHx6uBWfrLatZNwyofD/G9OjVTUp7FJIzLD2Bo5F9qOUfHq4FZ+stq1k
;3DKh8P8aSf+KkSOfRKIZtTPpgZRO/K8QCGnqk5RNUe+OvgEDSntdiv7SpIWCKTTb6Jj2afajVksgDCJ
;1Y9Q9q763bxgjio/3m1W6u9wFKgQylYNzGAezlZ8YaEWqhmMG411VI6vVjAlOqo7jpb65TedBb3n+X5
;R+mqns+xXrUDElnczVFL2jSRmOafj7c7ZrYdeqFqgw7XtwaCWktP1+OmgH+6qlE4UdBIiUxp4/vc2qw
;Q8qyO3Tra2HWBUpHIU5jLyIWjlrKIdNMmQk1kzOs5FKcgObPXXAHvbmK9ko+IH4HNtttcGmgv3ZtTNp
;QfYUBRkYOY0zmnW/KvRTg127WXNoFoRsC+z+nA2We4E4KAXVznn45aPpaIyTH0XfTezPaRKR8P8Y0gG
;OxOC4uyb23qjU7lAOPTDy5mGwYQ88vt1lnx1tAuuqxu6keMrQtrxKzj2DOSjPagWqXBWcrScag0ub+x
;YP7HZo1soF8FY10q4j60o3zshuYGNNHmof0doLs1cWRauGp5tVNemKQbvgDMn5afYIYFSDBESZoHHGv
;6vAhhXLDIM/o1fVQxX+easyvSoRPSkRIX/Sj+5pK0oOxBM4zEcrizVlRWUp7rMjNPiBX9R10dhAjQ1m
;jARpoNxgG9H/fF6qwufjyyRh6WRx7QvZIRzp0cyxlREzFTV5RKuXddYHCWzIplDiYHhaSM7/O2L8WYJ
;EKuS9vUimxeVyShJSlVzTNQ995QJzWGQiu4j5uIIQ/Vkl3pPrI0xD4XSOtRDpmOMHwlNVNOrnb7ozWk
;7A4rkmevYnq+BOffCRVapYS7Z1DCv5PQpvqG8se0Nx0Ov5agy72MwCuBf+JUsfsnZ4cFnO2MzC1mNC2
;QfEwFZrk6kZA58PU4th/GYg4BPDeXmWDCkyeN+Nrukab2K9++MF85dQyC2duOAIcok9NRzcMJJZh2nM
;fN3W2qGrlSPmlYQQvwpXKtmza0uB45GWuhBXXDtyyPpu2cAPBIWatw2peVGyQTQmbccoQD0PtGjGNuF
;PLLyBPl9JKMB3/kzPshdUvmNnGDbB6BfMzRyBN69T1qBx2AWvoobrZWNM3rVjSbUsuCBNCGcgiDLkc0
;MYQbb+e3N0IEoHDlW+SXXh9wEJpP0O/USgnEPlPwkj42sNGEOJuntj06JnW/xcUskavwtuVmSVDHvG5
;hzk5IR+P4MXBlAnWl1KUPx93CVoblznyUn5sgEZf5ZuVOSmWSnxTlLvpaYji6W2BduqpnmkclxIcSEo
;z01PgQ5b7HjFWh64PB0XzjZ+Noa8F2nwUkgCGpaQQfN6dGeQZrVcQq72/78x/TNDZih3QvkOA4wnbPC
;bEc9KN+tF7a4xQO4M9wJwjsNokdaNI30aH5fIxtXCviHOggL4WmA5mVIugRJcck8yjgFBB3VFxL3geF
;NBBmt4xdAZNdQSnV5+Ak+s+cJMGumfzMHwwxvTYgbzZ+sHQvYDJfBvGGGgFv/16lo+l5jELAGPiLlgC
;cYCTgNbympUfr8/nkvoDPSjX+ahgq8/2VH+O/ur7fVOYqIU5jY9CQLWZpgZJHyuuKpoRWAYEaJKmoP7
;T6V4GP2pPL91V9a7NS6+YYpTm6X/kHx5uwH1/Hg7Kbl+SsqSUGyw6plJOZyxnG4H+faZkNM550yXL/h
;QuNlj8LNzBf8z06NVNAz5a1p1uXQOcmX2obE9Q6Qht8SerWTcB4TR7lPTo17dKexStOyo9gaMA2MQeH
;x6uDBejdNhZNwe7fD/N5+nV19ZjFJI0wXTF4sUFNAjCQeHWOevrWv7Mq9v0F0+t4/wiir/oFhs7dvm8
;LTj3YNYwtOZyCmPa6P6IIBCPy3yzArNky6GJUBw7enDsQp8IJrVNgbGYs9ixDU9oX46rL3Ehgj4mY+n
;hEy6BM73utloHpV5d64Iaq+oQ0mmliRsLMnWuVcRF8UNxSuGazzKP7h/XvIsCKOsaICyzrqkOUJXwV7
;NIYsB7tteOX3rcN3CEidVLtStMJKtqmViCOdzdFzFA80N7BxA2ae3Oi0rLNZ2XuU2++JmUByuOQC90P
;/VcvP907yl9SP60dq3PvPtkUQSeKUDAHF0BjJ3eQYiLXfXobYyAsZ5I3ppPOH8l5pqS3Rtu2Lq2ZDmy
;jYJDxhOo0eSUcgs3x+YNUMWxTvexBY+qNOdvU/FHncKdWILWa+yAkNV96cVoaxHjzhXpNMkZVL5ymK4
;L3QZoaaPFuA15py9eB6T+jeNlrv/u0mUv+Ugzgpp32bufmxz2yXNOj0aPvryymiDOwPyEmYk1B9PcCL
;E1K1h+GRHZ4j5Qa5JBAlPQKuhNhlrHpi5lF5coyyL3sjGJfZ5QhOvVhmMmDSgV4ysfIKqFZO0sDNpGT
;yn3zgGjvD9Hb9ZgKAW9FuSP6FZcOjIP12awhrZquuiSW1KA6XafRzId07EAfjMCGaJ5EuvZwUKGg0t6
;LU+38CdJZMcMZABSDDZka6mwrRO1+eODpexuB6Q+z6x2SvJxh11ijlt7bbV7V9AwwIIS5dVx5VVzrlw
;VGOWs0bhNHix1tB0Y8atAR+8VIxBcFbb8OGXUowuSSyhtQv1i4I3D4luqa8N3Nh5D8FuRV1PXJZt6E2
;HCKiE9gFBXZhkuXLKaiKORu30a4+JQTKct6y3j6qKkv7eEhxeNZMdNSthhm+YMZXM8LmiI7x9X9eGo6
;Zav5NEiiyahRwJUVWwY0ywjm9mPZwk4GALFAVrYA02rWTyDWW4/xvTo1U1KexSSMyw9gaORfajlHx6u
;BWfrLatZNwyofD/G9OjVTUp7FJIzLD2Bo5F9qOUfHq4FZ+stq1k3DKh8P8b06NVNSnsUkjMsPYGjkX2
;o5R8ergVn6y2rWTcMqHw/xvTo1U1KexSSMyw9gaORfajlHx6uBWfrLatZNwyofD/G9OjVTUp7FJIzLD
;2Bo5F9qOUfHq4FZ+stq1k3DKg0EaUu5c3KJ6BazcqK3scJ7nEGDsH3G2q4VcRDsV93uhE9xvSQ/fsnQ
;OlLWfYkLXB4lVgV79h5/pQyjRe/jeJ0mo1f/RK0JVUNld4BtHLbDscuAzBNv/7VuTWz947i7Umd45is
;6NUtO5f4fgsXBroxtbJbAeTgOl6Tk884WPj/XI/YCZ8dZn9z41xChEHm2PrIrFoXbUZA3ElZVWuWUb9
;iGA28Bgxcn6MPYN7sqe7+8ly5LeEfHjyiGMobd/eZogIsF4IzTYdk76h9i/V5iY0h0eNPzBec5zIeDa
;mSN/f6eU/jRfEVLdIhF8+09/Pfc1HDoMayCAm5T8A450yq4A5WVP3PdAvtLNNyFJIzlI7TCoX4Uh75p
;vovwqcLiJoHGKz9QxljD6xCkLWwGxzEq0pG6YBwvHH6DkrHdGKsXjD2UI0cJ+voVUgdUYEOYYUJbMVx
;c2qs399vhGnkIuxXyE8rQp74rSIw/4CeJvMsLL2E5lni14TnEfn64G7S5yZyFEbFN1QTVmJIS3uU9kv
;Rx3QXCv2ZYBTxFb7ceQl8LCrlgoTIQQrAPX6JMKL4hhbJkDyRfYgcoWBTr/DEckGcvBtimU0VmubLDX
;aDrzzYlJOaflAcuBWMtfSoITBnDvt9qWoRBMb0xG36JaQubc7bovMaDes+cxfip/FQB+ZzhOqxXpk5X
;rslsx7HPVdAjLxyQaSRfStZYOFwfJIBuH2O4JllGsoqLducH3zgieD43C3ddMT77/vSse/E2bWCQK3D
;OHRuz8f0KJXSdQTKBBf/CRzBIFVjV3uECKHMW7JgvJXcN7VjPazPsxHpqoQjipXU7cz+VjcqbAzJUVs
;7GrFUApdllIr2LKO3qFR7FB7+GHBmfioK4kBNrIIuzeReyWeo44EfiUJNmaoytZHlCKi3pk91Ryucjm
;TkWqxDpc0P3fYxtprcM6aHdSr/ZRSSf6ZUGy21JD7wGmFlt8WE7KaqVSo7lfZIECAcxDVVR2hEx0tO0
;GVQY5epqBjHGqXxMwOaWhxjuTGMFQyUE7RD0eTHSKyMvjrnIrbJRZcjQyqrWQTLGlAYcCvb3MVR7zVb
;ptvu6xYzMXGPqryC/JsSXka02kVCwfwlMscZRwWlWbUdv/TFgqRB6RgAwObP7tASlEZtshDEtzC7ppt
;L9DwMSFiZZ9W0f25M5B9efMHUj1Fw5iiGz7eP2mM8SWS3sIIRAYrSevIf6QbXeiLhe5gV0G1FDvgzDV
;CkrX7GSYvWM7w7LsQ/vAQSUvFoKDVQd+8QjK4B8UcBKBua3w/y9scI6n+Q43be5Ec1jtjiUPhcMcKkr
;6nr7VucmFv7NUxKe5IazEkdfZNholIb/LBT3h9dvi1mBiTUEes6zIIzuTdE3iaw3ls9DUwTXwHAX7fW
;kJawN8XrJ/+iFC4rva0CHSelyt8FUu3POa5BEeNMQGcKhmCUJ8sUAUGiiLMRqTOibFOPLDPKFVxvD6E
;JHx6uNgO74z/3UEFBI+FSWqfbI3kR8n5Fl8/8XMvbpCD0AZVimeRowO9yJLq/gcb06NUEDzVQPHFMvx
;6dkX2p5R8e7ztn67mqWTcIqHw/pPSE1ThKHhSSICw9gcLyHs2JemzPcQ6EQ/Q7WHjcE1LG9ejVTUp7F
;BtzLCaBo5Ecy4Z6cst3Bp9ExDdobscIS6mZt6Y4OB118VYsPIGjkX2o5ZZerhZn6y3KOlRpxBlNp4CB
;uiMVEnr0WkBRgaKRfajlHx4nRWfzLatZVm/LGVOjhomhJCUVS/tdX1j1/PgTxoBtHq8FZ+stq1m+TKh
;kP8b0ibYuLxdx4FJYVO7NzhTGlnpq8WoSn0jZWTYMqHw/xvRhlU1YexSSUk9e5M/0D8mRdnHAWheZRM
;UtNw2ofD/G9OhcDUprFJIzTV7ixv0Y2oRrd8FrOJ9C21k2DKh8P8b0YZVNUnsUklJPXuTP9A/JkXZxw
;FoThF30KkJ+zh1co/Tp1U1KexSSumw9kqORfcmGfHvCYBWKWcI2WVPcDl6wkYTVTEp7FJIzXKrBo7h9
;qOV+aMFsA7RZ2ThBacQjV6mYjaYSOhpg+mxBXPn8/RjGgmt28WMGiFnEKzcNqHw/xvTovA1KUhSSM01
;L7sr1ItyXfmjLaTiDQsc8RFPYHUuuq4W0NRUVe81BSUnzwvIJwYpxHq8FZ+stq1k3DKhvP8b0ia0kOS
;R3/V5cWO/Q8AnBinFB1gVm6y2rWTcM8Tw/1fTo1SwyEmfNUENQ8cb/DsmRdnHAWh7rLKtZNwyofGaG9
;PrVTUoZe+ZHQ1Dez/AEzZdAbd5gAo8tqlk3DKh8P+i06MVNSnt2/UdYUuz85RXBhnRwy3YU6ywxwK6V
;MeX2+fT21U1KGWb7V0tU78TOGNCRbWvdbAiFctwwU3jAI02ngIG6TUt7FJIzLL3g45FvqOUffNxsA4x
;ExT5oaskSYLWEjbApSnoUkjMsPYH60X285R8ezHcOj0rCN1BTzhVHo5C3tCMtF3GSMiw9gaORncilHw
;euBWeJX8I9UGXGG2CgmIe0OS8fS/NBSVzezvgTqOQfHq4FZ+sZ61kmDKh8XbSdjLIkJBxL9F9DSvPC5
;Rio5B8ergVn63TrWS8MqHxdtJ2MsiQkHEvhW0lR7dDOG8SKaGzPcQLrLKtZNwyofGaG9P3VTUoZZvtX
;S1TvxM4OwIBzct1aFJtIzj03Dah8P8b06OsNSnUUkjNOT+jH9hTGgkBt3mACjy2qWTcMqHw/4rTo9E1
;Ke3bgWkha6M32ItuQb27BdxOOSfQ4RWnJI02ngIG6EicabJIyLD2Bo5F94aUfEa4FZ4lfwjRoYMESWp
;mXh6AjPnsVkjMsPYGjhT2o9x8ermYIil7fMFlr9xhWtYCJuy4vShSTMyw9gaORnZflDR6uBQSETNgtX
;mLPI1uvh5y0IykeJpIyLD2Bo5F9SNofD64FZ4hCxDVoYcESYKCRjbE/Kw9xkjIsPYGjkX2MpR8NrgVn
;iELENWhhwRJgqpWRsD8VD33/Viw8gaORfajlC16uGGfrLc88WX/NI0yzhJi6Pz4kffxVRVHt/P4I3Il
;2cMt2Z+otq1k3DKh8P8bp6NVNLh564VZzTvTT4RLakUB3wGsCmXLOIUdtxg9WqZro1NfT4o0LqsUCgb
;iRfaiBenDdYDiYWNspWH7cI1OnjY2nPhUZe+ZHQ1CBopF9qOUfHq4FZ/gtq1lTacYPWpmHnaU9JQlgz
;UBcWOTHkXyo5R8ergVZqy2yWTcMzBVSo5qbvCIkJGzrbE9S7NP0E9uEa3fBa2fqLatZNwyofD/G6ujV
;TS4SefddX1Tuzc4F0bp8ccN1AoVeyi1eY8YjV6mYjdVMSnsUkjMsPYGjnn2o5Xpm2ncSj0jZBlZhxwl
;RsvTp1U1KexSSwxM9k6ORfc2da2zbYQKZcsQ/UX/NCGC+xejUTUp7FJIzFX2BsZF9qIBnatxwA45f9D
;ZRatsZS5mM2tVMSnsUkjMsPYGjg32o5Xpm2ncSj0jZBlhqzg9asquQ5k1LexSSMyw9gaORb6jlH3vWc
;RWeSc4raGPOGkyjgLesfEp6FJIzLD2Bo5F9uuUfHst9E5lYzzxFU8caWbWRnIo0eHsVkjMsPYGjkX2o
;9x8ermAfn1/ePVJ+9xNZoIeNoRIzSBSTMyw9gaORfajlLB6uBQKTWdksU2naI0yxnZy2JRUYe/1fRVP
;m/PkYyZFqbvFkA51MxTpSU9wZUraRmrQ5PwlxozMtPYGjkX2ojF8enQVn60jTLUV5zBlNmYefvDkpE0
;vxXENR6M32IsCAfmrbdTiKSd04WW/NI0ujmZiwPysPYeBWHj2Ao5F9qOUfd+4FTOstqzxPeNoJW6OGt
;6Y6Iw93+mxPUu7P+BPPund7z3ESm3LKPUFtxh9amYCBuChKehSSMyw9gefRfbblHx7LfROZWM88RVPb
;C1ayl4CKLiUUePtdS2LxwuMW950fH64FZ+stKxt3DLZ8P8aRkKE/Px9x4GxfSujX8hX3hnBxwmwJjHL
;bOEVn9wU/x/To1U1KS3/SMwg9gaP0BdyXanrLdziYWsItVGT3H1CpmIG7KhUPcf9DSU/g1+QPzdQfH6
;4FZ+stKz93DIx8P8aRkKE/Px9x4GxfSujX8hX3hnBxwmwJjHLfPFp8zQ5esoGasH9KehSSMyw9AcXRf
;Y3lHx7LfROZWM88RVPbC1ayl4CKPy8IYPNBWGLk2+UPybp+c8FwCZ8fq1g3DKh8P8b06NVTSnsU90tY
;T/TH9A/3lmh32mYPtF/OKkNt2ghgtYSNsCl4exWSMyw9gaOlPajHHx6uYB+fX949Un73D0ivgIu9Ejg
;eYOBST0nozP8iyYhwa8BxVessq1k3DKh8G4b0ydVNSh5s5kFZWeTRzg7fjGt9xloVjlnZOFR4wRNRmY
;eYsCguSRSTMyw9gaORSejlEB6uBQKTWdksRGXHEmCxnYyhJUp6jguqtaQYeq59ueUfHst9E5lY2DBYY
;vcLVqKAgIp/SnqOC6q1pBh6rn275R8eyGQJtE/HMEdT2B1KtZG3uD4vGBSTMyw9gaPRAujlDR6uBQGK
;Q/Q7W2XYI0uuho2mJSUXcJIyLD2Bo5F9lqUfEa4FZ41MxQZRecQQYK6RgbIlPnsVkjMsPYGjcUKo6x8
;ermMGhXLNLFtg9xBev5Ga1UxKexSSMyw9waOYfajleX/AWhSbSM49Nw2ofD/G9OiMDUp2FJIzSlzv/O
;INzYB7QcNkH+ssq1k3DKh8Zob0+dVNSh19/lJBWO/XzhnBhHJ72mAV6yyrWTcMqHzD+fT61U1KHX3+U
;kFY79fOGcGEcnvaYBXZLapZNwyofD86y+jHTUp7cvtfTVDkzeUizIx+c8txApkeq1g3DKh8P8b06NVf
;SnsU9FpAXOzG/wn3gXZ/w2ATjl+fWTYMqHw/xvTo1U1HexSSVUVR4M70E9y6eXLBcmfqLatZNwyoJX/
;G+ujVTSwSePNeSVP1/PcRx5IuHq8FZ+stq1luTKhyP8b0jrwhKxZx/EdzW+3M5k+o5B8ergVna3vrWT
;oMqHxZr5iJuCgkD0vmSlxYgaKRfajlHx6uRWflLatZUWXEHVKjmpyKOTMLcaAzLT2Bo5F9qOVfHqIFZ
;+tLwjVbU8wZUbWdnKxNS3sUkjMsPZXjkXGo5R94x2kLtELdPEVgyQw/x/To1U1KeyrSMw09gaP3FNqW
;a0HCZB6OX/Q8T3jaCUyvm4aKOiMfYPpsXlz1yv59qeUfHq4FZ7Jtq0s3DKgaVrSHnIohKwJx4GxfVeT
;P/Q6o5B8ergVn6ynrWRkMqHxZr4aboRImGm33QXNO7s/4GfeMcXjHaQu0SNMtRXnbFVCoq5+8KT4TS+
;BSWFTuo5B9qOUfHq5cJ+s1q1k3asEOTLKYiawoOCRy+19NUOTN5SLOiXBprgRn6y2rWTdV6HwsxvTos
;yQyHnDNX01E5NHODtyEbWrxfWfqLatZNwyoJX/G5+jVTSwSbPdXc1Hg2vQP95Zrf9xxOJItqlk3DKh8
;P5i06PZNSntz80NzW+jP/SLbjHF5wmA4jlXfK0J/wRNRmYaJoSQlJHnzSyw8gaORfajldl6uJmfrLcw
;4R1POFVOqq5u8Iy0Xcc1WVEnz1uIUx4tAbM9xDoRyxjBZDKl8P8b06FUNCnsLkjMsWuDTzhvBiXNB3W
;wJjEHOBlJ03A5KtZ2HuxI5C3H3Vyw8gaORfajlW16uC2frLcw4R1POFVOqq5ulKC8fFJMzLD2Bo5E06
;OUPHq4FAIhCzzxoeNEMWpmdhrEoMnsVkjMsPYGjkX2o6h8ermILhE/KNWhjzhpMo4C3rU1LexSSMyw9
;gaORcqjlH3nCagWKQfQ2UWrbGUuZjejUTUp7FJIzLD2BrJF9qIJzccxkC7RCzT9EadwjRcb16NVNSns
;UkjMsKIGjkRXNhGtr3loAiELPPGh/zQ1Ko5qLsE1LexSSMyw9gaORXajlH3fAYw6HQfQ4U23YCFawkb
;e8IywSeP5sXlz1yv4ixYRnHq8FZ+stq1kJTKhcP8b0gbsrIxd4zVJIXPHX+AvNunZwyGwLh3LZOENlx
;yNSr5ro1E1KexSSMzh9gbyRfaiMcXjHaQu0TM84R3jBClqZnYa7KDgkcepDTVPyyv4TqOSFhzec/nLE
;lFkhDKh8VqiSgbkhFRpw80NYVPfGzhHJnHps3QVm6y2rWTcMvDw/3PTo1SQkHX3+X3Nc5cLhCcGTekH
;cYAOeTt8wWGLbfD7G9OjVTUp7VJIqLD2Byv8bwYlzQc9hBptZwi9SU98VW7Kct7gkJHsVkjMsPYGjmT
;2o+R8ermwJjUTHNWhp0AhNs4eBuiMVDH32R0Ri88LlFMflHh6uBWfrLfIZNxiofD+vmo68ISYkcvtfT
;VDkzeUizolwaa4EZ+stq1k3Veh8MMb06LwjLBJ4/mxDW+fQ9An3nR8frgVn6y2rWTcMp3w/xp2GsyQm
;F0v9VUpO5NfOBKjkHx6uBWfrLatZOgyofFaokoG5IRUIfPdfQE6BopF9qOUfHq4FZ/ctq1leYs4VU6q
;rm6UsOAhxzVBDUOPK/xj3iX5ny3cU6yyrWTcMqHzP+fTk1U1KEnr0WkBR3tDhGM2BHx+uBWfrLasddw
;ykfD/GnYamKD5LS+FDSVjlo5B9qOUfHq47J+shq1k3ZcYPWrKMt6Y9Lx5wkjIsPYGjkX3spR8OrgVng
;l/EN15izyNZqpufpyw+HhSTMyw9gaORaejlEh6uBQ6ZQsUwWWv3D0+jkYzVTEp7FJIzLBnBo5p9qOV1
;e9xuOIlC3y1YYah9P8b06NVNXjsUgTMsPevG4xb3h3Bq2moKtF7eK1Ftyxk/x/To1U1KewDSMyc9gaP
;7GNqOQHfAYw6HQatYNwyofD/G4KjVXUp7FPhWXlbeyv8OzZFAd8BrApktqlk3DKh8P9K06MVNSnt+90
;FHYujN4hjcunBr2mAV6yyrWTcMqHw3hvTi1U1KEXHgWHNN88r/CajkHx6uBWfrLetZPwyofFWjhoOKO
;SULFJMzLD2Bo5Fp6OUPHq4FDY5fwAZDY9gjTLOGjrQuL3sVkjMsPYGjhT2o7h8erm8CmUb0LUVt3hlT
;xvWOsyssHXKYcywxgaOREcmcemzxbQKCSsMtNw0y5aZfbXEcckpdFJIzQFz4xuMiwIB2ecZxOIpJyil
;DZd4ZYKuVkIolLxJz+kdzT+DX+BKo5B8ergVn62PrWREMqHxTp42NpxIiHn31W1hi4MfwDdyMaXvxaA
;6FcsM8XmvACGC0lZy8Ikp6FJIzLD2BmtF9i+UfHsJkHo5f9DFSZc8US5mVjLQ9PhJi92xfXOzT/RTGg
;kBt2mAX6yzQTZlLSQa7+fTD1U1KF3XrVl5i6cb4GsCRQH/KZBefRN08aH/cGU+pgo2nEigUYOZcQWLz
;wuUUx+UeHq4FZ+st4hk3JKh8P6qVkbA/FRNx+1RESd7C9RzYkXZoy1oUn0jbNkFp2iNLqYS3pyw+Enu
;SMiw9gaORfeGlHwmuBWeHTNI8RVPFGU2hkbe2ISUIcc1VTV7k0JF8qOUfHq4FZ+sts1k3DMQdRqOGt6
;YoLRZx/EdzUeTN9gnAunJ3wAVmEVPB5UOfIEM/0vTo1SErAnHgbF9V5M/9DveKaXvcaQabLapZNwyof
;D+PtOjATUp7ePNKSU/e0OUc2pFvccdrE7RZ0ilSDKl8P8b06NVFCnsfkjMsU+7Z6xHNumx31GBn6i2r
;WZeVMaUAxvvo1U0lGX73UFhi4sb/Cc2XQGauBGfrLatZN/wXfDDG9Oi6LyAed+ZsT1jv1/QP95wfH64
;FZ+stq6mIDKN8P8abir8oKQ9L4VpCVoGikX2o5R8ergVn+i2rWVhj0hlgtZyBsCEuJHX8VEBYgaKRfa
;jlHx6QRWf9LatZWGPSGWC1nIGwIS4kePtdSWLizOQT3OUeHq4FZ+stW2Y3Hqh8P6mbkrASORN9919IY
;u7F9w7NkR8frgVn6y2rUXcMvXw/xpuesD8iGnr1bF9V5M/9DveEcXnCYGfqLatZNwyoQn/G7ejVTSUN
;ceBbTVPm/OIVzYlzbfFjBoVy2ClSacx8Psb06NVNSiJUkissPYHM5xjajX5wyVoUg0jHNURTzhBQsYa
;JoShKehSSMyw9gffRfb3lHx7BcwKZRco3UFPbFFqqmJuKPjoecfYzLT2Bo5F9qMFfHqIFZ+tC3TxFYM
;kMYKKBiblNS+GNC6q1pEickWio5R9u3GwJn3LJPFNT3BlStpGatDk/CXGSMiw9gaOR/fmlHxWuBWebX
;8I3Q1PbDFqjkOjUTUp7FJIzZX2BspF9qJVtd8BxOJ9IxilSfskISrSR6NRNSnsUkpNFfYGxkX2olW13
;wHE4n0jGKVJ+yQhKtJHa1UxKexSSMyxUwaODfajlb2zHaxO0Wc40R2naHUuzho3mTUt7FJIzLD2Bo5F
;vqOUfbtxsCZ9y3zxafM0OXrKBmrB5SnoUkjMsPYGjkX2j5R8e3GQBn3LKMEVryQw/x25xTNTT4t2tMz
;M9gaPjHM6RQHzPdgK0SNMtRXnbFVCoq5+8KT4TS+BSWFTuo5B9qOUfHq5sJ+s7q1k3fskaS5mWiaYoF
;RJ69FpAUd7C/xrEgB8frgVn6y2rWTcMvnw/xoaJszkVGXXhVnNU78X4EcS6bX/abAjrLKtZNwyo/H+G
;9PjVTUoJdfRHc1/g0PQixIRme9x2Z+otq1k3DKh8f8bn6NVNOBpy5mxOXPLGzhHBi3ppx2ETgy2qw66
;VMeWmL8vo2k1Ke2bzVVhi48LiGPeWb3vLYWfqLatZNwyoXH/G5+jVTTgacuZsTlzyxs4JwIx8dcBgFJ
;gtqlk3DKh8PybL6PFNSntm81VYYujN5Rjag359y1oCk1nZLERlxxJgsZ2MoSUVCXXmWkM9gKORfajl3
;3zuBXzrLasrVmrcI1aogI2nKysYcc1aQlvoz/0iyYt4cssFZustq1k3jP48P9306NU/Kx1gzVpCSeTR
;9xzLgEB3wGMOh0H0K1Z4wRM/x/To1U1Ke13SMzk9gaPjHM6RQHfAcQKZS8o6UlPEHUajhpvVTEp7FJI
;zLM2+o4l9qOVtf8hxOIJD3zxFaskfWpmYgbsoPRJw5lssPLKQok6b1vwhrhNn6y3ZOFF49xVRspGasy
;wpHkvhQ01e6M32fanlHx6uBWcbEqtNNwyoDl6ggLe8Iz4eZvRST1je0OEYzYEfH64FZ+stq2d3DLB8P
;8aGibM5FRJ65lZeW+DA9CLcjXZ9xWsCmF6rWGW0tvnUlyzX1VxKexTgUkpJ3s/4E826bG7PZg6FSqtY
;NwyofD/G/KjVRkp7FOBSSknezvAPz4xxHq8FZ+stq1kjTKhTP8b0mrQrPiR75FZeT+jH9CLOjG1t2lo
;LilTOK2hp0AhNs4eBuiMVDH32R0Ri88LlFMflHh6uBWfrLfIZNxGofD+0lY6hEiUNceBBRVnk/PYRx4
;d+cvFqAY1ezi1odqh9pV9tcUzUg8QUsDMsPfPC9wn3lmpsyGQEjnLOIUN+3Q9WqZq3oiQuD3zNQU1J6
;MyRfKjlHx6uBT6rLb1ZNwzaHVmyq5ugPywad/dsSlTtz84PyZF6Hq8FZ+stqxliTKhpP8b0mrQrPiRn
;50FKXOLGzhvEimhsz3EC6yyrWTcMqPxZhvTx1U1KCXX0R3NO9NH3HMuAQHfAYw6HQfQ4WWvEGT/H9Oj
;VTUp7KtIzPz2Bo+MczpFAbdt3AYpOzgZbbdEZTbX06dVNSnsUkjNsPZejkX3ahHlq8XYSmUvKOlJTxB
;VRo4OBsTkiexUIqrWkGDpIQqjxHx6udwaNWfQqQn7OHVyjq5ulLCkSevUzLTdWAOFAojIgHrwFZ+tfy
;j9DU9sJTaCVi7ASOQtx91csPIGjkX2o5VFerhNn6y3ZOFF49w9KtJKJtigVD3z7UEdT5NDifanMQ5Fs
;8E8nEqtLNwyoDlq1gImnORUfYfNfc07xxvQZqOQfHq4FZ+sZ61kjDKh8TaOHnLQ/PiRx6kdeXN7C/BL
;di2serwVn6y2rWTcMqGo/xvSasD4+GmbmbElF9dHwIsmIcGvAcTjZLapZNwyofD/G9OjMTUp7ZvdAWF
;zz184Y0JFtf/FhEopB9DhaY90SS8b16NVNSnsUkjMsMIGjkQ/Nlmt/3HE4mF3OPFMMqXw/xvTo1XQKe
;xuSMyxP5NDlHNqRQG3eYAKPcplZNgyofD/G9NGVTVt7FJJBSUnzwvIJwYpxQc9oCJ5D31k2DKh8P8b0
;/JVNWXsUkkFJSfPC8gnBinFBz2gInkPfBgUMqXw/xvTo1VkKewKSMyxP5NfjHMuRdnHAWgOeTMcGVmH
;HCVGy9OnVTUp7FJIXbD2Uo5F92oBrbM9mE4JCxQZTeckQYLWEjbApSnoUkjMsPYGX0X2P5R8e3GATmU
;zILV5jxiNaqJWKuSgVFGHmQEVZ5PzzEtyRcHPxaQaSSNkqNw2ofD/G9OjVDUpfFJIzXlj10fAe3Ixwc
;PFgCYpPxzxoY90ITK+QjYo5JQtL/lJVWPPQkXyo5R8ergVnqy2lWTcM2hlLtJWLoSQlFUv6XFw9gJCi
;TpvWLM2RBXfrLasrUnjaHVyynYe7EiIUZM0BLDyykKJOm9bMIa4QZ+st2TxDfskfS6+bhoogIxVL5kF
;NS+TPkXyb1iwtnTaE1C28WTcM2hlLtJWLoSQlFUv/WkJi9dHwC82JQCyuBFTYHphqBO+XfCPG9OinKD
;4JdfFHRVLv/PwUxoxyf8JaApNZ2SxEZccSP8eP/HsKqwGArTMyPYGj4xjcl3592mwIhXLGMFllxR1Tm
;ZGQoT8/CH39XXMPgaLqaQai/mQ6Omf7LatZRWncDl6lgIG6IxUIZPdWSD2Ao5F9qOUfV+4FdestqytS
;eNodXLKdh7sSOQtx91dzD4GikX2o5R8e50Vn8S2rWUVp3A5epYCBuiMVAXz9Q3Ne7s31FNyMcHCfBWb
;rLatZNwxYQz/c9OjVPy8PZvNQWFTuzc4HwIpvQc1qCY9E3zBYYpp8Psb06NVNSosrkiAsPYHQ9B7Hi3
;tBwmQejl/0I2hgwRpLxvXo1U1KexSSMyw0gaORDsOMbWrxYgabLapZNwyofD/OtOjFTUp7Z/laXknez
;/gTzbp8cdtrE+ssq1k3DKh8z/n0/NVNSgh/+0FYYuzK/xTFhHNBwmAJjFnDWTYMqHw/xjSKlU1BexSS
;QEdU89fODtiAenquBGfrLatZNzjofCXG9OimISUMS/ZcW1PexfgP25FAeMtyOIdM0jxFf6h9P8b06NV
;NukQUhTMsPfLO8BHEunl7z3ESmUjYBlNlyRFaspGa1UxKexSSMywZwaONfajlbHPPaQu0S844Q3naGU
;yZnIe5KBUfffNeSUnk0ZF8qOUfHq4Fe6stsFk3DNsRXqqYt7MoKw9h4FZfYujN9xTEiUBsz3EOhC2qW
;TcMqHw/n7Toz01Ke2f/UkBR3sX0HNyQbXvdWhSbSM49aH7JCFap9OnVTUp7FJJ6bD2jo5F924pzd8pa
;BYRZ3zZaU80ES7SBm7wiJCRj+1dYVd7R8AnBih8frgVn6y2rAHcMsnw/xoeHuSQuJHb9R1hS7Pz3FMS
;EcnvAcTiNQcQuNw2ofD/G9OiMDUppFJIzX1LtyvUiyoprasFoOIdM0jxFDKl8P8b06JXCCnsGkjMsTu
;7P+Bn3h3Bq2moKtF7bPFJoqH0/xvTo1U0OOxSEMyw98sz9FMy6dnDIbAuHcs4hR23GD1apmujUTUp7F
;JIzLD2BsJF9qJZwcsdhOIJDzTBbYPcPV6OYhKZNS3sUkjMsPYGjkWuo5R9twWkOj3LCN1FlxBBgsZ2M
;oSUVFn38My09gaORfajlHx67BWfrXsQ1Xmj3EF6/kZqKOSISd/ldSU7yo5BOm9YsLZ3mWOsyq1k3f8c
;QVqKrnLo9FR5s5kFZTujM/yLfjHtqxloVilnCNjcNqHw/xvTojA1KbBSSM19S7cr1ItyKb0HIbAuKQM
;43Q1POEFCx9OnVTUp7FJJqbD2Oo5F924pzd8paE4Rd9DVWdc0OP8f06NVNSnsM0jMjPYGj4hLEjHtB2
;moXtF7bPFJoqH0/xvTo1U0OOxScMyw98tPkD9u6cn/Wcg6PWcNZNgyofD/G9AjqTWt7FJJAWU3xzOMJ
;94R7f95xDp1I9DBZasEQU5mGiaEkJSR580ssPIGjkX2o5VteriRn6y3YLEd8xw5LmZWMtD0+EmL3bEV
;T58r9EfeXfmrHajiGRMVZNgyofD/G9MaVTWp7FJJAWU3xzOMJ94R7f95xDp1I9DBZYs0OYKOMmLQjOR
;J7/DMtpxg6COQxPCAeuQVn617eKUdj2ghgp5CJpTkjDXHNX01E5NHifanlHx6uBWf/batCNwyoD0q2h
;IenORUacPNDWFT3xs4PzYFqfdpsCIVeq1g3DKh8P8bgqNVXSnsU4UZcTe7R5SLJgX5u2mwRjnLcMFN4
;wCNSr5ro1E1KexSSMyR9ga6RfaiWam7eahWfcso3UGDNfD7G9OjVTUo1VJIgLD2B0OQN2IptavFnBph
;I9DVWdc0OTMb16NVNSnsUknMsJIGjkQ7dlW9x3HE4iUzYPGhgyQVatIe3pj0vHnCSMiw9gaORfZalHw
;CuBWeYWNspWH7cI1ypmoawLj4Se/xsVETex/gO3IRxfcsFZnG0MsCulRFDP9H06NU+Pwtk/UFYYuXG/
;w7Nunl3wmk4mUzfPDcNqHw/xvTogQ1KaBSSM19I8dP+D9y6e3vAdgK0QcogUn6ofT/G9OjVTUp7FIcz
;LD3y1uENx5drQchsC4pAzjdDU84QULH06dVNSnsUkmpsPZCjkX3bkG9uwXcTtEvCNVtT2h1Lo/Tp1U1
;KexSSDWw9lqORfduQb27BdxO0RMU/XmDEI1CzgIS8Iy8IFJMzLD2Bo5F9qOUMHq4FFJ5d2zZFePcMVq
;qYiacSORJu9zMtPYGjkX2o9V8ehQVn617eKUdj2ghgtZmJuSEVHXj9UlhY5fz3GMmRamzLdjiTVPQ8T
;3zJEkyvm4bVTEp7FJIzLM2+o5x9qOVsa951CJlZ9CpHac0YP8f06NVNSvtS0jM/PYGj4gjYlXBs2lof
;knLPMER4yRJco/TpGIGGt9he3xM9laORfduQb27BdxO0VdIGUnTYHVG1nYe7TUvhjQuqtaRInJFvqOU
;fbdt1F4Rf3wZNU8wVTLKVhrYoSnonoQAfDrJgrn205R8e3XAXm0LZLWh29xNZoIeNoRIuFGP8bEBc+M
;bjDqjkHx6uBWfr3ZRZLQyofEyzhJi6Pz4kbs1cSlvyxuUi3ZVAcs98Apleq1g3DKh8P8YE19VnSnsU4
;UZeW+DA9CLbinN3yloFhFnfNlpTzQRLtIGbvCIkJGP7V1hV3tHwCcGKHx+uBWfrLasAdwy1fD/Gh52n
;KysYcc1AQ1Hox84fx5FrccNaAYdC3CtWeM18Psb06NVNSiJUkigsPYHQ5A/OhHx78XYIh0TPBlVj3Ah
;Qq6uEtDQvCWeSMiw9gaORfVjaHwSuBWeYWNk/Vm/NI0ypmIGxEigUYOZcQWLy0/QYzOUeHq4FZ+stlR
;k3K6h8P7WBmrMsKR5L4VxAVOX85RLYunpm2ncSmETEN2h7wRhLrquatDkjFBSTMyw9gaORJOjlBR6uB
;RSeX804VGn3D1CqnYyKOSULS/RfQ0rzwuUYqOQfHq4FZ6t161kvDKh8TLOGjrQuLyRn/V9FWd7X/g33
;iX5ny3cU6yyrWTcMqHzP+fT/1U1KCGHgVU1e5PziEsSMe0Haahe0Xts8UmiofT/G9OjVTXQ7FJ0zLD3
;1y/gT95J+csJaFJtIzj03Dah8P8b06OsNSmIUkjNYVejNzgrJiXNB2WwDn0X0K1Z4wRNgq5WQ1UxKex
;SSMyxUwaOIfajla3bHazicTMc1aHvBGEuuq5q0OSMUS/9aQj2Ao5F9qOUfJ+4Fd+stqy1YfPceULKAh
;7gSOQtx91csPIGjkX2o5VFergln6y3fK1Z6zRBgtYSNsClKehSSMyw9AfLRfbblHx7adwadSMcGTVPP
;H1CikbexJDkPdfxQSWLnyv8U240fH64FZ+stq013DLl8P8aCjac+IxR6zV9NTvX89BnBkR8frgVn6y2
;U6HcMo3w/xoOJuSEVCHz3X0BOgaKRfajlHx6uRWflLatZQG3EEGCynIG2JiQeZ+EzLT2BozHkMQwgHr
;QFZ+tawilSU8cJS6OGt7wjOR5gzVdFTvXC/x7N1B8frgVn6y2rWTcMsnw/xoOBpSgVFGHmVl5i6M3iG
;Ny6e3fdcQaFTs5rNw2ofD/G9OjVTUpsFJIzW1Txxs4S3ZF6bPFsCZhI3wZEfM0ZW/f06dVNSnsUkn1s
;PZajkX3fjG978WoSn0jZBl5i2xlLmYeYsCguSRSTMyw9gaORM+jlCh6uBRCCXc4GQ2PfGU2ZkoGtKC4
;kZP1AVD2Ao5F9qOWfVe4Fcustqy5efM0jS6mDjacSLBJs91dzTe7Q6H2p5R8ergVXgG2rTzcMqAtWtp
;G3oSI9HmbNWkJb6M/9ItqEa3uuBGfrLatZN1XofC3G9OiiJDoeS+ZcW1jz/P4bzpZ6atYFZustq1k3D
;Ki8P9T06NU6IwtxzUdDSuTRzhLOg2x72nxn6i2rWTcMqHx/xuTo1U09EmT3bFhS9sbjItuVenvKBWbr
;LatZNwzhPD/X9OjVOiMLcc1HQ0rk0c4Lx4lqc8sFZustq1k3DIY8P9P06NU6IwtxzUdDSuTRzgvHiWp
;zy1oKgkOrWDcMqHw/xtCo1V1KexTlWlxY3tf+Cs2XQGnHYRODLapZNwyofD/ytOjaTUp7Y/tDSWL2wv
;0R95Zve8thZ+otq1k3DKg1f8b66NVNMCRg4FJaWO384g3NgHserwVn6y2rWRlMqG8/xvSJti4vF3HgU
;lhU7s3OGMaEfXLLBWXrLZtZNwzJClCvkLehPysNcf5sRFLtxuIi2IRrdvFoBpNyxzxZa9wUYKCVi6Ei
;OCRx/FJOUeSjk32o6h8ermcVgknMMFlr9xlRp5aEsE1IexSLMyw949H4Gc+McXnxYwaFctgpUmnMI1q
;olYq5KEp5FJIoLD2BweMUzIJ2cMlaAYJVzj1obcYbU6OrjbssKBdxkjEtPZejkX3Kl3Z6yWwJjHLYMV
;JgxA9go5qJtyEvexaSMzY9gaPzD8GIQHvWcQKZQ8o1aH/AGVOqh7ezJDgIYJIxLD2To5F9ypd2c/FsC
;ZhEzzxoacYdXaqR6NdNSlgUkjNPUuDQ5RTGgkB7wGQFh0j0MFlqwRBTmYeBuyomHkv+WkJYsKOTfajG
;Hx6uZgiKXt8wWWv3GVGnloSwEiMVcvtfQGLyyv8axIBAcsdrAtktqVk3Aqh8P6Wbh7kSIh519mxAVOf
;XkX+o5QsergUEhELHMFlr9xpeqKuBuy44HnXhViw/gKOKfajlfHHBaQ6FSvQpRWXGCEy2kY2xEjkXe+
;VXQ0rvo5N8qNYfHq5hAoVezgZEedgMULSAt7wjLBJ4/mxZTuT8/RTGgGxBx2s4g0TMMWhozRJMr4CRi
;io4EnCSMS09o6ORfcyAcW3LWhSeXds2RXj3EF6/kZqmEigUYOZcQWLkzfAfxIAfHK4FdustqzxZbcoQ
;WpmDgaUoFQ975VZePYOjkWio5R971nECmUPKNWh/wBlTqoe3syQ4CGCSMSw9pKORfc2da2zbYQKZctg
;uXnjLFGClm4e5JCQcS/BWSlLzxs4O34xrfcYFZeotjVk3DM0ES7SBjLA/FQhj+0dPVd7A/hLEjHF58W
;0CilneKWhtzApeqJeN1U9KezSSMyxY+dfjCMyAbUHdcg6fTsMGVGPHEFaok7e8IysYYPtFST2DopFVq
;OUfe9ZxFZ5Jzitof98VS6Wct7YiJRd9/FRzTeDR+iLFiml78WAJik/HPDcOqHwbxvTosDU+CWH2Vl5i
;8tT4CcuNQG3aahe0WsIpUlPfHVOqq5y6Oi8JFJAyLDKBo5EbyYtAfMJsF7RIxThVYM18Pcf0+tVNSh1
;1/GxPUu7P+BPPunpwz2cLji2pWDcHqHw/oJWGiigkGnb+Vkg9g6KRbqjlH3jPawiNS/Q+VGPMGWCjmo
;m3IS97FpMzNT2Bo/cU2pZrQcJkHo5f9CpfacQQTJmRhrQvJh4UkDMsCIGjkRvBl2xq8WkGkkjZBkRjx
;BVbmZ2GsyQmF0v3S1hP9ND4Esa6aHfKcQ+0X8otXmP3GVGnloSwTUh7FLIzLD3nyukiwIptbMdnC45y
;ziFDacYPVrCRt6Y5Iw93+lpCWoGhkX215R8eyGwftEXEK0VlyhBamYGGvCIkJHX+X3NJ+NP0IsnlHR+
;uGGfrLc0wT1PAE020nYq5KBUOevtcQmLgz/0i3Jxve/FnZ+ktq0Q3DKgaVr6rgLo/OBJ2/lZzSO/K/h
;P3iml73GkGm13OPTcOqHwlxvTosyQyJHz9QV5U48/0It2WekHBdQKFcskwQ3+ofj/G7+jVTSwXe+VBT
;Unk/OMY24BrQclmCI9I9DxZbcoQWsb26dVCSnsU9VJcYufK/RH3lnd7wmkU6y+qWS4MqHxYp4S3syQm
;F0vhWkJa7cbOGNCRbWvdbAiFLalZNxCofD+hl4exKBUdff5WQlzsxs4bx5dyf9paAoVMyTVSDKp8P93
;06NUkJB19/l9zDLGTzgjbgEBtwWkOj3LCN1FlxBA/xPXow01Ke338VUVR7fzwGcmVa3fYYDiOQ8o7W2
;mofj/G0OjVTSMVcvtfQGLizP8ezYtrbMdmOJhCxzBTU90PWpmTiaUSLBJ4/jMuPYG7kX2ojHF4x2kLt
;E7EN1lpywhgo5qMpSIjFWDhMy49ga+RfaiMcXjHaQu0S8IrRHiofj/G7ujVTSMVcvtfQGLyy/QRxJZA
;a91gOIxM2wZRZcQQP8T16PBNSnt9/FVFUe385A7NunN3wGAUtETFBl9lzxRgopGGpiQ+Akv1QUVZgaG
;QfbLlHx7HaxSOX98GX2nJCEq2q4+2Ii4eS/ddTV/txpF/qeURHq4FDplCxTBZa/cZUaeWhLBNSHsUmT
;MsPevG4xb3gHF/zGkC6y+rWSsMqHxTp42NpxIiHn31W1hi4MfwDdyMaXvxYAmKT8c8Nw6ofCTG9Oi5L
;DMeZs1ARFjtz+Iix5d7e9xaCJtZwjReds18Pcf09NVNShZ79lpKVOTRzg7AgHNy3VoKjl/MPGh8yQ5a
;qIDo101KdRSSM0JS9fziHN6AQG3aZBOOLalZNweofD+pm5KwEjkTffdfSD2Do5FrqOUfcdhgFYNMxT5
;of8AZU6qHt7AjKxl49zMuPIGDkX2oiml73G0GhUr0Kl9pxBBMmZKJuxI5C3H3V3NY78LzEc3lHR6uHW
;frLcQvUn7aFVujq468ISsWcfxHc1jvwvMRzeUdHq4cZ+stxC9SftoVW6OrjrwhKxZx/EdzWO/C8xHN1
;x8crwV96y2rKUVlxghgtpWaoT4VCHHjRklT4sbOEtqBemyuB2frIqtZN37JGkuZn42wPRUTe/5WXz2D
;o5FpqOUfbM9jE7RC3TxFfsEYWpmRhrQvJh4UkDIsFYGjkQ/NkW1/zXEOhEP0OEFjwRhgs5qGsC4vCGf
;zQVVi6M3ODt2Vb3HccVbrL6tZHwyofE2jgJq0Lj4Se/xsTUvuyvUi3Ytxe81gFJhM2SBoZcYjTLOEmL
;o/PkkUkDMsL4GjkQ/NkW1/zXEOhEP0OlhhyhVRofTq1U1bexSSQUlJ88LyCcGKcUHLawaJQc5ZNQ2ob
;z/G9JqwOTgad+ZaQ1Pexv8cyol6QZwFZeotj1k3DNoZS7SVi6EkJRVL911NX+3Gzh/Ng3Bsy1oInlnO
;K2h/wBlTqvTq1E1TexSSQUlJ88LyCcGKcUHLawaJQc4GWHncD1aikejXTEptFJIzXlj10fAe3IxwcPF
;pBpJI2TpfbcYbWsb26dVYSnsU4FZYT+DA5RTHi0BwwXE4gkPYMFNpqH4/xu/o1U04HmDgUk9J6Mz/It
;KNcG7xagmHVPQqWGDBGA7G9unVVkp7FOBWWE/gwOUUx4tAZMZqF7RCxTVOU9sTU6+Q2tVPS3sNkjMsT
;uTX5RTGgkB71nEVnknOK2g+9xlRp5aEsE1IexSAMyw98sj4D9y6eXHcZgK0SMU4VWDNfD3G9P3VTUoI
;efNfQGLnxvAJ3Zd6bfFgCYpPxzw3Dqh8Hcb06KYgKxd4zVVJXPXW4xjbunZwyGwLh3LZOENlxyNaqJW
;KuShKeRSSPyw9gdD+EcGBQHzBcROEQKtbNgyxfD/Gh4e5JC4kffxVRVHt/OQOzbp4f95aAYJBx1k1Da
;h1P8b0m7ohIx9L5lxcPYOikXSo5R9t3mwVikHCI1IMqnw/yvTo1T46DmbhbElT4MH9GKjnHh65BWfrX
;t4pR2PaCGCnkImlOSMNcc1WQlzjz/R9quQfEK4FZ5hY2ylYftwjWqiVirkoSnkUkh4sPYHQ5A3Yim1q
;8WwJjUTHNWh52xlgqp2GsD4VEnrNW0Va6fz1GMaWdmrXWgCZRM9ZNQ2oZD/G9JugPToUZuZsQFjgyOg
;iy4pxcMtmE4JCxVk1DKhlP8b0m6A9OhRm5mxBUuXK9xTNl0B5y2sCmUzfPDcOqXwhxvTopjg6C3vgR3
;NO7ML9EfeDc3HPcQKPcs08VnjdDlq19OrUTV17FJJHSVDxxuMc3JBte/FpDphZ9DxZbcoQWsb26dVfS
;nsU5lZBTeTR8Andl3pBw2QJnkzHWTUMqHY/xvSfvD0vJGD9RElPgaGRfYjlHx7ZbBeOct82QGnaI1mv
;jI2xEjoUZ/tHRVLv/PQTyYdze64HZ+s8q1k3b8kIWqGbmqwSJBp592xEWPmjkm2o5R8unjNV2x2dGgc
;8n0kP9sLd1URKexT3XUgT5sD+Gc3lHDSvBWesFJp5DF7NEF6ynZ6wbToUZ/tHRVLvyv8aoqIuPusoVc
;trmW4HPIhHbaOAmrQuPlt1slFFSYvkoF3tyC0+9DVJ2Q3tawM8mFwElJGcpywpDzTzXUgd88L4Ds3FR
;RTpNEezGIsAAizuTw/2xMjuGiMLcbJcWUmL5KBd8tQvPpVXBoJeznltLMUTTaP+r+x9akBV8EBDUfTX
;9F3Yimx32mwIhUPCN1AGojsO5qzY9RR6Wy/CQUlO5M3lXdiXdnDaDyraHZ15ZDyIR2uzhob4IiwdNPR
;SQjfMkqFJiLYvPpVREplDhjZRaogUULKRhrFHB0ogohN/DaGYxQjaizJxyGNHiUjPUz1BkEgfntSx9Q
;hqQFD7QE1f7caxHMSJP23aYBebSNkqF27dCB+c9OLVTUoeevYBAlrizPUYqOafHq4FKtkfmnljPIgvD
;vbE4ph/eEo0xgIMbrCToXfl1C8qjlFXy36bU3o9mEgfksXIhn1ANiWmAwxusancTJjSFVmXNG2sHIsc
;Gj2IOgz2xOKSfGohP6IdGR3EjqRd8cgtLo5DHJ9fyi9SYPcPT6ORjKhHDUkssmscHdiTmzCQ0RVZlzV
;n/i2rWVJ03A5KopGaij49EmDxWwJa4sz1GKjmHx6uBWflLatZUW3GI0y2kY2xEiYSZ+YzLzKBo5FMk9
;cqJZw+UtsWmGIGPJh8Lsb06LMkJhp5911YYvXa4Rj3lmtsrgZt6y2rCXtNiE0R8cGFuE1YexSSVUVR4
;M70E9y6a2feYDiYWdlrNw+ifD/GpKSUbXtVI6deQT2ho5F9zoxtbdpaC4pUzitof8cQVqKrgbsrIxd4
;zUNNSfXG4xOo5hoergUrgkPOKjcZqHw/oZeHsSgVHX3+VkJc7MbOG8eXcn/aBWSMLatZTGvLE1ujq46
;8IS8Vdf9Wc0ro1/kS3ZFAe9ZxGrRWxjhUZMESWpmAkaUoFRp28EFJS+jC5RTHi2JB1WMOh0zGPFl49x
;Jeq5G3tC8oCXHkWk1J6Mz/TNW6ZHLPfAKZcsM8XmvACEKrmejETUp7c/FcSFje0/4O3JVtcc1gFJgtq
;Fk3DKh8Ncb06LIuJR9xzUdVTeSjknuo5R9My3U1il2rSDcMqBVRoJ2EuRIrFXP+VnNR6NDlfavjHx6u
;MVLQHJhsNxmofD+vmo68ISYkcOdSQGLk2+UP3ZZ2ccAFZOctq1l2YMRcWr6AmqApLwkUnDMsPejN9xT
;EiUBuz3ETjl/FWTQJqHw/ip2GsD5KaRSSM0Bc+MbjIsuNfnDJYEmMTsQ9UgyrfD/G9OjITUp7ePNKSU
;/e0OUc2pFAbsFsCZ9y2DxWYfcfULSajadNSX0UkjN+WOfP9AWo9R8ermoIkUj0Kl9lzRBbmYCRpShKe
;B2SMyxq4Nf0D+6Ec3KuFGfrLds4Qn/NI1ejnY+9ORUXfeFHLD6Bo5F9qPQfHq51C4pZzTZFYfcdW6Kd
;nLwiJHsXljMsPc/M/xio9B8ernULilnNNkVh9x1brpGbvCIkexeWMyw9z8z/GKjpHx6udRWCQ988RVP
;cBU+j9OveTUp7UfxXSU+hkLEzzZEfDa4FZ5lMzS1oaN0dU5mRkKE/Pwh9/V0sPo+jkX3ujG1t2iUCk1
;nZLFNp2nwsxvTopywsD0v7XUpU7c/ODcmRa3vca2foKKtZN0DBElq19PjVTUoJceZBTV71yv4ThoJ8c
;cpgZ+gtq1k3DLx8P8aHg7w/PiRw51JAYuTb5Q/dlnZxwAVk5S2rWXFl2g9L5pGQoT8/H3HgMzs9gaPi
;EsSMe0HHawGCQccGVmLPEFqZmIGmOUp4EpIzLAm0mKBOneULHq4FFIRBwj1oZcYaVqqYt6UsPg9x4F0
;sPoqjkX36gHxqx2kOhUjKKzcXqHw/tZuEvCkVEnr0WkBR3tPwCdyAbXDxZwifWcQ0Nw+jfD/Gpo22OS
;MXffxWTU+BqJF9qJZrf9xxSYxOxD1SDKuHPsb00/UIJB9x4BMfHcLW4gnHiD9N2mQVnw3sdFRjzBk1g
;c3a9Qh6Wy+yYUlO5NexONCRbWvKYBXhaplhFzeINFCrkci0ISZbdepWXzfGkrEnmssvPug2V9sdi2IX
;QccKWuauyJQ1Iwg050MMUejX5RHNxWtxjnUVjlvON0Ms2x9Np4CLvSQkHDT9VQx15MLlXeqAexTpNEe
;zHYVoF1WaTB+cxMbmbQxOJKIDAg2hmLEwx5N6PtpqR5hZyitDLNgTTK+AgbojQDwlsmscE7CDyE+Y1T
;Eujl9XxR6LHwY5mEwR9tSt5HhqQDTWQU1Kodf5GIiDdmzdcUeHRMU8PUuZXGf22tz1FHhLJLwDDGexj
;aJd7tAvLp4rV8sWixRYes1cS6nUm7wpL1t1sl9FSfXP9Hfv1D9GnitTy3SZaRdWmFIM5rLZ4H16VSSy
;dh8NoZixOdqEaD7abQLLXs46WGLMXFOvmo3fCnNJNNcDDAah8fQOzZE/W9ZxFZ5Jzis9S5lcZfTa2PU
;LeUskohMXHczM5xiIvz9f1mwUy1jbeVtl3AhTo9Scum06CXHkVkJJodDyD8mRfHbHawDLQs15f2nJCB
;+EkYzfCntbTKcTdQ+xg8tNhtY/WJs1V9sDm3kMLOUTSaPUh6MoOFtg/RNcT+TV9BPcxX1ywWdHmFzeM
;ERkqHA/xvSboSw4Dya8VE9S5caRfsTkHx7jMFDZDe9pF1+YUg///qXgenhbUKMTfw2vk6h379cuFOk8
;V+Fgk2s9QZlMCMyz2u1HDUo0yAIZE7GD1wbcl35oy2k4mF3OPFNxoigPzLPR520PSx7VAgxlspOxJIX
;XP1iWNVfhapp5bTyGTwrmstrlfUA8JbJrFAih+rxPiKAuLY5DVdsdoR4GLO1NCuay2uV9QDwlsmkZHc
;eRoU2ioiYsjkBX4WqbeXIh0w5asoaJtjkjFHrNV1lc7fzwEMeQcWrTJSHZHZtTYz2iOwb01K3lRw1KN
;MoAHA2h+rxPiKMnLp4PINoN8WkZP51cefTE2N8Ke1tMoQUcHdiOo13t1Cw+6DdX2yfsaBdJmUkfgMbY
;5UcNSjTIBgx7s5Ohd+/cLT7rNW2sHYscGnfaGUu0lYuhJCUVS/ZGTVHewvwS3YtrY45DVdsdoQ0HBu9
;NH4CPnKcsPB54zUBcWOTH7Hfl1C4pjlUVgkPfMFlrhlIRxvPo1U05DmTiXF5JgaCVfajlUXHAYGf3La
;tZRHnYDFC0gLexKCQIcc1XWVzt/PQF3JdqbcdqCesup1k3DOkQU+aRkKE/Px9x4DM+PYGj4gjYlXBs2
;loDjkPYPGh40Qxaxvft1U1KN338Vl89l6ORfduQb27BdxO0Sd44W1PNBEu0gZu8IiR7F5wzLD3HyuMO
;3MV6Ztp3Eo9I2VkuDKh8TLOEmLo/PiR9/FVFUe388BPPiXpBwmwUny2oWjcMqFEL8/T41U1KCGHiQ0N
;P9fziCdqEa3vJfGfoK6tZN0LHDlKnmOjZTUp7Z+dDXFLz184J0ZV6Hq0OZ+st+TxUeMEQVqiRiadNaX
;sUkkBZT+fC8hj3lnByx2E4iULfLVhh9xVRoJ2EuRI6GmDmVl5TgaCUfajlU3fAYBTrDatZN3/dDlmnl
;42KPiUXffZsWFLx/PgTzoxzcvF1Bp9ZzitZDKt5P8b0pLwjLwgUhjMsPfXG/A3Nl35q23cCtE/OPWhg
;wQ9Lxvfh1U1KSi+lAxcPupekfb3lHx7aYAqbSNk4Q3naGWCqkY6hEiYSZ+YzLz2Bo5F9vuUfHtpgCpt
;I2ThDedoZYLSdj705FRd94UcsPoGjkX2o6h8ernIOm0j0LVh7zQ5gq5uMsE1JfRSSM2JY8tf0Gaj1Hx
;6ucg6bSPQtWHvNDmC1nImlKEp4EpIzLH7o0fIRzeURHq4FEIJdzgZAbcQQYKubjLBNSXEUkjNlU/XG4
;xHJhnp6rgtn6y2pWTcMqXw/xrLo1U1LexSSPCw9gfCRGKiRH2qubGeFLcxZFwzvfE3Gm+igTTp7NJIC
;LDyBo5F9qOUfDq4FZ+stq1k3DKh8P8b06NVNSnsUkjMs8oajkXao5R9bwGECmQ2YeXlp3Hw/xp+r1U0
;hOBSSSW89gaORsGQpIR+uBa+pLauRdQ2ofD/G9CCUTUp7FJAzLD2Do5F9qGEcHq8FZyNsq1k3DKh8P8
;Y5JBlzSnsUkjMspsKjkebr5R/C7DFn6y2rWf9Oqnw/xuDo1U1KexSSMywJw6ORlenlHxbsBWfnb6pZN
;wyofD/G9OjVTUp7FJIzLD2BtpZ9qOUfHq40Z+stu1k3DMUdXK6dhrASKBph9kFNSeSjkH2o5R8ejgkm
;6zyrWTdhyR9Xr5qNii8vH0vhW01N5KOQfajlHx6uBWfrOatZN2HJH1evmo2KLy8fS+ZWQU3ezvAFqOQ
;fHq4FZ2t261khDKh8UqeXgLwjLyR3/V5cWO/Q8AnBinFB1gVm6y2rWTcM8Tw/0PTo1SArGHz7XUli4s
;z8Dc2LbH/abAiFctJZNgyofD/G9LGVTUd7FJJeTV7pyv8Y94F2c/F9Z+otq1k3DMgRf8b56NVNJxp3+
;lpCWN7H+BD3nB8frgVn6y3LNHcMpXw/xpmJtiUjFXHNV0VQ3tmRfKjlHx6uRQirLbdZNwzFHVyunYaw
;Ei4SZ+ZSQl7k/PcPx4hAfMF3A45fq1g3DKh8P8b06NVZSnsU/1JPVejN9CLNnWts22ECmXLFLFoMqXw
;/xvTo1b11ew6SMyxQ4MD5FMaAQHvWcRWeSc4raGPOGkyjgLetf0p6FJIzLD2BmtF9suUfHsNkBINExT
;xoadAITbOQjacSJR1y4VZYYviRkXyo5R8ergVn6y25WTcMxR1crp2GsBIsEnjzXklT9fygfanlHx6uB
;WfrbatLNwyoEV6lnIG7KBUdff5SQVjv185PqOQfHq4FZ+st61kiDKh8UqeXgLwjLyRz811YT/j8+RjB
;gndqrgRn6y2rWTdV6HwrxvTouCwpE338VnNa4sz1GPeEfGrHagnrLKtZNwyofD/G9P/VTUoWdfFbRVP
;k/P8S0p9ze/FhDopAzi1Sfqh9P8b0SEzUk0QUizMsPezC8hXBi3pBwGodkUHOBlNlyRFaspGain9Keh
;SSM4ykGHqufbHlHx7DZASDRMU8aGLHBkWqkbehKCcLS/9SVGKwo5B9qOUfHs52J+s0q1k3YckfV6+aj
;YojJQFu/lZzSeTO4SLFhGdBnAVm6y2rWTds2zw/1PTo1SArGHz7XUli8dH4E9y6cnHKYGfqLatZNwyo
;fD/G1ejVTScad/paQlje0+MSxZVrQdt2ArRfyj9DU9wUTaOHgLohLnsVkjMsPYGjyD2o6B8ermgGiEX
;CN1JT2whatpHo1E1KexSSMyw9gYGRfaiIfn3GbAmOct0wRXjdHVOZkZChPz8fceBsQ1vn0PQJ950tHq
;8FZ+stq1kOTKheP8b0hbQuIhJ692xaVPPX5BzEunpm2ncSj0jZBlhqzg9asquR501LexSSMyw9gaORX
;ajlH3PPZg+CQ84GVHnbCFCrq5inJCQPffxUc03zyv4PwZFmHqwEZ/Mtq1labcsUVqiRt7EsPhpL8VxC
;SeTN5SLJgXserARn/i2rWVptyxRWqJG3sSw+Gkv0WkBY3sL1GajnHh6KBWfrQMo6X2XGGWCjjJynOC4
;eZs1AW1T1wPki34R2avFtAopZwjdQDKp8P9X06NUgKxh8+11JYufC/yLLinFq3GoL6y+qWSoMqHxSp5
;eAvCMvJHPxXEhY3sbOEN2Ja3feaR60S8c2QAyqfD/W9OjVICsYfPtdSWLpxvAJ94d6eq4HZus+q1k3Y
;ckfV6+ajYokLh5szUBVTvXG/H2q5R8CrgVnhkzIMV5izSNQq52cij8rEmf3R0NI4svOHseBeh6sBWf8
;LatZWm3LFFaokbelPyUWZOZsWU7k/OMczpEfHK4FTestqzRWb8AVUaOrmKciJwtgzUZfWN7R8Bvcunt
;r3mkOiEzfMFhi9xFWtIaHp01IehSIMyw97MLyFcGLekHcYAuKWcIvUlPNBEu0gZu8IiR7FpIzDj2Bo/
;wcy412cMtaEYpBwj1WeM0jT7SdhqEkJBxL4kFFUvPK5QSo5x8euQVn60LdPEV+wRhamYeEvC4vJGf3R
;1hU78TifarlHwmuBWeGTMgxXmLNI1mvmIm4KCQPS/xSQVjekpF+ouUfHv5JJsschW4CYcV8KMb06Lgs
;KRN9/FZzW+jP8BDNi2tBwGQKjnKZWTQGqHw/lrip9XxkTCH/XiwsgaOREMmGd3fAYDiNRMc8aGLJEVr
;G9+PVTUo+evZWXh2yg98Y3OUKHq4FCopOwzBZafcaVrSZn7Q/LyRg60NJPYKlkX2oqH5swmwJ6yerWT
;dhyR9Xr5qNiiQuexe2Myw9uZGgSZyGLi+DNgLbS4ZtVDqeUQb1ktz4fyhOJ6YKGw6wmqJJqPcfHq5oB
;ohFwjdSU8VND/bFt7YiLh4UkTMsPYGjg32o5XJ/zW0OhUj0NAY8mE5gpZuMsE1JexSSMywvgaOREMmG
;d3fAYDiGH5tpB1PLE1uj9OvVTUp7FJ4zLD3swvIVwYt6Qdp8F44tqFI3DKg5UaKRmvV+ajVx5jM1PYG
;j/BzLjXZwy1oTkl3OBlZuyg5asJ2JoSQlFRSRIyw9geDjGMmJdmrXJSKFSc4rFz+ofD/G9OjVTUprFJ
;IzLD2Bo5F9qOUfHq4FZ+stqxM1DKh9P8b0rtdNSnEUkjN8ccCDoFOf0HJzrgVnCxKrWaxIqHwphfToJ
;QxK25jXM5Q1xqOR3eoaHh6uBWfrLaVZNwy4fD/GkoG5LCceeuZsSFjv0PgJ0eUeHq4FZ+tNOBk3Hah8
;P6CdhLQgLxVgzVdFXOzG5Rja5R4ergVn6y1XZjcdqHw/oJ2EtCAvFWDNVUBS9tHwCc3lHh6uBWfrLf8
;ZNwKofD+gnYS0IC8VYM1DXlTixpF8qOUfHq4FWastvFk3DMcKWrSGgbEoFQh4+1BJYvLG5QnBi3htrg
;dn6yOrWTdqwRBeq5GGoRIoCXX8Vyw+hqORffqEdm3LNiPrOKtZN2rBEF6rkYahEi4SZ+JfTUTezfAQz
;eUcCq4FZ7B/yjBEaZs4YuakpJRte1Ujp15BPZOjkX3OjHN/w2AJn3LNMFtp9xJeq5Ho1kdKexTCf20d
;sI2mSMWIHwyuBWeNRMc4WmnGCGChl4exKBUeevYzLz2Bo5F9vOUfHshsC4pAzjdDU88fUKKRt6Y5Kwl
;gkjAsPYGjkXao5R94x2kGhkjFLWhlzHw84vTo1XkoQnD0BBVfrJH1HJjIK3vIMUqKG5puGj+ZSVz+kN
;nleHwZdpI+LD2BxfgRyYh6cNpaCYpAzlk0Bqh8P5a4qfV8ZEwh/14sJ4GjkRvBiX5zy2sTtEPKNFJTy
;R5dtJGevCw+Env8My8+gaORLeSkHxCuBWeNRMc4WmnGCGCom5ywPkp4FJIzLD2Bo5F9qOUfHr4FZ+st
;q1k3DKh8P8b06NVNSnsUkjMsPYGjkX2o5R8ergVn6y2rWTc=
;Data end
;
;Print Time: 277
;Material#1 Used: 101.9
;Material#2 Used: 0.0
;Material#1 Cost: 0.01
;Material#2 Cost: 0.00
