;Sliced by ideaMaker 3.6.1.4415, 2020-10-14 20:11:07 UTC+1000
;Dimension: 235.000 235.000 250.000 0.400
;Plate Shape: 0
;Extruder Offset #1: 25.000 0.000
;Filament Diameter #1: 1.750
;Filament Diameter #2: 1.750
;Filament Compensation #1: 82.00
;Filament Compensation #2: 90.00
;Filament Density #1: 1240.00
;Filament Density #2: 1240.00
;Bounding Box: 52.750 162.250 9.300 135.700 0.000 0.200
;Model Gap: 0.000
M221 T0 S82.00
M140 S70.00
M104 T0 S210.00
M109 T0 S210.00
T0
M190 S70.00
; Ender 3 Custom Start G-code
G92 E0 ; Reset Extruder
G28 ; Home all axes
G1 Z2.0 F3000 ; Move Z Axis up little to prevent scratching of Heat Bed
G1 X0.1 Y20 Z0.3 F5000.0 ; Move to start position
G1 X0.1 Y200.0 Z0.3 F1500.0 E15 ; Draw the first line
G1 X0.4 Y200.0 Z0.3 F5000.0 ; Move to side a little
G1 X0.4 Y20 Z0.3 F1500.0 E30 ; Draw the second line
G92 E0 ; Reset Extruder
G1 Z2.0 F3000 ; Move Z Axis up little to prevent scratching of Heat Bed
G1 X5 Y20 Z2.0 F5000.0 ; Move over to prevent blob squish
M1001
;LAYER:0
;Z:0.200
;HEIGHT:0.200
M106 S255
G4 P500
M106 S64
M140 S50
G1 F3000 E-5.0000
G0 F4200 X66.346 Y27.982
G0 F900 Z0.200
;TYPE:WALL-INNER
;WIDTH:0.400
G1 F1500 E0.0000
G1 F600 X64.584 Y28.517 E0.0674
G1 X62.750 Y28.697 E0.1348
G1 X60.916 Y28.517 E0.2022
G1 X59.154 Y27.982 E0.2696
G1 X57.529 Y27.114 E0.3370
G1 X56.105 Y25.945 E0.4044
G1 X54.936 Y24.521 E0.4718
G1 X54.068 Y22.896 E0.5392
G1 X53.533 Y21.134 E0.6066
G1 X53.353 Y19.300 E0.6740
G1 X53.533 Y17.466 E0.7414
G1 X54.068 Y15.704 E0.8088
G1 X54.936 Y14.079 E0.8762
G1 X56.105 Y12.655 E0.9436
G1 X57.529 Y11.486 E1.0110
G1 X59.154 Y10.618 E1.0784
G1 X60.916 Y10.083 E1.1458
G1 X62.750 Y9.903 E1.2132
G1 X64.584 Y10.083 E1.2806
G1 X66.346 Y10.618 E1.3480
G1 X67.971 Y11.486 E1.4154
G1 X69.395 Y12.655 E1.4828
G1 X70.564 Y14.079 E1.5502
G1 X71.432 Y15.704 E1.6176
G1 X71.967 Y17.466 E1.6850
G1 X72.147 Y19.300 E1.7524
G1 X71.967 Y21.134 E1.8198
G1 X71.432 Y22.896 E1.8872
G1 X71.120 Y23.481 E1.9114
G1 X67.828 Y23.489 E2.0319
G1 X67.445 Y23.648 E2.0471
G1 X67.238 Y23.821 E2.0569
G1 X67.054 Y24.079 E2.0685
G1 X66.939 Y24.390 E2.0807
G1 X66.931 Y27.669 E2.2006
G1 X66.787 Y27.746 E2.2066
G0 F600 X66.346 Y27.982
G1 F3000 E-2.7934
G0 F4200 X66.500 Y28.353
;TYPE:WALL-OUTER
;WIDTH:0.400
G1 F1500 E2.2066
G1 F600 X64.662 Y28.911 E2.2769
G1 X62.750 Y29.099 E2.3472
G1 X60.838 Y28.911 E2.4174
G1 X59.000 Y28.353 E2.4877
G1 X57.306 Y27.448 E2.5580
G1 X55.821 Y26.229 E2.6283
G1 X54.602 Y24.744 E2.6986
G1 X53.697 Y23.050 E2.7688
G1 X53.139 Y21.212 E2.8391
G1 X52.951 Y19.300 E2.9094
G1 X53.139 Y17.388 E2.9797
G1 X53.697 Y15.550 E3.0500
G1 X54.602 Y13.856 E3.1202
G1 X55.821 Y12.371 E3.1905
G1 X57.306 Y11.152 E3.2608
G1 X59.000 Y10.247 E3.3311
G1 X60.838 Y9.689 E3.4014
G1 X62.750 Y9.501 E3.4717
G1 X64.662 Y9.689 E3.5419
G1 X66.500 Y10.247 E3.6122
G1 X68.194 Y11.152 E3.6825
G1 X69.679 Y12.371 E3.7528
G1 X70.898 Y13.856 E3.8231
G1 X71.803 Y15.550 E3.8933
G1 X72.361 Y17.388 E3.9636
G1 X72.549 Y19.300 E4.0339
G1 X72.361 Y21.212 E4.1042
G1 X71.803 Y23.050 E4.1745
G1 X71.360 Y23.880 E4.2089
G1 X67.908 Y23.889 E4.3352
G1 X67.655 Y23.994 E4.3452
G1 X67.534 Y24.095 E4.3510
G1 X67.411 Y24.268 E4.3587
G1 X67.339 Y24.462 E4.3663
G1 X67.330 Y27.909 E4.4924
G1 X66.941 Y28.118 E4.5086
G0 F600 X66.500 Y28.353
G1 F3000 E-0.4914
G0 F4200 X58.225 Y27.395
;TYPE:SOLID-FILL
;WIDTH:0.400
G1 F1500 E4.5086
G1 F600 X54.653 Y23.823 E4.6934
G1 F3000 E-0.3066
G1 F900 Z0.500
G0 F4200 X54.089 Y22.693
G1 F900 Z0.200
G1 F1500 E4.6934
G1 F600 X59.354 Y27.959 E4.9658
G1 F3000 E-0.0342
G1 F900 Z0.500
G0 F4200 X60.167 Y28.205
G1 F900 Z0.200
G1 F1500 E4.9658
G1 F600 X53.842 Y21.881 E5.2931
G1 F3000 E0.2931
G1 F900 Z0.500
G0 F4200 X53.607 Y21.080
G1 F900 Z0.200
G1 F1500 E5.2931
G1 F600 X60.968 Y28.441 E5.6739
G1 F3000 E0.6739
G1 F900 Z0.500
G0 F4200 X61.595 Y28.502
G1 F900 Z0.200
G1 F1500 E5.6739
G1 F600 X53.545 Y20.453 E6.0904
G1 F3000 E1.0904
G1 F900 Z0.500
G0 F4200 X53.483 Y19.825
G1 F900 Z0.200
G1 F1500 E6.0904
G1 F600 X62.223 Y28.564 E6.5426
G1 F3000 E1.5426
G1 F900 Z0.500
G0 F4200 X62.832 Y28.608
G1 F900 Z0.200
G1 F1500 E6.5426
G1 F600 X53.439 Y19.215 E7.0286
G0 F4200 X53.490 Y18.700
G1 F600 X63.347 Y28.557 E7.5386
G0 F4200 X63.862 Y28.507
G1 F600 X53.541 Y18.186 E8.0726
G0 F4200 X53.592 Y17.671
G1 F600 X64.377 Y28.456 E8.6307
G0 F4200 X64.840 Y28.354
G1 F600 X53.694 Y17.207 E9.2074
G0 F4200 X53.826 Y16.773
G1 F600 X65.275 Y28.222 E9.7998
G0 F4200 X65.708 Y28.090
G1 F600 X53.957 Y16.339 E10.4078
G0 F4200 X54.090 Y15.906
G1 F600 X66.142 Y27.959 E11.0314
G0 F4200 X66.537 Y27.787
G1 F600 X54.261 Y15.511 E11.6665
G0 F4200 X54.457 Y15.142
G1 F600 X66.850 Y27.535 E12.3078
G0 F4200 X66.851 Y26.971
G1 F600 X54.655 Y14.774 E12.9388
G0 F4200 X54.851 Y14.405
G1 F600 X66.853 Y26.406 E13.5598
G0 F4200 X66.854 Y25.842
G1 F600 X55.062 Y14.050 E14.1699
G0 F4200 X55.317 Y13.739
G1 F600 X66.856 Y25.278 E14.7669
G0 F4200 X66.857 Y24.714
G1 F600 X55.572 Y13.428 E15.3509
G0 F4200 X55.827 Y13.118
G1 F600 X66.919 Y24.210 E15.9248
G0 F4200 X67.121 Y23.846
G1 F600 X56.082 Y12.807 E16.4959
G0 F4200 X56.376 Y12.536
G1 F600 X67.414 Y23.573 E17.0670
G0 F4200 X67.814 Y23.408
G1 F600 X56.687 Y12.281 E17.6427
G0 F4200 X56.998 Y12.026
G1 F600 X68.379 Y23.407 E18.2316
G0 F4200 X68.943 Y23.405
G1 F600 X57.308 Y11.771 E18.8336
G0 F4200 X57.627 Y11.524
G1 F600 X69.507 Y23.404 E19.4482
G0 F4200 X70.072 Y23.403
G1 F600 X57.996 Y11.327 E20.0731
G0 F4200 X58.365 Y11.130
G1 F600 X70.636 Y23.401 E20.7080
G0 F4200 X71.116 Y23.316
G1 F600 X58.734 Y10.933 E21.3487
G0 F4200 X59.102 Y10.736
G1 F600 X71.313 Y22.947 E21.9805
G0 F4200 X71.459 Y22.527
G1 F600 X59.522 Y10.590 E22.5981
G0 F4200 X59.956 Y10.458
G1 F600 X71.591 Y22.094 E23.2001
G0 F4200 X71.723 Y21.660
G1 F600 X60.389 Y10.326 E23.7865
G0 F4200 X60.823 Y10.195
G1 F600 X71.854 Y21.225 E24.3573
G0 F4200 X71.925 Y20.730
G1 F600 X61.318 Y10.124 E24.9061
G0 F4200 X61.833 Y10.073
G1 F600 X71.976 Y20.216 E25.4309
G0 F4200 X72.027 Y19.701
G1 F600 X62.348 Y10.022 E25.9317
G0 F4200 X62.888 Y9.997
G1 F600 X72.052 Y19.161 E26.4058
G1 F3000 E21.4058
G1 F900 Z0.500
G0 F4200 X71.991 Y18.533
G1 F900 Z0.200
G1 F1500 E26.4058
G1 F600 X63.515 Y10.058 E26.8443
G1 F3000 E21.8443
G1 F900 Z0.500
G0 F4200 X64.143 Y10.120
G1 F900 Z0.200
G1 F1500 E26.8443
G1 F600 X71.929 Y17.906 E27.2472
G1 F3000 E22.2472
G1 F900 Z0.500
G0 F4200 X71.808 Y17.219
G1 F900 Z0.200
G1 F1500 E27.2472
G1 F600 X64.830 Y10.241 E27.6082
G1 F3000 E22.6082
G1 F900 Z0.500
G0 F4200 X65.643 Y10.489
G1 F900 Z0.200
G1 F1500 E27.6082
G1 F600 X71.560 Y16.406 E27.9144
G1 F3000 E22.9144
G1 F900 Z0.500
G0 F4200 X71.243 Y15.523
G1 F900 Z0.200
G1 F1500 E27.9144
G1 F600 X66.526 Y10.806 E28.1584
G1 F3000 E23.1584
G1 F900 Z0.500
G0 F4200 X67.740 Y11.455
G1 F900 Z0.200
G1 F1500 E28.1584
G1 F600 X70.595 Y14.309 E28.3061
G1 F3000 E23.3061
G1 F900 Z0.500
G0 F4200 X148.654 Y27.982
;TYPE:WALL-INNER
;WIDTH:0.400
G1 F900 Z0.200
G1 F1500 E28.3061
G1 F600 X148.070 Y27.670 E28.3304
G1 X148.070 Y24.541 E28.4448
G1 X148.002 Y24.200 E28.4576
G1 X147.878 Y23.962 E28.4674
G1 X147.670 Y23.736 E28.4786
G1 X147.401 Y23.571 E28.4902
G1 X147.172 Y23.498 E28.4990
G1 X146.977 Y23.480 E28.5061
G1 X143.881 Y23.480 E28.6194
G1 X143.568 Y22.896 E28.6436
G1 X143.033 Y21.134 E28.7110
G1 X142.853 Y19.300 E28.7784
G1 X143.033 Y17.466 E28.8458
G1 X143.568 Y15.704 E28.9132
G1 X144.436 Y14.079 E28.9806
G1 X145.605 Y12.655 E29.0480
G1 X147.029 Y11.486 E29.1154
G1 X148.654 Y10.618 E29.1828
G1 X150.416 Y10.083 E29.2502
G1 X152.250 Y9.903 E29.3176
G1 X154.084 Y10.083 E29.3850
G1 X155.846 Y10.618 E29.4524
G1 X157.471 Y11.486 E29.5198
G1 X158.895 Y12.655 E29.5872
G1 X160.064 Y14.079 E29.6546
G1 X160.932 Y15.704 E29.7220
G1 X161.467 Y17.466 E29.7894
G1 X161.647 Y19.300 E29.8568
G1 X161.467 Y21.134 E29.9242
G1 X160.932 Y22.896 E29.9916
G1 X160.064 Y24.521 E30.0590
G1 X158.895 Y25.945 E30.1264
G1 X157.471 Y27.114 E30.1938
G1 X155.846 Y27.982 E30.2612
G1 X154.084 Y28.517 E30.3286
G1 X152.250 Y28.697 E30.3960
G1 X150.416 Y28.517 E30.4634
G1 X149.132 Y28.127 E30.5125
G0 F600 X148.654 Y27.982
G1 F3000 E25.5125
G0 F4200 X148.500 Y28.353
;TYPE:WALL-OUTER
;WIDTH:0.400
G1 F900 Z0.200
G1 F1500 E30.5125
G1 F600 X147.670 Y27.910 E30.5470
G1 X147.670 Y24.580 E30.6688
G1 X147.621 Y24.334 E30.6780
G1 X147.548 Y24.194 E30.6837
G1 X147.413 Y24.048 E30.6910
G1 X147.233 Y23.937 E30.6988
G1 X147.092 Y23.892 E30.7042
G1 X146.959 Y23.880 E30.7091
G1 X143.641 Y23.880 E30.8305
G1 X143.197 Y23.050 E30.8649
G1 X142.639 Y21.212 E30.9352
G1 X142.451 Y19.300 E31.0055
G1 X142.639 Y17.388 E31.0757
G1 X143.197 Y15.550 E31.1460
G1 X144.102 Y13.856 E31.2163
G1 X145.321 Y12.371 E31.2866
G1 X146.806 Y11.152 E31.3569
G1 X148.500 Y10.247 E31.4271
G1 X150.338 Y9.689 E31.4974
G1 X152.250 Y9.501 E31.5677
G1 X154.162 Y9.689 E31.6380
G1 X156.000 Y10.247 E31.7083
G1 X157.694 Y11.152 E31.7785
G1 X159.179 Y12.371 E31.8488
G1 X160.398 Y13.856 E31.9191
G1 X161.303 Y15.550 E31.9894
G1 X161.861 Y17.388 E32.0597
G1 X162.049 Y19.300 E32.1300
G1 X161.861 Y21.212 E32.2002
G1 X161.303 Y23.050 E32.2705
G1 X160.398 Y24.744 E32.3408
G1 X159.179 Y26.229 E32.4111
G1 X157.694 Y27.448 E32.4814
G1 X156.000 Y28.353 E32.5516
G1 X154.162 Y28.911 E32.6219
G1 X152.250 Y29.099 E32.6922
G1 X150.338 Y28.911 E32.7625
G1 X148.978 Y28.498 E32.8145
G0 F600 X148.500 Y28.353
G1 F3000 E27.8145
G0 F4200 X144.174 Y23.400
;TYPE:SOLID-FILL
;WIDTH:0.400
G1 F900 Z0.200
G1 F1500 E32.8145
G1 F600 X143.644 Y22.870 E32.8419
G1 F3000 E27.8419
G1 F900 Z0.500
G0 F4200 X143.395 Y22.056
G1 F900 Z0.200
G1 F1500 E32.8419
G1 F600 X144.739 Y23.400 E32.9115
G0 F4200 X145.305 Y23.400
G1 F600 X143.149 Y21.244 E33.0230
G1 F3000 E28.0230
G1 F900 Z0.500
G0 F4200 X143.059 Y20.588
G1 F900 Z0.200
G1 F1500 E33.0230
G1 F600 X145.871 Y23.400 E33.1685
G0 F4200 X146.436 Y23.400
G1 F600 X142.996 Y19.960 E33.3465
G1 F3000 E28.3465
G1 F900 Z0.500
G0 F4200 X142.935 Y19.333
G1 F900 Z0.200
G1 F1500 E33.3465
G1 F600 X147.003 Y23.401 E33.5570
G1 F3000 E28.5570
G1 F900 Z0.500
G0 F4200 X148.149 Y24.547
G1 F900 Z0.200
G1 F1500 E33.5570
G1 F600 X152.216 Y28.613 E33.7674
G0 F4200 X152.736 Y28.568
G1 F600 X142.979 Y18.811 E34.2722
G0 F4200 X143.030 Y18.297
G1 F600 X153.251 Y28.517 E34.8010
G0 F4200 X153.766 Y28.467
G1 F600 X143.081 Y17.782 E35.3539
G0 F4200 X143.165 Y17.300
G1 F600 X154.247 Y28.382 E35.9273
G0 F4200 X154.681 Y28.251
G1 F600 X143.298 Y16.867 E36.5163
G0 F4200 X143.429 Y16.433
G1 F600 X155.115 Y28.119 E37.1209
G0 F4200 X155.549 Y27.987
G1 F600 X143.561 Y15.999 E37.7412
G0 F4200 X143.718 Y15.590
G1 F600 X155.958 Y27.830 E38.3745
G0 F4200 X156.326 Y27.633
G1 F600 X143.916 Y15.222 E39.0166
G0 F4200 X144.112 Y14.853
G1 F600 X156.695 Y27.436 E39.6676
G0 F4200 X157.064 Y27.239
G1 F600 X144.309 Y14.484 E40.3276
G0 F4200 X144.507 Y14.117
G1 F600 X157.431 Y27.041 E40.9963
G0 F4200 X157.742 Y26.786
G1 F600 X144.762 Y13.806 E41.6679
G0 F4200 X145.017 Y13.495
G1 F600 X158.053 Y26.531 E42.3424
G0 F4200 X158.364 Y26.276
G1 F600 X145.272 Y13.184 E43.0198
G0 F4200 X145.527 Y12.874
G1 F600 X158.674 Y26.021 E43.7000
G0 F4200 X158.959 Y25.740
G1 F600 X145.809 Y12.590 E44.3804
G0 F4200 X146.120 Y12.336
G1 F600 X159.214 Y25.429 E45.0579
G0 F4200 X159.469 Y25.119
G1 F600 X146.431 Y12.080 E45.7325
G0 F4200 X146.741 Y11.825
G1 F600 X159.724 Y24.808 E46.4042
G0 F4200 X159.979 Y24.497
G1 F600 X147.052 Y11.571 E47.0730
G0 F4200 X147.417 Y11.370
G1 F600 X160.180 Y24.132 E47.7334
G0 F4200 X160.377 Y23.764
G1 F600 X147.786 Y11.172 E48.3849
G0 F4200 X148.155 Y10.976
G1 F600 X160.574 Y23.395 E49.0274
G0 F4200 X160.771 Y23.026
G1 F600 X148.523 Y10.779 E49.6611
G0 F4200 X148.929 Y10.619
G1 F600 X160.931 Y22.621 E50.2821
G0 F4200 X161.063 Y22.187
G1 F600 X149.362 Y10.487 E50.8875
G0 F4200 X149.796 Y10.354
G1 F600 X161.194 Y21.753 E51.4773
G0 F4200 X161.326 Y21.319
G1 F600 X150.230 Y10.223 E52.0514
G0 F4200 X150.707 Y10.134
G1 F600 X161.414 Y20.841 E52.6054
G0 F4200 X161.465 Y20.327
G1 F600 X151.223 Y10.084 E53.1353
G0 F4200 X151.738 Y10.033
G1 F600 X161.515 Y19.811 E53.6412
G0 F4200 X161.566 Y19.296
G1 F600 X152.254 Y9.984 E54.1230
G1 F3000 E49.1230
G1 F900 Z0.500
G0 F4200 X152.881 Y10.045
G1 F900 Z0.200
G1 F1500 E54.1230
G1 F600 X161.504 Y18.669 E54.5692
G1 F3000 E49.5692
G1 F900 Z0.500
G0 F4200 X161.442 Y18.041
G1 F900 Z0.200
G1 F1500 E54.5692
G1 F600 X153.508 Y10.107 E54.9797
G1 F3000 E49.9797
G1 F900 Z0.500
G0 F4200 X154.155 Y10.188
G1 F900 Z0.200
G1 F1500 E54.9797
G1 F600 X161.361 Y17.394 E55.3526
G1 F3000 E50.3526
G1 F900 Z0.500
G0 F4200 X161.113 Y16.580
G1 F900 Z0.200
G1 F1500 E55.3526
G1 F600 X154.968 Y10.436 E55.6705
G1 F3000 E50.6705
G1 F900 Z0.500
G0 F4200 X155.781 Y10.683
G1 F900 Z0.200
G1 F1500 E55.6705
G1 F600 X160.866 Y15.767 E55.9336
G1 F3000 E50.9336
G1 F900 Z0.500
G0 F4200 X160.234 Y14.570
G1 F900 Z0.200
G1 F1500 E55.9336
G1 F600 X156.979 Y11.315 E56.1020
G1 F3000 E51.1020
G1 F900 Z0.500
G0 F4200 X148.149 Y25.112
G1 F900 Z0.200
G1 F1500 E56.1020
G1 F600 X151.588 Y28.551 E56.2799
G1 F3000 E51.2799
G1 F900 Z0.500
G0 F4200 X150.960 Y28.490
G1 F900 Z0.200
G1 F1500 E56.2799
G1 F600 X148.149 Y25.678 E56.4254
G0 F4200 X148.149 Y26.244
G1 F600 X150.304 Y28.398 E56.5369
G1 F3000 E51.5369
G1 F900 Z0.500
G0 F4200 X149.492 Y28.152
G1 F900 Z0.200
G1 F1500 E56.5369
G1 F600 X148.149 Y26.809 E56.6064
G0 F4200 X148.149 Y27.375
G1 F600 X148.677 Y27.903 E56.6337
G1 F3000 E51.6337
G1 F900 Z0.500
G0 F4200 X143.033 Y123.866
;TYPE:WALL-INNER
;WIDTH:0.400
G1 F900 Z0.200
G1 F1500 E56.6337
G1 F600 X143.568 Y122.104 E56.7010
G1 X143.880 Y121.520 E56.7253
G1 X146.995 Y121.520 E56.8392
G1 X147.268 Y121.479 E56.8493
G1 X147.558 Y121.345 E56.8610
G1 X147.759 Y121.183 E56.8705
G1 X147.946 Y120.921 E56.8822
G1 X148.061 Y120.610 E56.8944
G1 X148.069 Y117.331 E57.0143
G1 X148.654 Y117.018 E57.0386
G1 X150.416 Y116.483 E57.1060
G1 X152.250 Y116.303 E57.1734
G1 X154.084 Y116.483 E57.2408
G1 X155.846 Y117.018 E57.3082
G1 X157.471 Y117.886 E57.3756
G1 X158.895 Y119.055 E57.4430
G1 X160.064 Y120.479 E57.5104
G1 X160.932 Y122.104 E57.5778
G1 X161.467 Y123.866 E57.6452
G1 X161.647 Y125.700 E57.7126
G1 X161.467 Y127.534 E57.7800
G1 X160.932 Y129.296 E57.8474
G1 X160.064 Y130.921 E57.9148
G1 X158.895 Y132.345 E57.9822
G1 X157.471 Y133.514 E58.0496
G1 X155.846 Y134.382 E58.1170
G1 X154.084 Y134.917 E58.1844
G1 X152.250 Y135.097 E58.2518
G1 X150.416 Y134.917 E58.3192
G1 X148.654 Y134.382 E58.3866
G1 X147.029 Y133.514 E58.4540
G1 X145.605 Y132.345 E58.5214
G1 X144.436 Y130.921 E58.5888
G1 X143.568 Y129.296 E58.6562
G1 X143.033 Y127.534 E58.7236
G1 X142.853 Y125.700 E58.7910
G1 X142.985 Y124.363 E58.8402
G0 F600 X143.033 Y123.866
G1 F3000 E53.8402
G0 F4200 X142.639 Y123.788
;TYPE:WALL-OUTER
;WIDTH:0.400
G1 F900 Z0.200
G1 F1500 E58.8402
G1 F600 X143.197 Y121.950 E58.9104
G1 X143.640 Y121.120 E58.9449
G1 X146.965 Y121.120 E59.0665
G1 X147.152 Y121.092 E59.0734
G1 X147.345 Y121.003 E59.0812
G1 X147.465 Y120.906 E59.0869
G1 X147.589 Y120.732 E59.0947
G1 X147.661 Y120.538 E59.1022
G1 X147.670 Y117.091 E59.2284
G1 X148.500 Y116.647 E59.2628
G1 X150.338 Y116.089 E59.3331
G1 X152.250 Y115.901 E59.4034
G1 X154.162 Y116.089 E59.4736
G1 X156.000 Y116.647 E59.5439
G1 X157.694 Y117.552 E59.6142
G1 X159.179 Y118.771 E59.6845
G1 X160.398 Y120.256 E59.7548
G1 X161.303 Y121.950 E59.8250
G1 X161.861 Y123.788 E59.8953
G1 X162.049 Y125.700 E59.9656
G1 X161.861 Y127.612 E60.0359
G1 X161.303 Y129.450 E60.1062
G1 X160.398 Y131.144 E60.1764
G1 X159.179 Y132.629 E60.2467
G1 X157.694 Y133.848 E60.3170
G1 X156.000 Y134.753 E60.3873
G1 X154.162 Y135.311 E60.4576
G1 X152.250 Y135.499 E60.5279
G1 X150.338 Y135.311 E60.5981
G1 X148.500 Y134.753 E60.6684
G1 X146.806 Y133.848 E60.7387
G1 X145.321 Y132.629 E60.8090
G1 X144.102 Y131.144 E60.8793
G1 X143.197 Y129.450 E60.9495
G1 X142.639 Y127.612 E61.0198
G1 X142.451 Y125.700 E61.0901
G1 X142.591 Y124.285 E61.1421
G0 F600 X142.639 Y123.788
G1 F3000 E56.1421
G0 F4200 X144.234 Y130.375
;TYPE:SOLID-FILL
;WIDTH:0.400
G1 F900 Z0.200
G1 F1500 E61.1421
G1 F600 X147.573 Y133.713 E61.3149
G1 F3000 E56.3149
G1 F900 Z0.500
G0 F4200 X148.752 Y134.327
G1 F900 Z0.200
G1 F1500 E61.3149
G1 F600 X143.621 Y129.196 E61.5803
G1 F3000 E56.5803
G1 F900 Z0.500
G0 F4200 X143.373 Y128.383
G1 F900 Z0.200
G1 F1500 E61.5803
G1 F600 X149.565 Y134.575 E61.9007
G1 F3000 E56.9007
G1 F900 Z0.500
G0 F4200 X150.378 Y134.822
G1 F900 Z0.200
G1 F1500 E61.9007
G1 F600 X143.126 Y127.569 E62.2760
G1 F3000 E57.2760
G1 F900 Z0.500
G0 F4200 X143.053 Y126.931
G1 F900 Z0.200
G1 F1500 E62.2760
G1 F600 X151.017 Y134.895 E62.6880
G1 F3000 E57.6880
G1 F900 Z0.500
G0 F4200 X151.645 Y134.957
G1 F900 Z0.200
G1 F1500 E62.6880
G1 F600 X142.991 Y126.303 E63.1358
G1 F3000 E58.1358
G1 F900 Z0.500
G0 F4200 X142.933 Y125.680
G1 F900 Z0.200
G1 F1500 E63.1358
G1 F600 X152.268 Y135.014 E63.6188
G0 F4200 X152.783 Y134.964
G1 F600 X142.984 Y125.165 E64.1258
G0 F4200 X143.034 Y124.650
G1 F600 X153.298 Y134.913 E64.6568
G0 F4200 X153.813 Y134.862
G1 F600 X143.085 Y124.135 E65.2119
G0 F4200 X143.177 Y123.661
G1 F600 X154.287 Y134.771 E65.7867
G0 F4200 X154.721 Y134.639
G1 F600 X143.309 Y123.227 E66.3772
G0 F4200 X143.441 Y122.794
G1 F600 X155.154 Y134.507 E66.9832
G0 F4200 X155.588 Y134.375
G1 F600 X143.573 Y122.359 E67.6049
G0 F4200 X143.736 Y121.957
G1 F600 X155.991 Y134.212 E68.2390
G0 F4200 X156.359 Y134.015
G1 F600 X143.945 Y121.600 E68.8813
G0 F4200 X144.510 Y121.600
G1 F600 X156.728 Y133.818 E69.5135
G0 F4200 X157.097 Y133.621
G1 F600 X145.076 Y121.600 E70.1354
G0 F4200 X145.642 Y121.600
G1 F600 X157.459 Y133.418 E70.7469
G0 F4200 X157.770 Y133.163
G1 F600 X146.207 Y121.600 E71.3452
G0 F4200 X146.773 Y121.600
G1 F600 X158.081 Y132.908 E71.9303
G0 F4200 X158.391 Y132.653
G1 F600 X147.294 Y121.555 E72.5044
G0 F4200 X147.665 Y121.360
G1 F600 X158.702 Y132.397 E73.0755
G0 F4200 X158.982 Y132.112
G1 F600 X147.938 Y121.067 E73.6470
G0 F4200 X148.118 Y120.682
G1 F600 X159.237 Y131.801 E74.2223
G0 F4200 X159.492 Y131.490
G1 F600 X148.140 Y120.139 E74.8096
G0 F4200 X148.142 Y119.575
G1 F600 X159.747 Y131.180 E75.4100
G0 F4200 X160.001 Y130.868
G1 F600 X148.143 Y119.011 E76.0236
G0 F4200 X148.145 Y118.446
G1 F600 X160.197 Y130.499 E76.6472
G0 F4200 X160.395 Y130.130
G1 F600 X148.146 Y117.882 E77.2809
G0 F4200 X148.188 Y117.358
G1 F600 X160.591 Y129.761 E77.9226
G0 F4200 X160.788 Y129.392
G1 F600 X148.556 Y117.161 E78.5555
G0 F4200 X148.968 Y117.007
G1 F600 X160.943 Y128.981 E79.1751
G0 F4200 X161.074 Y128.547
G1 F600 X149.402 Y116.875 E79.7790
G0 F4200 X149.835 Y116.743
G1 F600 X161.206 Y128.114 E80.3673
G0 F4200 X161.338 Y127.680
G1 F600 X150.270 Y116.611 E80.9400
G0 F4200 X150.754 Y116.530
G1 F600 X161.419 Y127.195 E81.4918
G0 F4200 X161.469 Y126.680
G1 F600 X151.269 Y116.480 E82.0196
G0 F4200 X151.784 Y116.429
G1 F600 X161.520 Y126.165 E82.5233
G0 F4200 X161.560 Y125.639
G1 F600 X152.310 Y116.389 E83.0019
G1 F3000 E78.0019
G1 F900 Z0.500
G0 F4200 X152.938 Y116.451
G1 F900 Z0.200
G1 F1500 E83.0019
G1 F600 X161.498 Y125.012 E83.4449
G1 F3000 E78.4449
G1 F900 Z0.500
G0 F4200 X161.437 Y124.385
G1 F900 Z0.200
G1 F1500 E83.4449
G1 F600 X153.565 Y116.512 E83.8522
G1 F3000 E78.8522
G1 F900 Z0.500
G0 F4200 X154.229 Y116.611
G1 F900 Z0.200
G1 F1500 E83.8522
G1 F600 X161.338 Y123.720 E84.2200
G1 F3000 E79.2200
G1 F900 Z0.500
G0 F4200 X161.091 Y122.907
G1 F900 Z0.200
G1 F1500 E84.2200
G1 F600 X155.042 Y116.858 E84.5330
G1 F3000 E79.5330
G1 F900 Z0.500
G0 F4200 X155.875 Y117.125
G1 F900 Z0.200
G1 F1500 E84.5330
G1 F600 X160.824 Y122.074 E84.7891
G1 F3000 E79.7891
G1 F900 Z0.500
G0 F4200 X160.176 Y120.861
G1 F900 Z0.200
G1 F1500 E84.7891
G1 F600 X157.088 Y117.773 E84.9488
G1 F3000 E79.9488
G1 F900 Z0.500
G0 F4200 X71.967 Y123.866
;TYPE:WALL-INNER
;WIDTH:0.400
G1 F900 Z0.200
G1 F1500 E84.9488
G1 F600 X72.147 Y125.700 E85.0163
G1 X71.967 Y127.534 E85.0837
G1 X71.432 Y129.296 E85.1511
G1 X70.564 Y130.921 E85.2185
G1 X69.395 Y132.345 E85.2859
G1 X67.971 Y133.514 E85.3533
G1 X66.346 Y134.382 E85.4207
G1 X64.584 Y134.917 E85.4880
G1 X62.750 Y135.097 E85.5555
G1 X60.916 Y134.917 E85.6229
G1 X59.154 Y134.382 E85.6903
G1 X57.529 Y133.514 E85.7577
G1 X56.105 Y132.345 E85.8251
G1 X54.936 Y130.921 E85.8925
G1 X54.068 Y129.296 E85.9599
G1 X53.533 Y127.534 E86.0272
G1 X53.353 Y125.700 E86.0947
G1 X53.533 Y123.866 E86.1621
G1 X54.068 Y122.104 E86.2295
G1 X54.936 Y120.479 E86.2969
G1 X56.105 Y119.055 E86.3643
G1 X57.529 Y117.886 E86.4317
G1 X59.154 Y117.018 E86.4991
G1 X60.916 Y116.483 E86.5664
G1 X62.750 Y116.303 E86.6339
G1 X64.584 Y116.483 E86.7013
G1 X66.346 Y117.018 E86.7687
G1 X66.930 Y117.330 E86.7929
G1 X66.930 Y120.460 E86.9074
G1 X67.005 Y120.832 E86.9213
G1 X67.247 Y121.199 E86.9374
G1 X67.616 Y121.447 E86.9536
G1 X67.993 Y121.520 E86.9677
G1 X71.119 Y121.520 E87.0820
G1 X71.432 Y122.104 E87.1063
G1 X71.822 Y123.388 E87.1554
G0 F600 X71.967 Y123.866
G1 F3000 E82.1554
G0 F4200 X72.361 Y123.788
;TYPE:WALL-OUTER
;WIDTH:0.400
G1 F900 Z0.200
G1 F1500 E87.1554
G1 F600 X72.549 Y125.700 E87.2257
G1 X72.361 Y127.612 E87.2960
G1 X71.803 Y129.450 E87.3662
G1 X70.898 Y131.144 E87.4365
G1 X69.679 Y132.629 E87.5068
G1 X68.194 Y133.848 E87.5771
G1 X66.500 Y134.753 E87.6474
G1 X64.662 Y135.311 E87.7176
G1 X62.750 Y135.499 E87.7879
G1 X60.838 Y135.311 E87.8582
G1 X59.000 Y134.753 E87.9285
G1 X57.306 Y133.848 E87.9988
G1 X55.821 Y132.629 E88.0690
G1 X54.602 Y131.144 E88.1393
G1 X53.697 Y129.450 E88.2096
G1 X53.139 Y127.612 E88.2799
G1 X52.951 Y125.700 E88.3502
G1 X53.139 Y123.788 E88.4205
G1 X53.697 Y121.950 E88.4907
G1 X54.602 Y120.256 E88.5610
G1 X55.821 Y118.771 E88.6313
G1 X57.306 Y117.552 E88.7016
G1 X59.000 Y116.647 E88.7718
G1 X60.838 Y116.089 E88.8421
G1 X62.750 Y115.901 E88.9124
G1 X64.662 Y116.089 E88.9827
G1 X66.500 Y116.647 E89.0530
G1 X67.330 Y117.090 E89.0874
G1 X67.330 Y120.420 E89.2092
G1 X67.382 Y120.677 E89.2188
G1 X67.537 Y120.912 E89.2291
G1 X67.772 Y121.070 E89.2395
G1 X68.031 Y121.120 E89.2491
G1 X71.359 Y121.120 E89.3709
G1 X71.803 Y121.950 E89.4053
G1 X72.216 Y123.310 E89.4573
G0 F600 X72.361 Y123.788
G1 F3000 E84.4573
G0 F4200 X71.186 Y121.815
;TYPE:SOLID-FILL
;WIDTH:0.400
G1 F900 Z0.200
G1 F1500 E89.4573
G1 F600 X70.970 Y121.599 E89.4685
G0 F4200 X70.405 Y121.599
G1 F600 X71.539 Y122.733 E89.5272
G1 F3000 E84.5272
G1 F900 Z0.500
G0 F4200 X71.786 Y123.547
G1 F900 Z0.200
G1 F1500 E89.5272
G1 F600 X69.839 Y121.599 E89.6280
G0 F4200 X69.273 Y121.599
G1 F600 X71.924 Y124.250 E89.7651
G1 F3000 E84.7651
G1 F900 Z0.500
G0 F4200 X71.986 Y124.877
G1 F900 Z0.200
G1 F1500 E89.7651
G1 F600 X68.708 Y121.599 E89.9347
G0 F4200 X68.142 Y121.599
G1 F600 X72.047 Y125.505 E90.1368
G0 F4200 X72.032 Y126.055
G1 F600 X67.322 Y121.345 E90.3805
G0 F4200 X67.103 Y121.126
G1 F600 X62.395 Y116.418 E90.6241
G0 F4200 X61.880 Y116.468
G1 F600 X71.981 Y126.569 E91.1467
G0 F4200 X71.931 Y127.085
G1 F600 X61.364 Y116.519 E91.6934
G0 F4200 X60.862 Y116.582
G1 F600 X71.867 Y127.587 E92.2628
G0 F4200 X71.735 Y128.021
G1 F600 X60.428 Y116.714 E92.8479
G0 F4200 X59.995 Y116.846
G1 F600 X71.603 Y128.455 E93.4485
G0 F4200 X71.471 Y128.888
G1 F600 X59.561 Y116.978 E94.0647
G0 F4200 X59.136 Y117.118
G1 F600 X71.331 Y129.314 E94.6957
G0 F4200 X71.134 Y129.682
G1 F600 X58.767 Y117.316 E95.3356
G0 F4200 X58.398 Y117.512
G1 F600 X70.937 Y130.051 E95.9844
G0 F4200 X70.740 Y130.420
G1 F600 X58.030 Y117.709 E96.6420
G0 F4200 X57.661 Y117.906
G1 F600 X70.543 Y130.789 E97.3086
G0 F4200 X70.302 Y131.113
G1 F600 X57.336 Y118.147 E97.9794
G0 F4200 X57.026 Y118.402
G1 F600 X70.047 Y131.424 E98.6532
G0 F4200 X69.792 Y131.734
G1 F600 X56.715 Y118.658 E99.3298
G0 F4200 X56.404 Y118.912
G1 F600 X69.537 Y132.045 E100.0093
G0 F4200 X69.269 Y132.343
G1 F600 X56.105 Y119.179 E100.6904
G0 F4200 X55.850 Y119.490
G1 F600 X68.958 Y132.598 E101.3686
G0 F4200 X68.648 Y132.853
G1 F600 X55.595 Y119.800 E102.0440
G0 F4200 X55.340 Y120.111
G1 F600 X68.337 Y133.108 E102.7164
G0 F4200 X68.026 Y133.363
G1 F600 X55.085 Y120.422 E103.3860
G0 F4200 X54.870 Y120.772
G1 F600 X67.676 Y133.578 E104.0486
G0 F4200 X67.308 Y133.776
G1 F600 X54.672 Y121.140 E104.7024
G0 F4200 X54.476 Y121.509
G1 F600 X66.938 Y133.972 E105.3472
G0 F4200 X66.570 Y134.169
G1 F600 X54.278 Y121.878 E105.9832
G0 F4200 X54.102 Y122.267
G1 F600 X66.181 Y134.346 E106.6082
G0 F4200 X65.747 Y134.478
G1 F600 X53.970 Y122.701 E107.2175
G0 F4200 X53.838 Y123.134
G1 F600 X65.314 Y134.610 E107.8113
G0 F4200 X64.880 Y134.742
G1 F600 X53.706 Y123.568 E108.3894
G0 F4200 X53.597 Y124.025
G1 F600 X64.423 Y134.851 E108.9496
G0 F4200 X63.908 Y134.901
G1 F600 X53.547 Y124.540 E109.4857
G0 F4200 X53.496 Y125.055
G1 F600 X63.393 Y134.952 E109.9977
G0 F4200 X62.878 Y135.003
G1 F600 X53.445 Y125.570 E110.4858
G0 F4200 X53.479 Y126.169
G1 F600 X62.279 Y134.969 E110.9411
G1 F3000 E105.9411
G1 F900 Z0.500
G0 F4200 X61.651 Y134.908
G1 F900 Z0.200
G1 F1500 E110.9411
G1 F600 X53.540 Y126.796 E111.3608
G1 F3000 E106.3608
G1 F900 Z0.500
G0 F4200 X53.601 Y127.423
G1 F900 Z0.200
G1 F1500 E111.3608
G1 F600 X61.024 Y134.846 E111.7449
G1 F3000 E106.7449
G1 F900 Z0.500
G0 F4200 X60.239 Y134.626
G1 F900 Z0.200
G1 F1500 E111.7449
G1 F600 X53.821 Y128.209 E112.0769
G1 F3000 E107.0769
G1 F900 Z0.500
G0 F4200 X54.068 Y129.022
G1 F900 Z0.200
G1 F1500 E112.0769
G1 F600 X59.426 Y134.379 E112.3541
G1 F3000 E107.3541
G1 F900 Z0.500
G0 F4200 X58.332 Y133.851
G1 F900 Z0.200
G1 F1500 E112.3541
G1 F600 X54.597 Y130.116 E112.5474
G1 F3000 E107.5474
G1 F900 Z0.500
G0 F4200 X55.973 Y132.058
G1 F900 Z0.200
G1 F1500 E112.5474
G1 F600 X56.390 Y132.475 E112.5690
G1 F3000 E107.5690
G1 F900 Z0.500
G0 F4200 X66.849 Y120.307
G1 F900 Z0.200
G1 F1500 E112.5690
G1 F600 X62.944 Y116.401 E112.7710
G1 F3000 E107.7710
G1 F900 Z0.500
G0 F4200 X63.571 Y116.463
G1 F900 Z0.200
G1 F1500 E112.7710
G1 F600 X66.849 Y119.741 E112.9406
G0 F4200 X66.849 Y119.175
G1 F600 X64.198 Y116.524 E113.0778
G1 F3000 E108.0778
G1 F900 Z0.500
G0 F4200 X64.902 Y116.662
G1 F900 Z0.200
G1 F1500 E113.0778
G1 F600 X66.849 Y118.610 E113.1786
G0 F4200 X66.849 Y118.044
G1 F600 X65.715 Y116.910 E113.2373
G1 F3000 E108.2373
G1 F900 Z0.500
G0 F4200 X66.632 Y117.261
G1 F900 Z0.200
G1 F1500 E113.2373
G1 F600 X66.849 Y117.478 E113.2485
M106 S0
G0 F900 Z5.200
G0 F4200 X66.849 Y117.478
M221 T0 S100
G92 E0
M1002
M104 T0 S0
G91 ;Relative positioning
G1 E-2 F2700 ;Retract a bit
G1 E-2 Z0.2 F2400 ;Retract and raise Z
G1 X5 Y5 F3000 ;Wipe out
G1 Z50 ;Raise Z more
G90 ;Absolute positionning
G1 X0 Y220 ;Present print
M106 S0 ;Turn-off fan
M104 S0 ;Turn-off hotend
M140 S0 ;Turn-off bed
M84 X Y E ;Disable all steppers but Z
;Data start:52404:e5b416241209feb543441577bb591f71
;SURFQSAtIFBSSU5UREFUQUlZDHzi6E17riyBkcQfrmdXNVk3TpZ8P/306NVJSnsUVzRAPfSj9H1L9R8
;ermQEiLXAPEVt3BVQB6qKujk+FHk1NSw9gaORfcKmHwWuBWeKs888W2naHUsAmoaKLyUPYFpZc0700f
;ccKIMfH64FZ+vQrNB3DLt8P2mUi7YoJh5mVEBFUu/8+BMtj3NyrgRn69CsWTeF6HwnafXotC4pHnhQR
;k1J6Mz/IiKIbHvaWg6FvskrNw2ofD9p9ehcDUpjFDU0TV7ixv0YOYdrd8FrOIK+3zxDU8cJSwyH6NRN
;SnsUNTSlfYGxkX1Lh3x9y2kCmbHYMFhi9wxNAJuc1UxKexQ1NCy0waOBfUvmfn3NYAuOos0tXmPGI0s
;GhejUTUp7FDU0pX2Bu5F9S4d8fctpApmx2DBYYvcIUBmqm6A/LBp3UDQtPYGjkX1Lb18evQVn67HPOl
;JgzQ5eHZyHuxI+CXVDUUA9gKORfUvmb4nuBU7r0Kw4QWPBGGAdh4mjKCYkfFpYSU7e0/AJI7lyf9ZaC
;46+yy1fU84dXB2amtVMSnsUNTQsVMGjuH1L5n5owWwDtKTeOEFpxCNXBpmNphI6GmBda0Fc+fz/EhSU
;emrcZASfucM3Nw2ofD9p9ejVTUpoFDU0TUXo0M4eJItve8B2Bp+5wzdodKh9P2n16NVNEzsUJjQsPeD
;b+A4UhXBz3mAJmLHYMFhi9wU/aPXo1U1Ke011ND49gaPzEj+ScHPxaQaStd4GRHzNGVtp9OjVTUp7FB
;F0LC2Bo5EfJJJrccNaE4O5zzJZadsPP2hvcUzU0+LdCjQyPYGj8w8ignh3wGI4jqjYK0J/wRNRNoKBs
;TkiJGZUQEVSgaKRfUvmH57PRWf50KxZVX7BGFgAm4+KKysVS0ZESVjlo5B9S+YfHq5cJ+vErFk3btoV
;Ww6chrISLBJsUFBzXO/E/RhL5x8ergVnC7DsWS4MqHxdG5yMsiQkHEtTWENc9cb1IiqUen/xaA6F0K1
;ZNwyofD9dtejETUp7dkddSFrozfYiLYpwadxkE47QrVk3DKh8PzC16M1NSnt2R11IWujN9iI4jnpywn
;Y4jbzDLkVt3Bk/aPXo1U1Ke011NDk9gaPzDyKCeHfAYjiYuMk1W3/3D08MkIzVTEp7FDU0LAPBo599S
;+Z9bMdhAIK+ywZEfM0ZW2n06NVNSnsUEXQsHIGjkR85j3t5x2sAtKPZKUdj2ghaDaqJpygrJGZUQEVS
;3s7wBUvnHx6uBWfrmexZOAyofF0bnIWKISMVcWpXQ0jv15F8S+YfHq4Fc6vQvlk3DMsTXhqBgbsqFR9
;9RkBNU+LGoH1K5h8ergVnC++sSzcMqB9QCIacvCMtJHBcR1hc78D0T0vnHx6uBWfrMJNZJgyofFwGmo
;SKICMVS1NRSVnzwuUYS+cfHq4FZ+v07FkkDKh8XAaahIogIxVLWVVVWPP85RQmgx8frgVn69CsTXcMt
;Xw/aZGNuz4vJGdARFxS89fOFCWAdnLCWgiepMAwWWnbfD5p9ejVTUp7FDUpLD2Bx/QTOINAbdt1F4Si
;2AZeYsYZTTaQkKUsJAh9WlosPBs6COTSf/Yhrh5n69DIPFl/zSNMHIWYuj8+JHhUTUlP8vzzEj+ScHO
;uBGfr0KxZNwyofCxp9eixKCQIcWpHWU3xzOMJFJVve8thZ+rQrFk3DKhCf2ns6NVNLhJ5UFpfVO7Nzg
;UyuXxxw3UChaPNLV5jxnw+afXo1U1KexQ1Kiw9gcf4EC6IbHfBaziTqfM6WGHYGVEalJy8IiQkfFpYS
;T2Ao5F9S+YfHq4FaOvQrDxPeNoJWwyHt7QgJQ56QTQtPYGjkX1LFiAevAVn67XULUV5zBlNNpqOsz4v
;D0tNBSw8gaORfUvmJl6uF2fr0MkhQ37dGFobqoezKzkeYGpMHj2Ao5F9S+YfHq4FdevQrDxPeNoJWwy
;Ht7orLAhxQWtUDoGikX1L5h8ergVn+dCsWVJ03A5KDZCaiiIsHWdQQHNEsKOQfUvmHx6uBWfrwqxZN2
;nQCE0ckY2nEiUdckZRWGL4kZF8S+YfHq4FZ+vQvlk3DM0ESxuAjLA/FRRyU0dJSd7aon1K5h8ergVn6
;9CsajcMqBlHHYedsSg4JGdCXVhe6fzyEiSKdnDJWg+OsdgsR1PJGEkIm4uwEj4eeUVRXlz11uMYeuYe
;Hq4FZ+vQxRk3P6h8PwyNnKc4Lh5makdbVPXA+SIoiXByx2sAtLjJOEN52CNeDYOJuy4vJGBQWVxY88L
;lCDmDLR6vBWfr0KxZXkyoVz9p9Y2tOTgOcFBGc072yuUeI7l8ccFpDoW38zFSbdwJTzaUjKMsJBhxak
;BFUOSjkH1L5h8erkEn686sWTdp0AhNHJGNpxI5DH1BV0Ri4sz+ESKIeEHeZBWAj9RZNgyofD9pdaqVT
;VR7FDVRVEnz1vUYOblsacdxBIOPzzZYYMESWDaFiacmFQIUNDQsPYGjoRYL5jsergUCk6TeLFNp2iNM
;HpyctiUVGHtaWEVT5vzlGCaWemzPcRKZtZ1ZNgyofD9pdY6VTW57FDVRVEnz1vUYOblsacdxBIOPzzZ
;YYMESWDaBjbg9Lwl1QUFeWLOjkH1L5h8eLmMn6/WsWTdp0AhNHJGNpxI5DH1BV0Ri88biCSqUa0HLfR
;OZsfM4WmPdEktb9enVTUp7FDU0LD2fo5F9Lp5rbNthApmP3y5eeMsUYBuQm6EsOA9LRkRJWOWRkXxL5
;h8ergVTq9COWTcMzQRLG4CMsD8VCGNcQE9V3tH0CTmHfGrHagm0scE2QmLcTj9o9ejVTUp7MHU0DT2B
;o/QFP5Rqest3OJinxS1UZPcOWh2HibY5IxR6akdcWOTHo31K5h8ergVn35CsVjcMqBlHHYedpiQlFUt
;CXUhJ6aOQ59J/hoc33FjrwaxZN2nQCE0choG6IxUMfVFARGKzo5Dn0n+GhzfcWOvDrFk3askSYAuZga
;USOhphRlFzUPLG8n1K5h8ergUnlJCsSzcMqBpeB6qKuSQ6JGBdRklO6cz9GUvnHx6uBWfr7uxZOAyof
;FkIm7ezOCYXS11RRVrp15F8S+YfHq4Fh9TQolk3DM4dUTaTnbkhFRd1TFFePYCjkX1L5h8e7gVu69Cs
;P1Zi9w9PDJCM1UxKexQ1NCxkwaOcfUvmeX/AWhSbtck9aGHJBD9o9ejVTUp7TXU0PT2Bo/cUJ4dye8B
;xOI+5zTRSeM0OP2j16NVNSnvoCjQ+PYGj9xQnh3J7wHE4j7nNNFJ4zQ4NafTo1U1KexTJCywvgaORGy
;KKfnPLaxO0tMU4WmncGU1a9enVTUp7FDU0LD2To5F9LY9zf8NgCZ+PyDBWYc0IWhvB6NRNSnsUNTQsP
;YGukX1LgHZyz2gChaTzP1tj33w+afXo1U1KIlQ1Oiw9gcX4ESqLenDaWgGHv9toNw2ofD9p9eiMDUp1
;FDU0SlTtwvwYJZJAeMJqENnQrVk3DKh8vz+16NhNSntyXFhNUOTN5SI/n297rgRn69CsWTcM6HwxafX
;osyQmGnlQWlhi9drhGHnmHh6uBWfr0KwZNwCofD8PnIS5Ei4eekZdWESBopF9S+YfHrpFZ+fQrFlRZc
;QQYAaDjachKwsUNDQsPYGjkUML5j4ergUBgqLfLWhgyQVaG6qNrTk4DmdcW0Ji9sr1CSO5bX/abAjr0
;axZNwyofGYp9frVTUodfUdHWGLtwugYOblsdstpC5jQrVk3DKh8P2216PtNSntyXEZfSd7P8AQulEBt
;wWkOj4/FN1FlxBBgDI2cpzg5Entba1tU5df5IjmHa3fBBWbr0KxZNwzxPD9x9ejVKyMJZ0FYTUTk0c4
;bIop+c8trE7S2wDZADKl8P2n16FUWCnsHNTQsW+jb9BkUin5ny3c4mKTNK0NT0Hw+afXo1U1KIlQ1Jy
;w9gcX4BS6CQHLPfAKZj98tVn7cI0Zp9OjVTUp7FGt0LB6Bo5EaKpZAeMdpC7SjxTdQYM0jWhGBmqA+I
;xR6akZNSejMzhAqnh8frgVn69CsMHcMi3w/aZKJpRIsEnhZa19U78T9GBSDZ2rccBSCv8IGRW3cFVA2
;mIG7TUt7FDU0LL3B45FiS+Yfec91OI25wDVof8ESWAWQt7A1PglhRl1DU97Q4Rgugh8frgVn69CsHXc
;Mpnw/aZKJpRIsEnhZa19N5Mb1fUrmHx6uBWeikKxJNwyoG1wGkY2KOTMLcWpdQlnk25F8S+YfHq4FZ+
;vQo1k3DM8QUAuUhIoiLB1nUEBzRYGikX1L5h8ergVn5NCsWVBgxx5eBaqHsys5HmBqTSw8gaORfUvmH
;x6uCmfr0Ms1WG7JEGAGk46mKD4kbjU1LD2Bo5F9S+YfC64FZ4O1zS1CfPcbXAaRjYo+LwphUFpPWIGi
;kX1L5h8ergVny9CsWV5izhVTBaqJsSw6D31DUXNU78X4ESe5bX/abAi0vc0hNw2ofD9p9ejrDUpbFDU
;0RVPnyv0RFId7f95xDp218zBZasEQUzaHiaEkJSR5XFosPIGjkX1L5gterhpn69DFN1FlxBBgCJGJpT
;kjDXFqXUJT5NHOGDOWfnDdbAiF0K3DrpUx5aaAyujDTUp7fVtSRVHt/PAZKpZrd9hgOIex1TxFf6h9P
;2n16NVNXjsULzQsPejN9xQnikB/ymQXn7naPGh+zRhKCoGBuiM5exU1NCw9gaORPUv/Hx6ubAmNucA1
;aG3MHU8dnJ6wEj0ScEFcc1DozZF8S+YfHq4Fb6vQsFk3DMESWQCZhIooMg9mQEdFUu/85hQvkndB3GQ
;Tgr+sWDcMqHw/aayo1VlKexRcWkpU7c/OGyKKfnPLaxO0tsA2QAypfD9p9ejVFAp7GzU0LFTvxfgRJ7
;lweMh2Ap+P1Fk2DKh8P2n16NVNRXsUNV1CW+jP/SIkgHlty3E4ktCtWTcMqHw/afXo2E1Ke31bUkVR7
;fziFS6Kc22uBGfr0KxZNwyofCNp9ei8IywSeFlrX03g0eIYFIVwc8xsCY6PwDhOadoPP2j16NVNSnvk
;CjQgPYGj+BMtj3Ny8XYXjrXIWTYMqHw/aXWulU1GexQ1XUJO5NehIjiWenvKBWbr0KxZN4zuPD9l9ej
;VJCQIcUFMc07xxvQZS+cfHq4FZ2uW7FknDKh8VhuahrwjLSRyWVtbT+DX9H1K5h8ergVn/5CsVDcMqB
;VNBpuBuyoVCGRQUUg9gKORfUvmHzruBWzr0KwzUn7DI10GgZy6IEp6FDU0LD2Bt9F9WOYfHsRgFYCPz
;jZDeMcRYBqAmrMsKR4UNDQsPYGjkWkL5hQergUNjqLHBl5izhVTBfXp1U1KexQ1IGw9kaORfSGDbXXx
;bAmYtdgGXmLGGU1p9OjVTUp7FCF0LC2Bo5EXLpR0QcdrFI6k8zZCeM0OP2j16NVNSnscdTQmPYGj+xg
;5jUBu3GwJn9CtWTcMqHw/abXo3U1Ke35QRkdi9czhfUrmHx6uBWf/kKxJNwyoFlobnrehIjokZ0BGSl
;zixpF8S+YfHq4Fc6vQp1k3DMIZTQKqnKcsPB54NTVKW+fF9xtBph8SrgVnh7HVPEVTwBlWDp2c1UzQ4
;o2srbX0vqO3fUvmc3/XYBW0uMkwUGTcI14NlJihJDweS1hVVGLpxvgaI5JAbM9xDoTQrVk3DKh8Pye1
;6PNNSnt4VE1JT97L9BQsjmtBz2EGm6TFL1JTxRVRNp2NvCoiD0tHVVhU7qOQfUvmHx6uPCfr86xZN2D
;JBVobqoCwJC0TYGpVSFzx1/gLLrlsf8N1C4K+ywZEeM0MP2iO/HsKqwGQCjQHPYGj/Rwyg21BxmAOjL
;jYBlZoyQxLAIONij4+HmRaQklP3sH+CT+JckHcZBOCv6xYNwyofD9pvKjVZUp7FFlVVVjz/PkYIoF3a
;vFkA4qg2DBBafcPSwyFh6MoOCRgWkRzT+DX+BJL5x8ergVn65nsWSAMqHxTCIyNpxInHmZSUXNe7czi
;GBSAfn3Ldmfq0KxZNwyofD9p7ejVTSYabVBGc07kxPwYJZJAcstrAJ+48zReYqh9xRefVKHewkQUITQ
;sPe3C6Bg5uWx2y2kLmI/DL1J+xB1PafTo1U1KexR8dCwogaORESqfemzxdhOKotgpWGXGCGAdjJiwTU
;t7FDU0LD2J45F2S+YfcMF/HYe18ypeds18Pmn16HXU06IrNTssPYHM8xcuhWtBzWAJn7XeBk8MqXw/a
;fXo1b31exs1NCxS48n0Hj+5fHvAcQKZj9VZNgyofD9p9RhqTUF7FDVbTlfkwOUiOI9xda4EZ+vQrFk3
;DKh8Lmn16LoiMB5LRlxFWO3HzhwlgXN7rgRn69CsWTcy6HwpafXouiIwHktGXEVY7cfOESKIekHNahK
;FpKxYNwyofD9pBdfVX0p7FFpbVlje0PkULop7QcFjAZi12Fk2DKh8P2n14JVNX3sUNVtaWPPL8BMsuW
;x2y2kLmI/NN1BgzXw+afXo1U1KRVQ1LSw9gcznGDmOfnDJWhSDtcA1RFPOHVE2hpiwKC57FTU0LD2Bo
;8g9S/4fHq5qEY6ixDhZa/cPVwyZhKYSLBd7QkZNSeSjkH1L5h8erlEn68WsWTdj3hlNAZSGshI5E3FZ
;WF9i8tP0GC/mHh6uBWfr0IgZNwCofD8Gg42nISsLS1FBTVGBogvk0n+Gh2c6Z/7QrFlHfsESSzaXjbE
;SPh55RVFeXPXW4xhL5x8ergVna4HsWTwMqHxPG5yGoRI5C3FQUCw8gaORfUtmWV6uFGfr0NwrXmLcI0
;sMmJiwPysPYUdRLDyBo5F9S6Z1Xq4XZ+vQ3CteYtwjSwyYmLA/Kw9hR1EePYCjkX1L5h937gV169CsK
;UVlxghgHZCFpSg4GmBARkkOgaKRfUvmHx6uBWf50KxZR37BEks2gY24PS8JdUFBXli1o5B9S+YfHq4F
;Z+vbrFk3fskaSzaUgacqKwsUNK61pBg6CLR05gAergUVirbYBlVt2xlgDI2cpzg5Entba1tU5df5Ijm
;Ha3fBBWbr0KxZNwzBPD9/9ejVPysdYGpWTU7k/PgTLY9zcvFkCYy8yVk2DKh8P2n16NVNXHsUNUZNW/
;X88xw4g0B3wGMOh7zzK1Z4wRM/aPXo1U1K+1R1NDw9gaPjHC2SQHzPdgK0vM0gUn7bfD5p9ejVTUp7V
;DUnLD2B0fAbP7l9f91gOIe5wjxAZcwIV2n0ckzU0+KN3AssMoGjkQ8qgGtBzGQUjo/fKVJpzHw+afXo
;1U1KW1Q1Jyw9gdHwGz+5fX/dYDifuMU6XGLND0xp9OjVTUp7FNULLBmBo5EPKoBrQcdrE46iyjhUafc
;ZRx2HnaYkJRVLQl1ISen84xw/j3AerwVn69CsmVVMqGc/afWatCs+JH1bQElP58LyGBSPcXjHaQu0sc
;I+W2mofT9p9ejVzRw7FC40LD3zwvcJFI9xast3AYqzyQZeYs4VUwWqmrQ5IxQUNDQsPYGjkTQL5goer
;gUVirbYBl5i3BlND5SLsBImGm1QRl89gKORfUvmH+6RBX/r0KwrVmrcI1YHgY2nKysYcWpYRVPk1PgZ
;P44fH502VNjjn7oIDL58P2mHibM5FRJ6QVFeW+DA9CI4ln59x2sA69GsWTcMqHzPVvX81U1KCXVTQHN
;U79f0Dy2HfHvxdheOtchZNgyofD9p9daVTVJ7FDVGTVv1/PgTP4NteM9mArSkxDBUZ8YZTBr16Yf1VP
;7/ZOwTPZCjkX05h3lq8WkOhbXzKkdtyxVRDvXp1U1KexQ1PGw9iqORfTmHeWrxaAaZt8U3Nw2ofD9p9
;ejBDUpUFDU0Xlzn184SPYNtbMdhArS2xStEePcQXhCQmoooMg9mQEdFUu/85hQvkndB3GQTgr+sWDcM
;qHw/aayo1VBKexRHVUpJ3sznGDmUdnrLWgCHv844W1PHGlkakJyKN0p6jqyttaQYai59aeYfHtxkAZ+
;P3yxFaskfWjaQkKE/Pwh9WlpzSujH5RUUlH5qx2pn6tCsWTcMqCV/aePo1U04GnJBa19I88XwHi65eX
;fCaTiZsdg8Nw2ofD9p9aiADUpuFDU0Xlzn184OPpR5f81gOI28wy5FbdwZP2j16NVNSvtydTQ1PYGj4
;xwtkkBt23cBirPJBl5izhVTBaqJuyomHhQ0NCw9gaORQwvmDB6uBRWKttgGRHnaGl4KkLe5LDMeZkY0
;LT2Bo5F9S+ZfHrgFZ+uizT9DU9sJTQ+Ui7ASJhJ6UENFWfXLkXzRf4aHN5y+1NC4WTcM2h1ZHaqboD8
;sGndQa19N4MD4EyzmHhR5phfW2ntmNx6ofD8blI6hEjkOZlNVT1je0OEYLoIfH64FZ+vQrBd3DL58P2
;mHibM5FQhhR1JNXuT85RUihXRwy3YU69GFBbjOXVTzVvX61U1KCXFGQE1P9fz1CCqKQG3eYAKP0K1ZN
;wyofD9dtejBTUp7ZlBHWFzz184YM5Jtf/FkCoSlwi03Dah8P2n16NVNSm0UNTReWPLX8A8/uXpm2ncG
;tLHBNkJi3CMNafTo1U1KexQ1NCwkgaORDy6Va3/ccTiOqNgrVlPMCV4Fqom4Ij8VYDU1LD2Bo5F9S+Y
;fE64FZ5m13y1WftwjTBmQjbFNS3sUNTQsPbjjkXJL5h9sy3YTiqLYBkR8zRlbNsfo1E1KexQ1NBV9gb
;KRfUuUemrcZASfucM3aG3FE0oHgejUTUp7FDU0OH2BsJF9S5R6atxkBJ+5wzdobcUTSgeBt+dNS3sUN
;TQsPZXjkWtL5h9sy3EVirPYMFhi9xhKCJm3tCAlDnpBNC09gaORfUvCXx67BWfrosktRW3LCFYGm7ex
;OCsXS0ZESVjlo5B9S+YfHq4xJ+v3rFk3fs0ITQiWnLwiJCRxW1VOUeT8/gg/lXZ6y1oFhKTYNlpTxB1
;GDIeb1UxKexQ1NCw9waO1fUvmbXvadwaIpMU2WVPNEl4LmY2KIj8PZ1xQSWL1zOEiJ4dme9x2Z+rQrF
;k3DKh8f2n76NVNOB5gR1VPSejM/yIjiW8erzZU2OOfauQzqGw/afWasDk4GndBXUNT3sv+DRTUHx+dN
;lTY45+KCAy9fD9ph42hPysYYFxbQmLsyv8iP5R+aMtpZ+rjn2oEP5ufAGni6NVNOB5gR1VPSejM/yIm
;j3FB2ncGnbXABgUMqU8MWsbb5q51ewg1NCxP5NfjHCiSdnHAWgqCvsU0VmD3GUcdh52mJCUVFDRPOJP
;GQuvpdOYBHq4FFY6k3jhUeMETUTaYgbskJxp4alFUSfPW4hQkiEAsrgQc/37ruE2Yl3wvafXopyg+CX
;VWQEVS7/ziDS6Dex6vBWfr0KxZfkyobj9p9ZqwOTgad0FdQ1Pe0OEYLoJALK4EZ+vQrFk3Reh8JWn16
;KcoPgl1VkBFUu/86xUklkB9wWsDgqTFNlk9qH0/afXo1U26RBQvNCw988blDyqFa3fBaziRuMMpaG/H
;ElsAgYG6I3h7FTU0LD2Bo2FCS/UfHq52Aoi/wj1oYMkFWhuqkoohIx1gNTUsPYGjkX1L5h8XrgVnmLv
;FK0NTzx1PafTo1U1KexQ9dCwtgaORDiCPbWrxaQ6FtfM6WHnGCD9o9ejVTUp75Ao0OD2Bo+IWIpRrQc
;NsCYK9zTVoYM0SWB2d6NRNSnsUNfROfYGokX1LlXR33HE4mKDJPFMMqXw/afXo1XkKew41NCxO7czmI
;i+JaHDxYw6Zo9gGUWnfI1MIjI2nPkp6FDU0LD2BU659XOYfHt1oBoe88z9SbdwJTQyGt7EkKxZxQVFe
;PYCjkX1L5h867gV769CsKlptxBBgD5CJoTg4HmdqXENR5Pz1FCqLemrLd2fq0KxZNwyoYH9p7ujVTTk
;WdVlYc1vkwuUIOYNsQcdrAYK8wAZFbdwVUGn06NVNSnsUbHQsJ4GjkQ4mh3Ny8WMCiqTZK1J/9w9PDJ
;CMij8rD31aNC09gaORfUuvXx6MBWfro8M1Xmj3HlAdgYe4Ei8DYEdBX1Tuzc4KIoJrdvF3Bp+5w1k2D
;Kh8P2n1sZVNUHsUNUdDUejHzh8kkmtxw1oBgrzNNFJi3CNZBZqf1UxKexQ1NCxkwaODfUvmbHHCbAO0
;ssMtQ2PFI1MIjI2nTUt7FDU0LH0O45FvS+YfbcFpDo+PzjZDeMcRYBqFjbApSnoUNTQsPQHl0X1d5h8
;e3WoLgrTzMFlqwRBTNpCQpSwkCH1aWiw8gaORfUvmHx6uFmfr0N82W2XMI1YHk4G5IRUIfFBYQE6Bop
;F9S+YfHq4FZ/3QrFlEY8QVWzachrMkJhdLQl1ISen8/BQl5h4ergVn69CsWTcZqHw/GpqEvCkVF3VMU
;V5i9cv4HiCIem3dBWbY459qBD9LQz929ejVPiUXfVFrWFLx/PQFP5RqbcdqCbSnxT1DZPcOXh2ch9VM
;SnsUNTQsZMGjhn1L5mxxwmwDtKTDKWhqwRBeBJCGoRIsF3tCNC09gaORfUu/Xx6hBWfro8M1Xmj3CFA
;ZqoS0NC8JFDQ0LD2Bo5FlC+YQHq4FFIS8xT1oeMcMYBqFjbApSnoUNTQsPQHl0X1F5h8e3XUSmaPzNF
;Z03xVbHZ3o1E1KexQ1NMwCgYKRfUuVam7eahWfj809VnzcFUkMqoG7KyMXeGpGTUnozM4QKp4fH64FZ
;+vQrB13DIl8P2mGnaU9JQlgalVIXPHX+AsuuXZwyGwLh4/eOENlxyNSAJvo1E1KexQ1NAJ9gYORfUuV
;am7eahWfj809VnzcFUkMqoG7Iy8JS1BMXFzv0PgSJeYehDec/nJJdWY3G6h8PxqAmKUiOA9LVFBNTfX
;K5xgUin5ny3cU69GsWTcMqHwrKfXz1U1KCGFFRENP9fzwGSqWa3fYYDiZtcgsVHjBE1Ea9enVTUp7FD
;UgbD2bo5F9OJNvbsF3E7SxyDhHeMEKWjaCgbE5IiR5XFosPIGjkX1L5hderghn69DfLEd8xw5LNpSGs
;iEvexU1NCw9gWPDPUv1Hx6udhKboMMrQ1PKHUwMqoS0NC8JZzU1LD2Bo5F9u9kfB64FZ5il3ClYftwj
;XQiGjYohKwJxR0dzTvHG9BlL5x8ergVn6+7sWSkMqHxMHIWYuj8+JHdaWkJY4tf4EiW5Z2fxYQ6YpM0
;3VGmofaXwbHFM1PNEFCI0LD3y1uENJJRrQcpgCZi18z9eYMQjTQiBjdVMSnsUNTQsacGjgn1L5mxr3n
;UImaTzPVJi2xlgBZSRsD9KehQ1NCw9gaORfV7mHx7dcBebv94taGrBEF4EkIahEiwXe0I0LT2Bo5F9S
;79fHr8FZ+uj2SlHY9oIYA+chLkSOBpgUDQtPYGjkX1LyF8euQVn66PZKUdj2ghgAJuOvCEmJHtAQEBU
;78bifUrmHx6uBWfr0KxKNwyoD0oZhYenORULfVlYTU/e0PgHLuYeHq4FZ+vQvBk3J6h8PxqAmKUiOA9
;LRllNUe389xEkh2t7yloBjrHYLEVp2yNHEKqNrT0rFWdcW0I9gKORfUvmH+6RBWrr0KwqQnzYE00dqp
;ulKC8fFDQ0LD2BoxE7C+YMHq4FFJ6g3DZFePcERjaRgaY5KxV3UDQtPYGjkX1L5l8eugVn66PZKUdj2
;ghgEYy3sDU6GnpGXUNTgaIL5NJ/hodnOmf50KxZRHnYDFAbgbevEi4SZ0FVQl7ko5BOeNUsLZ3GWOvM
;rFk3f90MTwaHnIo3FRRyU0dJSd7H/goluXN/12AVmNCtWTcMqHw/mcroz01Ke2dARFxS89fOBxSJeXj
;dYBO0pdwGW23RGU0a9enVTUp7FDXEEz2ro5F9OJNteM9mArSjwzVeaPceUB2Bh7gSLwNgR0FfVO7Nzg
;oigmt28XcGn7nDWTYMqHw/afWxlU1XexQ1R1lP58LyGBSVcHLHYTiJv9gtWGH3GlMGgpq0OS97FTU0L
;D2Bo8g9S/0fHq52Epm2zTpSU9sTUwCRt7ciPg97WGtAXPjG4w5L5x8ergVn6yCTWS0MqHxMHIeOtC4v
;JGdaWEVZ3sH+CT+JckHddQKOtKxYNwyofD9psajVakp7FEZBXlvgwPQiOIlzd8paE4Sg8zxPeNoJTAC
;ahoo6Ix9gXWteXPXK/n1K5h8ergVnspCsQzcMqA9KG5OJtigVCHtZXUhi9czhIi2KcGncZBOO0K1ZNw
;yofH8xtejNTUp7Z0BGSlzixs4OJIp2evFxCJuPwDhOadoPP2j16NVNSnvkCjQ7PYGj4gg5gH59y1oUh
;LzFPWh4xwxgGoWNsClKehQ1NCw9gZrRfUTmHx7abQ6Fj9s4W2D3D08MkIzVTEp7FDU0LAPBo4h9S+Zr
;dsdrOJyxwDVoe8EYSwGqmrQ5IxRLWFVUPYCjkX1L5h937gV+69CsLV9lxiNICJmEijojH2Bda15c9cr
;+IiaPcR6vBWfr0KxZDkyobD9p9Zy6PRUZe0FAQ1De0OEYLoIfH64FZ+vQrBd3DKR8P2mBmrQ7LxdLRk
;RJWOWjkH1L5h8eLlQn686sWTd42h1JDJm3rxItGHtRUXNZ6NDlHCWFekHIbAmCo8RZNgyofD9p9fyVT
;Vt7FDVCSU/yyv4TFIp+bdpaAo+52Fk2DKh8P2nKWZVNQXsUNUNNUe384hUuinNtrgRn69CsWTcM6Hwx
;afXooiwmF0tBXEVe6s30DjjmHh6uBcdySUVmNxaofD8enJiwEiUOYFBGc1Tv0PQJFIJ2bdpkCYi1nVk
;2DKh8P2n16NVNUHsUNUNFTeT8/gg/g21Bx2sUjqTzPV5/3B1RCpDa1UxKexQ1NCw9gaOGfUvmaHfeYD
;iEpdg8RVPBEkwMgbemPS8ecAQ0LT2Bo5F9S6hfHrkFZ+unxSlSU8cJSwyHt7wjOR5gakdcWOTHo31K5
;h8ergVnpZCsTDcMqAtWGZC3oSI9HmZqUkVF5MfODSSVZx6vBWfr0KzZfEyoaT9p9Z+8PS8kYFpDSU/e
;xfgFLoJAbsF2HuvRrFk3DKhMVCn1/tVNSgx9RVFzSe7U9A8Uj3F4x2kLtKLNLVIMqXw/afXo1RQKewY
;1NCxK6NP0Ij+JaHvcWgiNtt88Q3SofT9p9ejVTUq7FCc0LD32yuEYFJJwact3OIS2yipSeNF8Pmn16N
;VNSntUNSQsPYHU+A0uuWtx2WAVtKPcPFJoqH0/afXo1U0DOxQkNCw99srhGBSScGnLdzidv8AsWmmof
;T9p9ejVTWQ7FCA0LD32yuEYFJJwact3OJ2/wCxaafcRVgf16dVNSnsUNRBsPZGjkX08j2978XEInLXe
;BkBlzAhXafTo1U1KexQBdCwygaORCiKWekHZZAuHj98pUmnMfD5p9ejVTUoyVDU6LD2B2c4JOYdpe8J
;aFJu1yT03Dah8P2n16PsNSmgUNTRNXuLG/Rg5h2t3wWs4jr7NO1tpqH4/acXo1U0rDXtcUHNJ88LnGC
;e5d3HCYBS0oM0tX1PFHUc2mY27Kj4TS1NVT0nu0c4YJYd9cssFZevQo1k3DMoOVg2SgbsqFR56VFZAW
;IGhkX1S5h8ezHcOj7fFN1BTzh1RNoaYsCguJHFbVU5R5KOTfUv9Hx6uZxWCtMswWWv3GlYRkIyKLCQc
;eFBrSVPgwf0YS+QeHrgFZ+uy3jBTa8ESWDaGgLAhJghLUFpNX+3GkX9L5gUergUFmbnBBlJ03BlNB5S
;Eij4iHnhZR3Nb6NHiCUvkHx68BWfrst4wWlPBEkwAkY2KKCQadllRLD+Bo7J9S+Z8cc92E4K+ywZSYs
;keUwyqgbsrIxd4akdFU+bP9CInj3F7nwVl69CPWTcMyxNeGoGBuyoVHnpUVkBY3sr/GyKKc0HdbAmMv
;MkGW2XGGQ1p9+jVQ0p7FFZbQ1Hey/QcL7lzd8hxZ+nQrE03DKgfUAaZgbsqFR11W2tFU+LR9Bw4gx8c
;rwV869CsOlhjxBVRDqqYpyQkD2dFUUlZ3tD9EjyCcGnABWXq0J9ZNwzMGVEakLemODoLe0dAc1Tvxfg
;RJ7lqbctaC4K+ySpoZcYjVwCSgIopLxVnXEBVYubR+BlL5B4ejAVn67TJN0Rp9w9KGYWHpzkVF3VMUV
;5O3sH+CT+JckHLawaJvMlZNQyobT9p9Y27LCgXcWpDRU3k/OUSPINtHqwFZ/7QrFlSdNwZTQeUhIo+I
;h54WUdzW+jR4glL5B8eiwVn67XULUV5zBlNNoafvDkpE0tWW0NR6M32IimDeXHcYDiYp8UtVGSofj5p
;0+jVTS8DYEdBSFjz/OIKIpJ8dvFmCIS8xTdQU8AZXh2AmIosLg11W1dJPYOjkV1L5h971nEVnrTJK2h
;/3xVLCp23tiIlF31bU3NU78LyCSKQeh6sBGfD0KxZUnTcDkoNkJqKPj0SYFZcc17uzP0UJYFAbs93DL
;S9wy9SU80SXguZjdVPSnswNTQsWPnX4wgvg21B3XIOn7PEBkR4xwxgHpyYsBI9GnhZa1hS9sbjfUnnH
;xGuBWeNscIGVWDBDGAMm4m3IS97FjQ0Pj2Bo/ccJbl8ccFpDoW38zxZbcoQWmn36dVGSnsUU1VCYuTN
;8B8ng3serARn+NCsWVFtxhNZD6qPtiIuHktQWk1f7caRf0rmBh6uBQGCot8taGDJBVobqpu9KCYXZ2p
;RQlzjz/R9SeYfK64FZ4253ipDU8QdRgyHt6YiJhJwal1CW+jP/SIunmts23YOhL7zLl5o3BRgG5ScvC
;IVHnpUVkBYgaGRfWvmHx7IbB+0uMMrRWXKEFo2kJChKCQIfUNRc071yuUeI49xea4HZ+vNrFk3asEEY
;AGamqckKBdxakFCVO7NzhwnikBq13UCtLGsWzYMtXw/aZOBrRIiFGZHXU5R5PzkEyKJcUHPaQu0pNUp
;UlPKfD1p9fXVTUodfU1rRFLz0fgfJ4NAa8BsCIWPwy9SfsQdTxmQjNVPSnsONTQsW+jbzhUklG13zGk
;CtKXfPGhj2BlRNpeBoT5KeRQ1Lyw9gcX9EjyUfmrLWhWOo8ktaGvLE1sMqo27LCgXcTU2LT2Oo5F9LI
;dvQchsC4eP3zFSYMQPP2v06MxNSntzVERzW+jP/SI4j3F5wmA4jqjYK0J/wRNRaffo1VFKexRSV0NZ5
;Pz3FCeDcX/DYDiNv940Vnj3GVEIl4SwTUh7FC40LD3ozfcUJ4pAL541OJ6jyQZEY8QVWzachrMkJhcU
;NzUsK4GjkRQlgHZywloGj7HcLV56zSNaB5SKuShKeRQ1ECw9gcr/GyKKc0HNagmItcItRWXLI0wGmYG
;xEj8IcWpTTU3exfgRJ+YdHq4dZ+vQxTdRZcQQYAqahrsoKQ9LUFpITe7K/wk45h0ergln69DFN1FlxB
;BgD5yapjlKeRQ1Liw9gcr/GyKKc0HdbQKHvN8GQn/NI1gIhbezJCYXFDc1LBiBo5EUJYB2csJaEpi18
;zVeYs0PYACbt70kLRNLUVFCTujX6CIslHZ6rgdm68qsWTdlxg9aG4G3vSgrD2FFa0te7sf0Ii6IfnzC
;YGfp0axXNwyoFU0Gm4G7KhUeelRWQFiBoZF9QOYfHsRgFYCPyTdWbsQZP2v16MlNSnt4VE1JT97L9BQ
;sjmtBz2EGm6TFL1JTzRJeC5mN1U9Kew81NCxR4Nr0DxSVd3vCaRS0v949Un73E08dnIW8Ny97FjQ0MD
;2Bo/wSL495d8t3OJi4yTVbf/cRWhuSjYo9KwlxW0AsP4Gjn31L5nFx2loUiqbJBkR4yQhaaffo1UZKe
;xRaW1ZY3tD5FC6Kex6sBWf90KxZWHrNDlcIm4+KPiIeeFlHc1jvwvMRLuYdH64lZ+vQwy9SfsAdUQ6q
;m70oJhdnalJNU97Q4RgugkB7wGQFh7WsWzcMsHw/aZqesD84EnBQa0pU7cL8GCWSQHvAZAWHtaxbNwy
;xfD9pmp6wPzgScFBrSlTtwvwYJZJAe8BkBYe1nlk1DahmP2n1mKckJA9LRVVeSfL84hg6k3pwzWA4hK
;LIPEUMqnw/ZvXo1T8rHWBqX0lY8fz5EieDbB6sBWf/0KxZRW3OCGAGg42nPyMfcWpRQlzjz/R9SecfN
;q4FZ5m12CtWb9wVUAeqiaMiIx9LQFpCWOLG4g4qlGZBx2s4mKXcKVh+3E0/a/Xo/U1Ke2ZQQF5c4tf4
;EiW5fmjBbAO0pcI3Um/ND0wIh5GKJCQkZ0BEXFLz16N9SeYfDK4FZ5m12CtWb9wVUAeqi7ogKBJ6UjQ
;uPYGykX1LlHpq3GQEn7nDN2hpxh1dBZDo10xKaBQ1NF5Y9dHwHj+PcHDxYAmKssA8aD6ofj5p0ejVTT
;geYEdVT0nozP8iLoh+fMJgOIm1yjZFafcTSh2Qmoo+Ih54WTQuPIG6kX1LlHpq3GQEn7nDN2hpxh1dB
;ZC3ujg+CH1RUSw/gKOHfUvmbXvadwaIpMU2WVPEHUYMh4u9LCQccTU2LT2Uo5F9OYNrbM9mE4K/wgZZ
;Y9wjVgeGgbEoSnkUNS8sPYHR9Ak5h3xqx2oJtKrENkdTxxJTEKqbuiEjHyU1Ni09mqORfTmDa2zPZhO
;Cv8IGTWTHDGAGm4SsEjkUeFxQHj2DopFkS+YfbctxE4K+ywZSdNwOSg2Qmop/FR56VFZAWIGhkX1Z5h
;8e3W4OmaTzP1h+yxlgDJuJtyEvexY1NDk9gaPiECqKc0HIYAafpd48RFPNEl4LmY3VT0p7NjU0LE7sw
;v0RFIB6f9pwFY6j8zBZasEQUzaHiaEkJSRxW1VOUeSjk31L6h8ernYIh7nIBlVj3AhQBPXq1E1TexQ1
;R0NR6MfOFCWAdnLCWhKYtfM+Vnz3GlYFmejXTEpyFDU0X1LtyvUiP4lvHqwEZ+LQrFlEfMEOXgWckrB
;NSHsUOTQsPfLT5A84uXpwz2cLjtCuWDcbqHw/GoCYpSI4D0tUUE1N9crnGBSDcX/MaQLr0q1ZOQyofE
;wchZi6Pz4kcVtVTlHko5N9S8sfHq52EpugwytDU8ESWQCZhIo4OR5LWV1CWPL8+BMUjnZ5xloDjr7fM
;EN19xtNAJHo10xKYxQ1NF9I8dP+Dz+5c3vPbh60s8M3WWnLCFYGm+jXTUpiFDU0X0jx0/4PP7lyccps
;AYK13gZQacYZTQiBjdVPS3sKNTQsTvTT4RI5kkBtw2QLh4/KNVht3BlbNpONtDk/CXFGNC48gbSRfUu
;SenPeYBWKpNkrUlPEFUwdqo27LCgXcTU2LT2To5F9P4Nybst3Bp+l3jxoYckSSgiZ6NdNSnEUNTRbVP
;HGzgkkkXpsrgdn6/CsWTd7wQxaNoGHoig4JHJcTElZ3tP+DiKSdnHAWgKFsc41UgyqfD949ejVLisPc
;VJbXkTezfAQLrl3e9YFZPvQrFkHPJ5OD1nDq+V9fU4kBQIZPYijkX0uiHswyWYIj7WsWhsNqHx4UMTI
;7h8vF3VBXVpYodP+DiKSdnHAbAmM2utoF0mFTh8vx9/lfWpARlBAXlzi17Eca4R2aqRCVsuVgWsXVph
;SDUmz2uF9elsvZ1FYT+DA5V0qiHs+3GQOmLWMAz1LmVxnXNWx4G0MSCQFBAwG1srhGGuJamqkQlbLip
;lpFzf6HVYakMiPbScUZlA+awSxg6o8KZVwcttxAsugwypeeMETUQechrJHQDwlFWwcHdiRo01r3U9sy
;3YChaSMKUVlxgg1JMTY420ZSzQOYFlP747+Gy3GeX/ADyra4Jh5ZDyIR2sch4b4IiwdNF1bWFjvx5sw
;etIvPv01R9CE2StZIccaWUmXjbFHQDYsARR0HdiD1F1wonZtz2cLjvDNNVss2whaGYWNpz5qGWFBFHY
;9i6ORfS6IeyyAYgSEtMlZNIyofD8kx9rkbR5LNGYFHA2L7qNPesZLL45WVtvgphQGPJxca1nVu+VHB0
;okARR4DKHwoXcG1ysujlZX4Z2daQAG70UOY7LZ9QhnSjRzBxwNi+SgXRHNLzCbJSLG5YwAGj6YXHkSg
;Zq0Oy8XS0ZESVjl3ps6ed4/Rp4lPtva4WEDBu9FD2ng6NVNLwNgR0FIWPP84goiknx2gGIEhLTJWTQM
;qHw/afvo1U0sGnpqR1xY5MfOESKVax6tCmfr0J1iBTmTTgRcxdPmdntLJDUlLD2BxfgRKot6cNpaE5K
;gyQZEeNp8PGP16NUdBjo0BBobCOzOkW9L5h94x2kGhrXCLWh40QxaNoacp39KeB41NCxtzeKxTGXRKn
;PDBUfr0Kw/Xn7bCGAFlJGwPxUIe1ldSGLozfcUJ4pAbs9xE46iwlk0Cah8PyWchrA+Sm4UNTRLXu7H9
;CItj3N7wGQKjo/KNkVhyQg/apLo1U0xHHdaUEli58r9GCWHcnvxcg6fuMMsQ1PNBEsUqpO4LCkTfVtR
;c0n40/QiKoR9bMtzDoqkxTZZcfcHWQCZibgoJA9LW1VBWN7C8x85g2l3z3EOhL6dJGh3xB1GDIe3vSg
;jHHxBSUFQgbKRfUuBfHHKYDibv98tR37HH1oahujWTUp7FDU+LD2BxPISL4NAatd1AuvTqlk3DPoZTz
;uUmNVcSnsUXFpKVO3PzhwlgXN78WkOmKSsWjEMqHwLXM7Z5nhKbhQ1NEVT58r9ERSCan/CWgKTpN4sR
;GXHEj9q+ejVTQsXeBVRVEnz1vUYOeYRHq4FDoW2xTVbU9gdSx2QmrtNSX4UNTRgVO/G4n1Z5h8ewmQe
;jqLzOl9txhtaR5KLuikvexc1NCw9gb6RfUuKfmfLdziYpM0rQ1PYE1YHgbemKCsWS1ZbXlPk0ZF+TeY
;fHvxgAYe11FknDKh8UAaPjYo+IhJxWVBzSfjT9H1I7x8erlIGn7XeH1ZgxHwuafXopSw/CHFqXElU5s
;vlIiePbGquBmfr0KxZJgyofE8FlJyzIjgWS1RQSFT1yv4TS+UbHq4FKYS+yVkmDKh8TwWUnLMiOBZLV
;FBEWPLK/hNL5RsergUphL7JWTsMqHxPG5yGoSg4JGBMREk9gqiRfUujcXrLd0fY8OI8Qwy7fD9ph4mz
;ORUfYVRYc1j51+MIOI9wcK4GaevQrB9eftsIHwyNnKc4Lh5mNScsPYHR8Bs/uXZwyGwLh4/cOEN4zQ5
;Rafbt1U1KN31bUV89kaORfTmDa2zPZhOCv8J3UG/HGFpp9ujVTUp7ADU0LE7qyuMJFIJqf8JaApOk3i
;xEZccSP2r76NVNDBJmRkAMWPnX4wgvg20euQVn66PDNV5o9xVRD5yEuRIrFXNZUXNR6NDlfUjgHx6uM
;VLQ4Z9sNxiofD8amoS8KRUSelNdQFHe0/AJP4NtcK4GbOvQrAtSb9wVUwCbjbQ/SmAUNTRfUu3K9SIi
;iHl3wmk4m7HYLVJ+xiNdBoGcuiBKeB81NCxv5MDlFCePcXvPd2fg0KxZRHjJDktHkou6KS97F841LD2
;6g9QTL4NtPp0lJJ6j2DZaLPsIXhuByJJgKRRwUD5rBLOD1E1r3T9My3YCn/DpIUN+3RhaG/+v53VqQD
;R9W0FYocL9EWuHZ3vdDyDa8PZrGTyIOgxZxdj1dmo2e0NRDGeh4ukUOMZqbo5pDp+kwDwXeMdcTxuQn
;rAjPltnVkZNSeLL+BMsxnB4jk0CiqSMG1JoojsOSa3Y+3xqIiYFFHYNr5CxO37WLy6ANUfQ8OE2QWmI
;CFBJhpy0Pz5bZFpHRUnozP93DNc/Rp4rVsuJnmkHIphcZVnb2/ULe04kBRocHcSSpF1wxltsz3JHn7j
;JeVFl2g9LSZmBuyhAPCUVbBwTtYPIT3vWMS6OX1fF44wfAjyYTBFZ1dP1ACUNcRVAQx3yyvUYa4c/cs
;dxE4e1ph4GLPBMEV3Vsed9aiEkGwcMe7CWoU1l1j9bnTVH0PDoK1Z7iAhXDNWbsC4lFXAVWEVT5KnWR
;HnGWi6OPke5td88QyztBEsbgIywP0A8JRVuHhOxg9dOe9YvPpUlKoSmyXltLOkEVhrVnaVtJhJgQVhJ
;HfXMsQ05g2l7wHFHmLPeOENvwBVRDtWHs20CHnVBFG5Y5anWTGu+Kj73N1fLip53ByzuSQ9ZxcblbXF
;bWVpCSR3u1fQPa5JwPt53Ap21wi0XbsQTXUmGmaAkORMUOTQsPfLX8A8/1DF5zWoDjtCvNTYMqDEKXs
;fIkX1qKCQbBBU3zJamT2uiLj79NUnb6aYeBT2iOwZZ/6Xtf0A2JQUDJnqzm5s6esZFL5srV8uW1y1Fb
;d4ZUzaGmLAoLgYeYQQmeriRsTh77Fgvjl1U2/D1dAUs7kQPWf+v5G0QSzoGAQx7s5OhdwzXP0aWMEey
;/Z55cj2bXHlbxdjfCntbUQQBDHuzk6F3DNc/RJslIdngnFNwNZpceln/r+VtD1ZvR1FYT+DA5RQkiEB
;622QLtLHBNkJi3AEfL8fY5UceSh5yDR4dxJObOnrGRy2eNUey/Z55cTSYTDUuxMiPfWRIIRVyHg2xqd
;ZMa74sKJ4lPsbijBwGP4g6DVnF4pJ8aj4lABRqD7GTmzp6xkUrjkNV2+CmHg4+iDkPY7LY9QhnAGZQQ
;F5c4tf4EiW5e2vPaTiKvcMsWXjVXHlbxdjfGXpxUwQUakb10fALLopAbd5gAo+tphQGPZ9cbxuchqEk
;JBw6GxosOoGjkQ4+lm9x3HFn6NSsWTdCxxJaaeno1U05DmRFW15J3sf0EziDQHrbZAu0tdQtRXnbFVA
;H9evZTUp7VVlYDFj51+MIL4NtHrwFZ+uj2SlHY9oIYA2QhqYoFQ9tRVEsPoSjkX0Hj3F73QVx69CsKk
;J82BNNHaqMoCwmJHFNQF5I8sr+E0vlER6uBSGCot8tF2nQCE0ckY2nTVN7FDVHWU3xzOMJFI9xeMdpC
;7Sxwj5bafcQVhqB6NZOSnsUGAAZPZGjkX04k29uwXcTtKPYK1Z4zRtGafbu1U1KNXtHWU1Rga+RfUuV
;am7eahWfj9ggR2mofzRp9eiHKCkPfVldQljg0ZFeS+Yfbdt3AYqzyQZEY8QVWzaXh6E5JRZLXFpKVO3
;Pzg0qkmt73Gtn6NWsWTdAwRJaGvXI1U1KCGFHUk1e5PziEiePe0Haahe0ucI/XmDEI08IgZywPyR7Fz
;A0LD3Nyv8YOOYLHq4FE4693DxFbdwJTQyqirApFRd9RkAsPomjkX163SoulTdc29C5WTcM3BlSGZCat
;Dk/CXFqWElb9fz9FDiSHx2uBWfr0LpZNwzcGVIZkJq0OT8JcWpGRVrp184RIpVrHq0FZ+vQrFY3DKgL
;VhmQt6EiPR5mallDWeSjkntL5h9Qy3YTjrSsSTcMqAtWGZC3oSI9HmZqR0Rc8caRfk3mHx7tbBWIvMl
;ZOQyofEgAhY2KOisXeGpZQ1nko5J3S+YfV8BxApm8zTpSaKg1P2n149VNSj56UVFeHbKD3xg/5h8exU
;Zn67vvWTd263w/afUlGYF0ehQ1/G49gWvTfEvmHx6uzSbr0KxZNQyofD1p9ejVyUl7FTU0LBKBo5F3S
;+YfTuJER9r+m2xaYah8P4nK6NXWDnsUI3csPXHikd3Hox+mpkJn63TuGz4MqPVvJ7Ll31dAexQ1OWV1
;xfGRfUlWHx6uT2/t0KxZdN7PnD9p9eGlBRMIFDU/Pz2BqIJ8S3yDBq4FbxuZ6BhjdDSR4qKb8wJMzYr
;rlFjFsW0Ft5BPS8O8AFbHbpgIUi3Rwo4/JOLtCRjL1TaVdLJ8VZEenS37a83jlgrqX9oEp0m/MgkvJs
;BlY8oo3QdQ421XU+VMeDSXBERj7jw/G3gOsEA4DFALkK3cW6tTQPvfkmsSyhxTusp9rcVfi95q4QePt
;ny5Motari3FNGhA+3f13l0IyLVdeaagrgEqdHZT9Jkrl5yND16mN1g+01s/LP6jOALGrAXjQpIvlFuE
;kE7QooPAMEnkWMbgpAJqSybgG0GkxoVHmwt6vWhM54c2CC88IX7X3jCacGxviOaR++WsHT0V+sDtxsI
;ym2iRDKE6uYw1bGbFCzAbYTZPb/Yr2EXHbjLQ5gNYxfWIJmTTbCFsIP9mtPw/OnWKezFMQaxg6oeekS
;HmXPjnMci6luxEKLu+zmD0pLnHSTMBe2wOj17n9O2m+qfLH92CXsaVMNWnlbh8cPyJJB4Df2tAyj3sH
;UruZWuicEEEWFxdF9QFFrJfsUty8V422A0l/SxODg+h/A+vUVmzmmSlH+771SAQ3Nsh9gt1oCklyTMM
;qMfLTouOvUvwnSEXYN2qrT0A74DOoOY2m3Agb3lEgKcCL/ez7ZPySdn3bzstzONmEwbSU2TIgF+JiD5
;aalg7MT6G45cE5ekUErZWyx+CYbnSlQVfpa25o0uzuI5OcZIWmymEZ2ZrLZkDi28LJrlWl6Axv1VcME
;XCCl3cg55DaMM+k8QDltgDqDgkoK1NKzMFDD3OEG2psaSfqyWHNRq75+qI5r1K4nPGPpAYmN+gCuLJy
;JnWni+x3DLQcNaDWetvNmO4DdP0VgHexrn0DJ7/UdQ9T+W+7JYdwqo4OFvefvNCpNMR9w6k6kK743KB
;QdkYogJEd9bOUZIFsba9DyMj0bW92Kga7noNNKJdVYVF3p1MfkhjfjsNIx+VABH2DNvFoMjJB8Mgh9P
;WNCsQzW98njSVpgSaMPPnaJIdqveelwVcpdpGB5n2cRjoQuoflMtapv41juutV2XxhLPH12oGg7H5fO
;qU2V4iz4s/XvVFmrrQ4DbaEG3pQ3E+afXo1U1KexQ1NCw9gaORfUvmHx6uBWfr0KxZNwyofD9p9ejVT
;Up7FDU0LD2Bo5F9S+YfHq4FZ+vQrFk3DKh8P2n16NVNSnsUNTQsPYGjkX1L5h8ergVn69CsWTcMqHw/
;afXo1U1KexQ1NCw9gaORfUvmHx6uBWfr0KxZNwyofD9p9ejVTUp7FDU0LD2Bo5F9S+YfHq4FZ+vQrFk
;3DKh8P2n16NVNSnsUNTQsPYGjkX1L5h8ergVnp8SfsTZQHsbYkCgzy5WpoCbCmXEVGl1tZwnfYgPoLp
;6Gf0mtQhitoYgEcAlkIEp7tMqO95/W9EVAJEcA/T+hMfN+uDRYSm2BDweo2WFM0WY46DNlykBSMV0TI
;d6w3X9OTB8b7qDzEsHicQGQ1U3Sb4thHqEC1s2+kHJBZ84tvEUmfgzU0/j9xvf/egi0QJXFE1lltFvQ
;mT9MMbjgVU3w3c/7ZUOUo2pUxx4PhP52+v3hlTYsXZV3rLKEEVfX5pozhf85faLexQfxAJrIdlZ0gvx
;Ysc13pQS2lOAu4nA8TmgzPux8ecNPGSXGJ4lpAwHhKlRjSTrViIbFj8sfHukmksed3hTlOcsYqy1Zec
;FmQ6JlaLmRccTuAyNFyOz58j0HUE8ZjQpjKTRCEpjRYNAuqClGZpSjJ1ixR5Oo/xyuw6OJaX5x7fKeI
;a02dN1Hd1iKbjzGcc83wuqbcSwRDuxwW98TnKFPcUW/fub26FXGsLDI6PMY9GnIFxzbo/JHLbMAK8IA
;uriErXyzQxedqShhzpuDg7pGhE4A/bYLskUjPDQ5sgnrQ/lrv59cFrDKMrGktcgSJj2B2WiGhAmkgTh
;PwDTAj/YuiukL8ye8Ib+mLQz7C8pcS1dESLEvjtmvsGgIxr8Ygvasb34/qYxVQX655eFawsWGXZKpDp
;xJwOVGAogXeUIgyfZWgtWvCxZiHsGeXrYh+/RQL/IAWgn01bkq8bDrl9R2g698v+KN8pCMBdfh1p2FR
;hPnWfP0yns7t/bIHK9NXwos9OFKviSSEmjttb2Ah58RyGe6fSv649T0+hAOIn5e4f/HNoX0cwT5DHGt
;2Arak9KrT3XMmWqMMVVtEXkDWXE9OnKRqp3B8DWdSnusJ8f6x/6PxusVLXbA1PsLUS3icF4QxwTAkd0
;mfFSNSYv7+RGT20gG8CoBkYbCcJILbJcFe2sNaT9ZXA54uG+S49DG/pLyPHzMoo/GDhumT7BwV7vCp2
;g07aqHUST9FiWOoFBJWczRG5zb6cqdZbw/Pg7yiT3PPUVcnRBjwsC09AQ1tM1ozCAnlzKYysQrv4ASg
;daEuvjcWtL2+fXhUcClHuzu9VSdeqpIIBsgimVO0h8JJozmEWKygxVuRvYEkDMXAGKejqW+HClWWAo+
;2TuPNJitWS8j/RfC8xIR4CZdyXmAtjnmGBfudZdNqveU34/T6eWWRYfdJcCNqr07tJHUTd5j/6DbSGs
;X5hoRg2c4ZaAhJb6O/HQIIoQS0uFGnDZjyYdfVtC3fTSBobWMZcSyZsasWdPZ2leJ1Bfetj6tiLWuy3
;ujv+l1hqO/OPUPy9bNiiH7V+E8s9H1Ht+P+QmcKfrbYgxa1kjuch4E3B0vUedPuoUZhOI15aOYh3LKr
;oytWPtX4c4xS7OifStaMaAGcYkn+9dLDa66lvvY1U2ixLiykIi0U86W3BAyWYcMQ/WfAOWL37l6NaI9
;IaAu39T9daXbjoil+RLOxQXNYL3QuyVEoi5fOXXdxIADka63VTHMpmeLXXpuj77Gw6InT/Q5HdhgBMI
;CZxJm7UuiyiZ/8Zrx3JebJfXlZelN9vOvBacPOnke3nmvrUT3uyKRcHDdQxp9ZRJEnj9WoUNHTNaDOc
;HLDw8vCu3hyzTbpPrmxX2Lxw7QieGFjtL0CqWwOZZlXQt/raBbHH+ASMnp1Y3aknoQ3UQSVJ5eonYHC
;v9SeB3uvHJWul2bAbrRDh4WnQCEEwFG3hq4OdT7S+YfHudAKa9+7jm1nqB8P+ClppJAQGEeNTQsMMjr
;1S9L5h2urgVnodiqWTcM665YifXo1UQ6M01GNCw2kqORdljnH4QyHWfr2OwQc038BKOEKCObXid7k8T
;L/L7hotz12v/X2qVVlK6Z2Ii/Rx8ShntaIL69SMGM1X7Pg/DBwD/7QzKZGHaf/eBPLU0MHIjHlec7PP
;nGFIjTwcXmF7mTu4NQcvkAi4pRPkfiDTqosDyPlSTeLph41EF/Yks3zmbG9g3l2GiDbW4ScVbbGvSrI
;tPaMiNxBXwTMnjsPSf1pVrsAcH6W1z+bANXisAtIE0zaE4ouZY86YdrgPES1bTYScJcsQVTZHXu4Pqc
;VT2mqXr2ZkfDWqiQxelImfB9HzF1k+MO20TG4OQlWLDkRacb2f2/zUAHb11eNUOGZa2ZVB86NNyGhyl
;dx3ZA/TCMExnk30ZfYnqjGtiBfomfzYWilCrmRx5DczwGpvegS3J6P6ZwHL/aEJ0OXpAmDQZmq0lE/F
;euvx22VA4j1TyEkEaXC3P4PT44Aympa6PHhyt2+1fcLVOaruu7FS5SsmGnTRBQBjKpw/DV7i3JUh6kz
;Z8eHjUXCZyrZf1NYx/qFNceGSfvRzG5mg5D36ZWl+DXuxePd6nU1WW/EAROOs+hYtVg6BwADR5anxEh
;fGaZZ9QOx14R51OKx5/pjokedXz11CK6K7SnS3HzjmU59/zvUzFTTd8J5OzTWib7XNKZVJj0DK9HqsX
;+2oHp0Jf3Lh3htB0YEijKuzySNRxXG5sH4KGnY0dS2NnKVESD/sn/xU9sXvqV+Buf4Eoozplnkvy2EM
;Tvgx9CZ5TmSY15+2fAAp1wt0zmH9KcztV3uCLvG0dxEAnXuTRypjDPlFQsqjFC8ywjxMVpAl2+U5dew
;20tcV9LpCSMdsKSFNZCEH3r+kZSZIi+k/ntq0anSVfFwwqzj0wm0zyPOIS3Ggw7SWoihWIksrPdglAS
;eBOf5FhB5uiNgUbgeOHZTbDwajBjXqOclybaJHU7wVmCeTQnUfgmkPSJ0l5Kk0tq4wB6io7igY+jkX1
;L5h8ergVn69CsWTcMqHw/afXo1U1KexQ1NCw9gaORfUvmHx6uBWfr0KxZNwyofD9p9ejVTUp7FDU0LD
;2Bo5F9S+YfHq4FZ+vQrFk3DKh8P2n16NVNSnsUNTQsPYGjkX1L5h8ergVn69CsWTcMqHw/afXo1U1Ke
;xQ1NCw9gaORfUvmHx6uBWfr0KxZNwyofD9p9ejVTUp7FDU0LD2Bo5F9S+YfHq4FZ+vQrFk3DKh8P2n1
;6NUty2OHK/SE5DdOZaR8FuGRsDi1IRpmxLklepVLnQYPGia9MobejoP6s4uRfXuypTOocKJbDrRs4Hn
;Hx0DHT4q/TnwBpJErIOrcPIaQPb2ySOX+nBAqUKDEUJWUP2ltjm728bWPAlvIxj8hseW/lvFalHFaJA
;NtmHbDxa8l15bnDTMrYXn6X6DjV3pI5BFLiSw3idUyfB6AmwKmcsuKMuecMlQjx8+ULj3htUnLpsLE3
;Z4J2pYr+t9WxJhSLKAG1CzzddI1e6F45ScA5tEG1O2e4wJNmqqX9GFHBSp0+xeQGCl4sXAHN1MbkBdg
;WDrtH17ZoblPmTrPoe5XD5z5+Gq14x0YU5xrv2HcLSU2tdx/zWFfCzD2/h73+9UFoc6Z3v4ECbjhD90
;rcvOcEHZLfhjbzLSAWP9+5kJF2nnpWflttAX29VRflQHnfwiPxDomWRG+RxLVaALyuBOXbo5pdXFg+v
;2cxBGHAzdbeL3NRupHnNv7dlrQLABysGbTVxxDvP9ARqF4x/7f2k4+ZIg+85TbnwloeCaDNngMqBytd
;8mQ5aRrm5pxe2DLd1W1tDq7qDnICI6ZZTkxaiA9NnrMp6EwP9NuTDX04ER3TwjO8F20y3vQLuTVz8s7
;VSsEYkVgopDYAD7xR61UOIFvJQqkOCaFNZ49to2JPSBEASitmBQrUvPVpddJXBgnK3R615wNdSq0L/A
;gQujlNQxOvtmPUxsKMrUSf15/1UHfVH6i3ML6bBcM6OenhSJJcpbKkDswkIFn39XfX4GGZyy1zG/l5p
;+nX+6wRAczZ0qewebxwqJHAaQ+H45TKJy4w+IDnxSplsf5rDOPbNOm6b2ENxRC3nQJVFnWun++e2WiD
;yV/S/CKdzSLQ1aoXRvs13ONwcGGSlB28ByicT9f4j/eKoFbMdSJgZj6ds1JK470c+MHwCbLzOcYFLjP
;igPq9BYny+1JQKG8qWfr9OgYXFU+UPT7mDMncQWpi4IuiOYGrQtztjgVR4CSOJwtsgH8vjThonSsfvA
;Ed0rf/CiRWzKK2AzrYH4GwSJEvipfD7fIns01aTW35wCZos7vvpd603TnxzTuw6V7aVEI1pZgDoWTVN
;X2EUMfTvWz1IcYC0cnMa3kGRGW+srzXdbtIe6swQ4A4IZPxiCL4w9tt0jz0gv32Plh5h99ylwxPFrBO
;0jD1YdKOU9vPe4BsioPDRWs9XrUlG3cISD4sD32avQu1KM66cX2pTvhNqSs+/GxTRXoUzZ/7AfMnEni
;gDw+IwdFNJNHtJ7Qp53XrQIuDw6+GXxdbMagUHWrBLDSXm9SR1cMqExBOPq1uDoXMenuHB4V7wDf7y1
;JipjbV9it2i4ZsIsvIWId4ETio+sgEdkE/cbKgXhuUeJeahFu6A4r0o6+gEyPxtcC51dtdAUrIiM7QH
;YUSpAgIQ2XjDGdcjNPupnXo/l9lSCPgvpZ3hQ1GJR8/DdPwwbBWrz2SXw/m3658Z5Si21xcwKhd531c
;VBRaZNqVXzZnxBX5MZhZhD/fn4A9aeHx5gW88guEruyKCoyy32eAN7oxd0NrgUrfqSHEOoRy6eJM1g+
;YIpDuGRV9AoQrox6hrwJImEhMXpGJJMiUucQ+mJUT+jVTUoyUXtwgn/hITFDS+YeHq4FJdXQrM02DKh
;4P2n1itUhSg4UUDQsLoGjkRwohXpyy3cGn7nDN2huxwhLBpjo1E1KexQ1NKV9gbiRfUuHfH3LaQKZsd
;gwWGL3HlAdgYe4EjkOZlNVT1iBopF9S+YfHidFZ/jQrFlWb8sZUwyHiaEkJRVLXFpKVO3PkXxL5h8er
;gXuq9C0WTcMyR9cDJmNpyw+Entba0VT8sblIiKIcXvcBWbr0KxZNwwhPD9x9ejVLCkYcVlRXlz1yv4T
;FI9xbctxOISl2DxFDKl8P2n16NXECnsGNTQsXOLA9BEulH5qx2oJtKDeMFl4qH0/afXo1U3DOxQlNCw
;94MDyGCeDbX/abAiFj9g2RwypfD9p9ejVxAp7DDU0LFziwPQRLpR+asdqCbSkwylof90OWQiWjdVMSn
;sUNTQstMGjgn1L5n59zWALjqLNLV5jxiNLG5SesCFKehQ1NCw98TTRfWLmHx7PcwiCtPMtRW3eGVM2n
;Ye5KDkkZFRARGLswukiJ4NxedptOI2xzy1Yfqh9P2n16NVNIzsUHDQsPeDV/hQvuWtsz3MCh4/ENltp
;2yNPCIGAiiArA0tbW3NP5NfjHCiSdnHABWbr0KxZNwyofD969ejVLDISZ2pXQ1Dxxv8OKpJ2ccBaH+v
;RrFk3DKh8Zin1+9VNShpsXEdzXu7O4RgllX5qx2oJtKmsWDcMqHw/aayo1V9KexRXW1hJ7s7OESqfem
;zxdheOtchZNgyofD9p9cyVTVp7FDVWQ0n1zPwiP452fcVrApijrFitlTHlpvA819VTSnsUV0ZFWebK/
;xoUg2dq3HAUgr/CBkBlzAhXNoeJoSQlexU1NCw9gSPwPUv0Hx6uZxWCtMswWWv3Gl4HqpulKC8fFDQ0
;LD2Bo5EkC+YLHq4FBZm5yD5eYs8jWQCNjbESKxVzWVEsPIGjkX1LBn9erhxn69DOK15ozxVRDqqOuSI
;rD3FRa01P5MLOECKIHx+uBWfr0Kxtdwy5fD9pl5q8KS0SelJrSlHu1OMcP4MfH64FZ+vQrAB3DLB8P2
;mXmrwpLRJ6UmtfVeTP/Q4UgHNx2XcGn7WsWDcMqHw/aayo1VhKexRXRkVZ5sr/GhSVd3vCaRS0o9w8U
;miofT9p9ejVTXQ7FDs0LD3j0fgZLI9xefF2F461yFk2DKh8P2n1zJVNa3sUNVZeVOXE+BMsuWxr3nUI
;maTJPWht2hleNoeJoSQlJHlUTCw8gaORfUvmVl6uCmfr0M4rXmH3EFYHkLe2Ij8VYDU1LD2Bo5F9X6Y
;fDK4FZ4i/zSpDZcYbYA2cm6EsJBhxBDQtPYGjkX1LBiAevAVn67PDOER4wRJYNpGBpjkrFXdQBiw8ga
;ORfUvm/yGuFGfr0M82WGD3EVYHqo6wKC4JdUFRLDyBo5F9S+Y7Xq4WZ+vQzzZYYPcRVgeqhLQ0LwlLQ
;V1BWIGikX1L5h8eukVn9tCsWVNpxg9aNoadpT0lCWBqXUJb6M/9IiSTa3LHawKY0K1ZNwyofD9p9ejI
;TUp7cFBaX1je0OQNO4ltavFsCYW13gZSdNgdURqch7tNS+GNrK21pGickWZL5h96y2sUjo/fLEd8xw5
;LNpmJrCg4CEtXW1hJ7s6RfEvmHx6uBWfr0L9ZNwzMGVEakLemODoLe0dAc07xxvQZS+cfHq4FZ+vu7F
;kuDKh8WwCYjbs+IxR6akxVYuLM/A0uiGx/2mwIhdCtWTcMqHw/afXoy01Ke3BcWUlT8sr+ExSeZkHNa
;gqbtcIqVnjBE1E2nYe5KEp6FDU0LD2Bo5F9ROYfHst9E5mlyDxFU8kRUBybnNVMSnsUNTQszb6jg31L
;5npm2ncSj7XeBlhqzg9aHaqQ5E1LexQ1NCw9uOORb0vmH3vWcRWetMkraGPOGkwMgbetf0p6FDU0LD2
;Bo5F9WeYfHst9E5mlyDxFU8caWRqQnIo1eXsVNTQsPYGjkX1L9B8ermAfn6LZPVJ+9xNZD4aNoRIzSh
;Q0NCw9gaORfUvmDR6uBQKTpN4sU2naI1APk5uwORUCJjU1LD2Bo5F9S+YfDK4FZ46o2CtCaM0OYAaTj
;qYoPiRtBjQtPYGjkX1L5h8enQVn67XULUV5zBlNNoafvDkpE0tWW0NR6M32IiODfmrbdTiKtNo4WW/N
;I0sMmJiwPysPYUdRHT2Ao5F9S+Yfd+4FVOvQrDxPeNoJWwyHt6Y6Iw93XWtPUu7P+BMsuXd7z3ESm4/
;NPUFtxh9aNoGNuD0vCXVBQV5Ys6OQfUvmHx6ubCfr+6xZN2nQCE0ckY2nEjkMfUFXRGLizP4RIoh4Qc
;ZgBp+l3AZWaN4dUQqQt6EkJx4UNDQsPYGjkTkL5gEergUCk6TeLFNp2iNMHpyctiUVGHtaWEVT5vzhH
;DmNQGauBGfr0KxZt07ofCFp9eiwNT4JYVFRXmLy1PgJKI5AfcFqC4K+ywZHbdoXYBD16dVNSnsUBV9s
;PaWjkX0unmts22ECmY/fLl54yxRgCpqHuSQkHEtBUUFN5NHwCT6Uei+uBGfr0KxZt2rofBtp9eiwNT4
;JYVFRXmLy1PgJKI5AfcFqC4K+ywZDacUMWhuUnKA/L0kUNDQsPYGjERsL5joergUCk6TeLFNp2iNMHp
;yctiUVCXFGQE1P9fz0BT+UfkHPaAievthrNw2ofD9p9ejVTUplFDU0SUX10eQZLpRAbdlsE4i48ytSf
;9wdTR2qm6UoLx8mNTUsPYGjkX1/ph88rgVnjqjYK0JozQ5gGoKBoS4iJGZQQF5c4tf4EiW5fnPBcAmf
;4qxYNwyofD9p0ajVbEp7FFBMWE/0x/QPFJVod9pmD7SiyS1FbcsIVgabt6Y9Lx5wBzQtPYGjkX1L0l8
;eoQVn67XULUV52xVQB6qfvCk+ExQ0rrWkGDoIpHTmDh6uBQKTpN4sRGXHEmAenIyhJRVJFDSutaQYOg
;ikdOYMHq4FAYq+8ztbZdgjTwiAm7ASJwhxVjQtPYGjkX0LmV8evAVn67bNN2huxBVPNoGApyg5E3tZU
;Cw8gaORfUvmIV6uCmfr0Mo4WVPOCVMFqoCwJC0TYDU1LD2Bo5F9q9kfEK4FZ42xwgZRecQQYAWUkbA/
;SnoUNTQsPYGj0X1C5h8eyGQJtKPcPFJoqH0/afXo1U0TOxQ4NCw958L/IjiWenvKWgqKqKxYNwyofD9
;prKjVXEp7FFNdQFzsxv8JFIJ2f8NgE46irFg3DKh8P2kJ19VfSnsUU11AXOzG/wkUgnZ/w2ATjqKeWT
;YMqHw/afUU6k1YexQ1UkVR4M70Ez+5e3fPaAKftd5qNw2ofD9p9ejVTUppFDU0SlTtwvwYJZJAesdkC
;o6kySsDDKl8P2n16NVNSnsZNTQsW+jP8BAuiGtByGkInNCtWTcMqHw/MLXo201Ke3JcWE1Q5M3lIi2K
;cGmfBWbr0KxZNwzxPD9n9ejVKyMXdVhRQknexf0SPNQfH64FZ+vQLA93DKV8P2mTgbksJx56QWtYRPH
;GkXxL5h8ergVnq9CiWTcMzhVTCJiNuzkVD21FUR49gKORfUvmHx7uBWvr0Kw/XmDEI1sMm5u8OTN7FT
;U0LD2Bo4U9S+ofHq5jDoe88zZBadoQXhn16dVNSnsUNQpsPaCjkX0tj21t2loLiqnJK2hp0AhNHIaBu
;iMVDH1RQERi88LlFCTmHh6uBWfr0PUZNx6ofD8PnJqmORUXdUxRXmLyy/QRJ5UfH64FZ+vQrF13DIZ8
;P2mTgac+PiR4VE1JT97Q/hEigkB3wGMOh7zzPE942glMAJqGijojH2Bda15c9cr+fUrmHx6uBWeykKx
;BNwyoGlYbhpy5LDMeZmpSRVHgzvQTP7l5csFyZ+rQrFk3DCgnf2nm6NVNLBJsUFBzUeDa9A8UlWt/3H
;E4k9CtWTcMqHw/MLXoxk1Ke3JcTElZ3s/wBC6UQG3aZBWfj9VZNgyofD9p9baVTWl7FDVTTU3exfgRJ
;7lsd8BiC46PySFDft0PVgabt6csPhJ7allNRYGikX1L5h8ex0VnyNCsWVBt2CNZAJmEij4jFXNZUXNY
;+dfjCDiPcHDxdwafucMGWmXGfD5p9ejVTco7VDUrLD2BxPANFIB2csJaFIK+yzVSU80ESxuAm7wiJCR
;nRVFJWYGikX1L5h8e6kVn5dCsWVBt2CNZAJmEij46HnFRNC09gaORfUuvXx6+BWfrt882U2n3CEYZkL
;e8Iy4ebDU1LD2Bo5F9S+YfEa4FZ4y8wztWYPcTWQ+GjaESMnsVNTQsPYGjkX1L6R8ermILhLLNNWhjz
;hpMDIG3rE1LexQ1NCw9gaORckvmH3nCagWKvPM2UWrbGUs2j+jUTUp7FDU0LD2BtpF9S456f9pwF7S3
;zzZTafcPWhiAjbsuL3sVNTQsPYGjkX1Lxh8ermwJjbnANWhtzB1PHZyesBIjFXJcWEBi88LlFCS5cn/
;WBWbr0KxZNwyWPD9J9ejVJCQdfVlYc1zlwuEJIpB6QcdrAYK8wAZFbdwVUDaYgbtNS3sUNTQsPZXjkW
;JL5h93wGMOh7zzOFNt2AhWH5C3vCMkHmZqUVRN4M3iFCSIHx80nP5ySTWwCAy+fD9pnIazJCYXS1RQT
;U31yucYFIp+Z8t3FOvRrFk3DKh8Kyn18tVNShJ6U11AUd7C9Rw7knZoy1oVjrTZOkNlxxJMafTo1U1K
;exQ1dCwkgaORFCWAdnLCWgaPsdwtXnrNI0gAkZy9EicSejU1LD2Bo5F9Q6YfAq4FZ4K+yjBbYPcZRx2
;HnaYkJRVLQl1ISen84xw/j3AerwVn69CsWW5MqGg/afWBuysjF3hqUkVR4M70Ez+5eXLBcmfq0KxZNw
;yoJX9p+ujVTSMVclxYQGLuxfcOLpJAZq4EZ+vQrFk3DKh8MGn16LwjLBJ4WWtDW+fQ9AkUnx8frgVn6
;9CsWTcMpXw/aZyGsyQmF0tGXElR7dCRfEvmHx6uBWfr0LBZNwzBElkAmYSKPjoaZkZRc17uzvMUJYNA
;cs98ApmjrFg3DKh8P2kF19VBSnsUXFpKVO3Pzg47g3p6rgRn69CsWbdK6HwzafXovCM5HmAFa19N5Mb
;1fUrmHx6uBeetkKxVNwyoFVEakJytEjkLcVBQLDyBo5F9S2ZZXq4VZ+vQxStYYsESWDaThLo6OBpgUD
;QtPYGjkX1L8l8eowVn67neNlllxhtgGoWNsClKehQ1NCw9gYfRfUDmHx7EYBWAj842Q3jHET9o9ejVT
;Up7AHU0Pz2Bo/sYOY1AfMFxE4S98ypCfs4dXAz16dVNSnsUNSBsPYqjkX0hg2118WwJjbnANTcNqHw/
;afXowQ1KaxQ1NEZY88jOFCWVemrxbAmFtd5ZNgyofD9p9fyVTVp7FDVeSU/q/PgTOINrQcFwE46irFg
;3DKh8P2n9qNVHSnsUX1FeVt7T4xQlkh8frgVn69CsWXcMoHw/aZ+NpyYVD3tFNC09gaORfUvyXx6+BW
;fruskrXFPcE082hp2nKysYcTU1LD2Bo5F9X6YfFa4FZ4G13jJoeNodSQyZ6NQrLB1yU1ImfYGvkX1Li
;n5ny3c4g7XFPl94qH2l8GxxTNSDRBQTNCw97cLoGDm5d3vHYg+fj809VnzcFUkMqoW0NRUTcVxTREne
;0fAJIokfH64FZ+vQrBd3DI58P2mZiawoOCR8UF1LVfX88Bkqlmt32GA4hrnCBl9pwRtXHaqatDkjFBQ
;0NCw9gaORRAvmPB6uBQuKqckraGTNFVgBgbe0KSsLYFxCSWLywvwNJ49xefF2E46grFhMGAY73hNx19
;VmSnsUWVVVWPP8+RgigXdq8WQDiqDYMEFp9w9LDIWHoyg4JHZaQFhS7PzjHD+PcB6vBWfr0KxZfkyoV
;D9p9YS0NC8JS11RRVrp184cL4dvasdzArSj2DxHY94ZTTaBh6USOBpgXFssPIGjkX1L5lZerhJn69DA
;OE5p2iNSDIePsBIpF3tGUXNb4MD0DkvnHx6uBWfr0KxZLwyofFMIjI2nEjkec1hRQknez/QTLJJ3QcN
;sCevRViddsNzvt1b1/NVNShd1TFFeYvLL9BEnlUBx2GAVh7HcWTYMqHw/afWhlU1fexQ1WE1E5NHODj
;+HbWreag6FpPMtTnzNfD5p9ejVTUpzVDU/LD2Bzf4HMYp6Qd1sHY7QrVk3DAjlprDK6NpNSnt7V15JX
;vX88hglknps8X1n6tCsWTcMqIyAafro1U0lGX5QV1hi4sb/CS6UQGeuBGfr0KxZN/wXfDRp9ei6LyAe
;d0FrX1TvyJF8S+YfHq4FZ+vQvVk3DMcTRQyqm70kLxdwalVCWu3GkXxL5h8ergVZq9C6WTcMxxNFDKq
;bvSQvF3BqWEVT5PzyEj6Iax6vBWfr0KxZxzOobj9p9Ye6Ny8kZ11dSVHl/P4bLZV6aq4EZ+vQrFk3BO
;h8Kmn16Lo7Lwl8VFpLYvLL9BEnlUB/wGILjtCtWTcMqHw/V7XozE1Ke3tDUV5V4M32IjiOenLCdjiNs
;cIGRHzNGVtp9OjVTUp7FGx0LCWBo5ESPYNtds9rALSjxDxbYNsjWQWan6csPh4UNDQsPYGjkSkL5goe
;rgUInbXeMVZizyNMAZCEuT4VCGRQUUg9gKORfUvmHzruBWvr0Kw2QWnaEF4ZqoygLCZ7Fa+ttaQYOlh
;CS/MfHq51FYK+2AZVacwjSwyYmLA/Kw9hR1EsPIGjkX1LZk5erg5n69DcK15i3CNMGZCNsU1LexQ1NC
;y9x+ORbEvmH27cbAmfj9g8WnzNDl4dgJqwTUt7FDU0LH3r45FvS+YfbtxsCZ+P2DxafM0OXh2AmrB/S
;noUNTQsPYHK0X1Z5h8e3ncOhaTzLVJh2BlNCIGdpyh5exU1NCw9gaORfUv0Hx6udRWCvtgGQ2nFDFob
;lJygPy9PFDQ0LD2Bo5F9S+YUHq4FFYq22AZWZdobXhn16U/U0+KNrP0TPZ6jkX05h3lq8WcGmLXzPE9
;42glMAJqGijojH2Bda15c9cr+fUrmHx6uBWeCkKxPNwyoDl4Pgbe3LDkeS1xaSlTtz84cJYFze64EZ+
;vQrFk3DKh8KWn16KcsLA9LV1VfWN7K/xsiinNB3GQTgr+sWDcMqHw/6bWo1V1KexRHVUpJ3sHwDi65c
;3/XYBWY0K1ZNwyofD9ptejGTUp7ZlRSWGLjwuIYFIp2cMtyDo+kxFk2ljHlpvBsAepNRXsUNUZNW/X8
;8xw4g0Bt3mACj9CtWTcMqHw/SbXoxk1Ke2ZUUlhi48LiGBSSd3fNbgmOo99ZNgyofD9p9QjqTW57FDV
;GTVv1/PgTP4NteM9mArS11C1FedsVUAeqn7wpPhNLR1VYVO6jkH1L5h8ebmcn68usWTd+yRpLNpyGoS
;g4HXVWUXNU78X4ESe5fnDJaQLr0axZNwyo/Gkp9fPVTUoJdVNAc1Tv1/QPLYd8e/FsCY25wDVofskIV
;gb16dVNSnsUNX1sPZSjkX05h3lq8WwJn7XeP1ZvzSNTCIyNpz5KehQ1NCw9gVOufVPmHx7cZAGfj8U3
;Q2naGl4KkLe5JCQeY1xQWFWBoqJOeNUsLU06Z/3QrFlFbc4IYACbnLA/LBp3UGtfTeDA+BMs5h4ergV
;n69BcZjcYqHw/G5SOoRIjFWBQRkpc4sbODjuDenquBGfr0KxZNzLofCdp9einLCwPS1xaWFjzxfAeLr
;lrdsdmDIW13yo3DfrEIeweuQ1ySmoUNTReXOfXzhEiiHpB3XUGiLnCPjcNqHw/afXo3Q1KcBQ1NF5c5
;9fOECqUeHfABWbr0KxZNwy8PD9G9ejVPysdYGpbWljz0fgZLrl5d9x2E7S8zSBSfvcZRx2HnaYkJRVL
;Ql1ISen84xw/j3AerwVn69CsWW5MqGE/afWatCs+JHtDUV5P6Mf0IiyKcHzPaTiEtsoqUnj3Bj9ob3F
;M1NPi3Yo0Dj2Bo+McLZJAbdt3AYqzyQZSdNwOShqch7sSPRJwQVxzT+DX+BJL5x8ergVn64nsWSEMqH
;xNCJOcij4/CXJUV0li58r9ERSUfmrLBWbr0KxZN0z9PD989ejVPysdYGpHWU/nwvIYFIBzcdl3Bp+1r
;Fg3DKh8P+mTqNVUSnsUR1VKSd7Q5A8th3x78WwJjbnANWhtxhtTDPXp1U1KexQ1Cmw9kqORfTmHeWrx
;dhKZts06UlPEHUYMh5vVTEp7FDU0LD3Bo4d9S+Ztf8hxOJil3j9Wb80jUwCbjaIkLg98NTW2pBg6COS
;S2R8KrgVnmbHKLWh/3Q5ZCJaNij46GndcWks9gKlG3jvbFcmRBXXr0KwrVmrcI0wch460Li8kZ0VRSV
;mBopF9S+YfHuBFZ/3QrFlFbc4IYBqAmrMsKR5LQVxFXurN9A445h438oqlHvhgZjceqHw/G5CboSw4D
;0tRQU1R3tDhGC6CHx+uBWfr0Kxtdwy8fD9ph42mOSsJYGpRVEnzws4cJolqcNoFZuvQrFk3DKh8P3/1
;6NU/LwhgVEZYYuTb5Q8quX5zwXAJn4+eWTYMqHw/afXo1U1TexQ1RklO9cLjCRSDZ2rcZDiPpc01aG3
;FE0oHgejUTUp7FDU0LD2BrpF9S5R6bdpkFZ+P3ylSacx8Pmn16NVNSkJUNTssPYHR9A4/h21q8XYXjr
;XIBgUMqXw/afXo1XQKewU1NCxP5NfjHCiSdnHAWgaGv9k3QwypfD9p9ejVWQp7BzU0LE/k1+McKJJ2c
;cBaBoa/2TdDU5p8Pmn16NVNSm9UNSIsPYHR9Ak5h3xqx2oJtLTZOFtTyRFQHJuc1UxKexQ1NCwZwaOE
;fUvmbXvadwaIpMU2WVPMCV4FqpulKC8fFDQ0LD2Bo5FJC+Y4Hq4FFY6k3jhUeMETUTaQhrQvJh5LWkF
;YTujH9CIpiWtqwWg4h7HVPEV/qH0/afXo1U1KOxQRNCw988blDyqFa3fBaziOvs07W2n3E0odhoGxKB
;UPe0VrQFz4xuMOS+cfHq4FZ+vQ7Fk5DKh8TQyBmrQuPhJ7W2tEUvGjkE541SwtndZY68CsWTd+zQhNC
;JacvCIkJHxaRHMPgaKiTnjVLC19Omf+0KxZRWncDl4KgYG6IxUWfVtrWE/g1fQRS+csLZ02VNgzk1kg
;DKh8TQyBmrQuPhJ7W2tBVO/85Q8qkHpy8Tdn6uOfagQ/m58Aaeno1U04HmBHVU9J6Mz/IiaPcXfDZAu
;0tdQtRXnbFVAH9emuWeQ89U+gEz2fo5F9OYNrbM9mE4K/wgZaZcYVUgiZt7A1PglhRl1DU96RkXww8r
;FZT3/z1NC8WTcM2hlLG5SLoSQlFUtGRElY5aOQfUvmHx6uTCfrwqxZN37NCE0Ilpy8IiQkZ0VRSVnek
;ZF8S+YfHq4FLqvQtlk3DNoZSxuUi6EkJRVLT1xDTd7A/hMvj2t3wWtW69GsWTcMqHzPVvXy1U1KCXFB
;Rk1e9cr+ExScd3HeWgSEvsgwQ2XHEg1p9OjVTUp7FMULLC6Bo5EOLoVwcMpaC4qpyStodvcQVg+B6NR
;NSnsUNTQsPYGqkX1LlXR33HE4jLHcWTYMqHw/afXglU1aexQ1R0dU89fOESKIekHNahKFpKxYNwyofD
;9pBdfVWUp7FEZfRU/1/PwUJY9yf8JaC46+yy1fDKl8P2n16BUvCnsfNTQsTurK4wkUlW97y2Fn6tCsW
;TcMqEh/ae/o1U05F3tCa0hS9s3OGyKUbGrxYwKcj8A4TmnaDz9o9ejVTUp75Ao0Oz2Bo+IQKopzQchg
;Bp+l3jxEU8wVXgSQnLA/SnoUNTQsPYGH0X1X5h8e3WgGh7zzP1Jt3AlNDIa3vSImHktRXU1Q5Nf0D0v
;nHx6uBWfrzOxZLAyofEwElIS5EiwedUFBXljy/PgTLY9zcvF3Bp+5w1k2DKh8P2n1sZVNUHsUNUdBXO
;3Pzhsuh2tr3GAUtKPcPFJo9w5eHZyH1UxKexQ1NCx0waOzfUvmbHHCbAO0ssMtQ2PFI1oRgZqgPiMUe
;mpDRVn1y84PKpJ2ca4EZ+vQrFk3Veh8JWn16KYiJhJwalZDSfXM/CItj3N/w2AJn4/KNVh7qH0/afXo
;1U0TOxQnNCw98sz9FC+5fXHacQiGj8A4TmnafD5p9ejVTQr0VDUmLD2B0P4RIoJAfMFxE4S98ypHac0
;YP2j16NVNSvtSdTQ6PYGj4hInj3tBx2sBgrzABlJ02B1RGpyHu01LexQ1NCw9gaORbkvmH23BaQ6Pj8
;U3UWXEEGAanY25ITl7FTU0LD2Bo5F9S/AfHq52CIe5yAZeYs4VUwWqn7wpPhNLWF1CPYCjkX1L5h8er
;gVy69CsKlhgwRhgBZSRsD8VD3xcV0dT5NDifUrVLC2dNlQI76xGNwyoD1AFnIyKOSULS1BMWE/00PgS
;Jblod8pxD7SizS1eY6h9P2n16NVNEzsUIjQsPfLM/RQvuWtx3loBgrzNNFJi3CNZBZqf1UxKexQ1NCx
;kwaOefUvmbHHCbAO0pMMpaGDJBVob9enVTUp7FDUsbD2Oo5F9OIlzd8paE4Sg8ypHac0YP2j16NVNSv
;tSdTQiPYGj4g0+lGxBw2QfnLnILV8MqXw/afXo1a11ezU1NCxO9NPhEjmSQH/KZBefudo8aGXGGlYFm
;benLD4Se2pZTUWBopF9S+YfHupFZ8rQrFlEedgMUBuBt7QpKwtgXEJJYujN9xQnikBsz3EOhI/BMFkM
;qXw/afXo1WMKezQ1NCxO9NPhEjmSQH/KZBefudo8aGXGElobqo2tPSsVZ1xbQj2AOQjk0n+Gx5EFcOv
;QrCpCfNgTTR2qibEsOg99Q1FzUeDa9A845h4ergVn69C4GTcXqHw/GoCYpSI4D0tUUE1N9crnGBSUen
;rbZhOCv8IqNw2ofD9p9ejBDUphFDU0X0jx0/4PP7l+es91E4KmyQZAZcwIVzaYgbtNS3sUNTQsPYnjk
;XBL5h9t23UXhKLYBlZizxBaafTo1U1Ke9RndCwugaORDj6Wb3HccTiJsd88aGDJBVobhujUTUp7FDU0
;3AKBupF9S5Vqbt5qFZ+PzjhEafcQXhCQmqYSOQtxUFAsPIGjkX1L5iFerhtn69DfLEd8xw5LNpaHuyM
;vGGBcW0Ji+drOGSKVa3/AZgLr0TbArpUx5YZW9f/VTUoIYUVEQ0/1/PUYJZV6QchsC4eP3jhDaah9P2
;n16NVNHjsUJjQsPfLW4Q0klGtBymAJmLXzNVZ1zQ4/aPXo1U1KexQ1NDk9gaPiCDuWcGzaWgGCvM00U
;mLcI1kFmp/VTEp7FDU0LGTBo4B9S+Zsa951CJmk8z9eYMQjTQiBjdVMSnsUNTQsE8Gjhn1L5mxr3nUI
;maTzMFlqwRBTNpqdoSEjFXFGNC09gaORfUvmHx69BWfro9kpR2PaCGAZnIS5LDgkZ1xOST2Ao5F9S+Y
;fDu4FTOvQrCpCfNgTTR2qm7gsJhdLU1hDXPXG9SItg35q23cCmI/UIGhp0AxeB4aBuiNKehQ1NCw9gV
;OufUbmHx7dcBebv94taH/YGVoN9enVTUp7FLVybD2So5F9OJNvbsF3E7So1QZTZdsIXgeWjdVMSnsUN
;TQsPcGjhX1L5mxr3nUImaTzIU5TzQRPCJubvCIkexWvrbWkGDpYQkv0Hx6udhKboMMrQ1PSI1sAhpy0
;IykeFDQHHw6ykKK+dOYDHq4FFJ6g3DZFePcGYAaTjqYoPiRwWkNCYu3C6Bg5lR8frgVn69CsqQgMsnw
;/aYadpT0lCWBqTnNS58XiGD+5am7xaQaStd4qNw2ofD9p9eglckpRFDU0X0jzxfAeLrlsccJsA7Sywy
;1DY8UjWhGBmqA+IxR6akNFWfXLzg8qknZxrgRn69CsWTdV6HwiafXopjg4HXVWUXNO7s/4GRSEcGraa
;gq0tsA2QH7JCFpp9OjVTUp7FGx0LCaBo5EOPpR5f81gOJi/wDBTU8oTSx2ahYohKwJxR0csPIGjkX1L
;5u8hrh9n69DfLEVqyR9aNoaHuSQuJHZaQFhS7PziDS6Dex6vBWfr0KxZc0yoWz9p9ZugPywad1BrX1L
;tyvUiP4lvQct9E5ml3zBYYvcLVg2BgIo/Kw99WjQtPYGjkX1Lv18etAVn66PZK1FtyxlgGpqEvCkVD3
;tFa0pR7tTjHD+DHx+uBWfr0OwBdwywfD9php2nKysYcWpHQ1Hox84JJJZAcs98ApmjrFg3DKh8P2kF1
;9VaSnsURkFeW+DA9CI4iXN3yloThKDzKkdpzRg/aPXo1U1Key11NCM9gaPlFSKIQGnPaQu0o9w8Umio
;fT9p9ejVTXQ7FCw0LD31y/gTFJF+csJaEIK02DFofskIVgaqhbQ1SnoUNTQsPYHK0X1S5h8e2m0OhY/
;bOFtg9wtWDYGAij8rD31aa0FU76OQfUvmHx6uPCfrwKxZN3jHDGALmpyhIickZ0VRSVmBopF9S+YfHu
;BFZ+fQrFlDfskKWgWqm6UoLx8UNDQsPYGjESwL5gEergUTmbHaPFtT0iNYCpqMsBIuEmdBVUJe5Pz3F
;CWPbHauBGfr0KxZNxjofC5p9eijKDgIfVpac1Hg0OUiLoJ2aq4EZ+vQrFkIveh8NGn16KIsJhdLRlxJ
;Ue3QkXxL5h8ergVnq9CiWTcM3x1TBaqcvSQpEHpQR189gKORfet/hveRBX3r0KwuXnzNI1AcgY2nEiM
;VZ1BAc1no0OUcJYV6L64EZ+vQrFk3DKh8JWn16KIkOh5LWkFYWPP8+BM4g2tBymwUn7HCOlI+qH0/af
;Xo1U1KexQiNCw99srhGBSJamrLdziCvt88Q1PbDFoMkdnVTEp7FDU0LHPBo4Z9S+Zod95gOISl2DxFU
;8ESTAyBt6Y9Lx5wBzQtPYGjkX1LqF8euwVn66fFKVJT3BNIDIe3syQyHnBqRENO+aOQfUvmHx4uTifr
;xaxZN3vBDFo2gYeiKDgkclxMSVne0/4OMuYeHq4FZ+vgxxk3Gqh8Px6cmLASPhRjUEZzVO/F+BEnuW1
;/2mBn6tCsWTcMqCV/aefo1U09EmRQa1hS9sbjIiSAeW3LcR/r0axZNwyofD+p9frVTUoMfUVRc0nu1P
;QPFIl5eN1gE5LQrVk3DKh8P2m16MVNSntjXERJYvXM5hg5uWxuy2AD69GsWTcMqHx2KfX51U1KDH1FU
;XNJ7tT0DxSQcHLbaALr0axZNwyofBEp9f3VTUoMfUVRc0nu1PQPFJBwcttoArS9xTc3Dah8P2n16PEN
;SmsUNTRbVPHGzgkkkXps8XIOj6TEWTYMqHw/afXclU1FexQ1Q0VN5PzmHCeKQG3eYAKP0K1ZNwyofD8
;gtejbTUp7bmpAXlz3xv0iOJZ6e8oFZuvQrFk3DIY8P3r16NUsKRhxWVFeXPXK/hMUg3F/zGkC69KsWQ
;cMqHxeH5qBsRI+CXVDUUBi6cz9GDi5b3/abTiGsdQGW2nGG0sBqo60Lj4UZmpRQlzjz/R9SeYfEa4FZ
;4mixT1QZcYbYAybibchL3sWNTQ1PYGj8w8ignh3wGI4jbHCBkR8zRlbNpCGtC8mHhQ3NCwmgaORHzmP
;e3nHawC0tsUhUmj3HVEOmY2KKCQadllRLD+Ao4d9S+Z9bMdhAIK+ywZEZM0QUxqqjbssKBdxNTYsPZu
;jkX0plHZz8WAfn7XeN1Zg9w9XDJmEphIsEmZGQCw/gaODfUvmfWzHaDiCvt8wU2n3GVEIl4SwTUh7FB
;Y0LD3izPAOP49xefFgCYqywDxoZcYaVgWZt6YkJBx4UGtAVO/GoH1J5h89rgVniL/NKkNlxhtgDJuJt
;yEvJH1bUkVR7fziFCWBc3vxaQ6FtZ5ZNQyocj9p9Yu6IiYkfFBVSGLtyvcJS+QfHroFZ+uzwzZbZcYb
;YA+UhookJBhmUFVfWIGhkH1Q5h8ezWoIh7nCPmh82hVRHYaYsCguJGdZW1tZ7tT/fUnnHy2uBWePtcI
;qUlPbCU8ZmpqhEiMVclxYQGL00PQiJ49xe91aDoWPxDBQZPcYWgeGgaE0FRxmXFAsP4Cjs31L5nt7wH
;YCtKPZKUdj2ghgBZSRsD85JHZaQFhS7Pz0EyqEc3uuB2frwaxZN2nGHV0FkLeiJDoeS0FbW1jzo5N9S
;/MfHq5gH5+13jdWYPcPVwyZhKYSLBJmRkAsP4GjtH1L5npm2ncSj7XeBkR7wQhcAaqLuiImEnpSa05Y
;58zjGBSVaHfaZg/r0q1ZEQyofFoRgZqgKS8JS0ZDRUniy84eJIlzd8BiOIO1zS1CfPcdWx+UhrYoSnk
;UNRQsPYHG6Qk5k3t73FoUnLnYOl9TyxNQBZyGshIjFXVWQEVL5KOTfEvOHx6uYB+fotk9Un73D0gAgY
;u9EikUe1ldQlre0/APILlycdhgOI6+zTtbaah+P2nR6NVNLwNgR0FIWPP84goiknx28XYThKDzLl58z
;SNICJmEijklDHFHNC48gayRfUuAfnDxZwuCoPM8WW3KEFpp9+nVX0p7FFNVQmLizP4RIoh4QctrBom8
;yVk1Dah3P2n1jrQjFR56VFZAWOWjk3xL9R8ermMGhb/KP2hryxNbDKqNuywoF3E1Ni09mKORfS2PbW3
;aWguKqckraH/AGVMFhrewIysZeFA0Lj2BlpF9S4B2bN1xOIex1TxFU9sTUwCRt7wjLBJ4WWtJRfXR5A
;4iiXFB2WwDn7jzK1Z4wRNgDJuJtyEvexY1NAw9gaP3FDO5d3Hcdw6JvMkGUnTcGVEanJ6wEjkPfUFXR
;FTvxJF/S+YCHq4FAYKo8zFYftoVXQWQt6AjIxR6alVAUd7X6A0uuX4erARn9tCsWVFl0CNXBoeavC8m
;HktAWkVS7/zwESe5a2feYDiJ0K5ZNxGofD8PnJCKJSUJZlxWQFje1v8UJIhAcdhgFYex3ClSaKh+P2n
;v6NVNLBJsalxDT/PK8xEuuWpty1oIm7XCBlVl3A8/a/Xozk1Ke3JZW1tP4Nf0IjmDbHvaWgCIv8g8aG
;nGHV0FkOjXTEp0FDU0S1zx/PcUJ4pAbcZgC4ejrFs2DLF8P2mSiaUSLBJ4WWtfVO/E/RgUg2dq3HAUg
;r/CWTUMqGA/afWPtiIuHktTXUBY78L8GBSAcGzDZBO0tcI4VWDNfD1p9fPVTUoSelNdQFHekqFNFJNs
;e/F2CIe5yAZeYs4VUwX16tRNXHsUNV1CW+jP/SIqgn5u2mwRjo/JN1ZuxBk/a/Xo8U1Ke31bUkVR7fz
;yEiWFenDadw6Ij982W2XMI0oakLeyLDokclxYQD2Do5FlS+Yfd8BjDoe88zpYYsYZXB2qjbspOhR9W0
;BfPYOjkXFL5h93wGMOh7zzP15+2wg/a/Xoz01Ke31bUkVR7fziFS6Kc23xcBSOj8s4R1POFVMF9erUT
;W97FDVdQlvoz/0iPpV6QcJsCY6j8zBZU8AVWAGqjLAjORJgTGtLT+jHkX9K5gUergUOhaPJK0NTwBle
;HYCYiiopFHBQa0lT4MH9GEvkHh6gBWfrud42WWXGG2AMm4m3IS97FjU0Jz2Bo/sYOY1Ae8BkBYe1rFs
;3DLR8P2mZiawoOCR8UF1LVfX88Bkqlmt32GA4jr7NO1tpqH4/ae7o1U0mGm1QRnNO6cb9ETi5cGzKYB
;W0v9wtXmHBBlpp9+nVUUp7FFhbSFTnyvQPFJV3e8JpFLS9yStQafcMXhuQhqFNSHsUOzQsPe/M5SI4h
;2l78XYTiqTJWTUMqHc/afWHujcvJGddXUlR5aOTfUvwHx6uahGOosQ4WWv3D1cMmYSmEi8VdVdYST2D
;opFdS+YfcdhgFYOxwj5of8AZUwWGt7MsJCRnRVFJWd7G/xwpinoerAVn89CsWVh6zQ5NAJGNiisjF3V
;YUUJJ3sb/HCmKeh6sBWfy0KxZWHrNDk0AkY2KKyMXdVhRQknexv8cKYp6LK4HZuvKrFk3fNoVUR2qmL
;Q/PghLRlFdSOTN8hgUiW16y3dn6dCsVjcMqA5eD4G3vigvC0tdW0BY8qOTfUvyHx6udwaNpPM2QWnaD
;lYNkLewIysZeFA0LjyBi5F9S5R6atxkBJ+5wzdobd4TVg2qnbsjLxhxRkdNT/j8+BMUlWpu3moVn+Gs
;WzcMgHw/aYeNoT8rGGBcW0Ji4NX+FC+5anDAYASOo984RXX3FVE2hp2lPSUJYAc0Lj2BsZF9S5R6atx
;kBJ+5wzdob8cRXQCbj9VPSnsFNTQsT+TX4xwoknZxwFoChbHONVIMqn0/evXo1T8vD2ZUV1hU7s3OGC
;WHfXLLWlXr0q1ZEwyofE0MgZq0Lj4Se1trSVPgwf0YFIR6eMF3ArS/2S1SfvcPVwyZhNVPS3sNNTQsT
;+TX4xwoknZxwFoChbHONVJTxwlLGpyMsE1IehQjNCw988blDyqFa3fBaziHsdU8RW/AHVEOkOjXTEpu
;FDU0Xlj10fAeP49wcPFrCJ+PxTdEZcwZP2v16M5NSntmUEBeXOLX+BIluWV2wXU4hL7AIGh/xxBWDcT
;o10xKYBQ1NF5Y9dHwHj+PcHDxfw+EoPM2WWDRI0wGmYGxf0p5FTUtLD2B0PQJP49xefFgH5+i2T1Sfv
;dOYAybibchL3sWNTQ+PYGj4hYilGtByGoViLXzPFltyhBaaffo1VhKexRGWU1R7fz3GCqSamzLdjiOv
;s07W2mofj9p1+jVTTkWdVlYc1vkwuUIOYNsQcdrAYK8wAZFbdwVUDaQhrQvJh4UNzQsMYGjkQ4kinZ6
;8WcIn6TDNDcOqXwmafXopiImEnBqXUJb6M/9Ij6VekHJZBe0tsU1WwyqfT9g9ejVPiUXfVFrWFLxo5N
;8S+8fHq52F4KizTVeds18PWn15NVNSghkQEZfYuTN8B8ngx8crwVw69CsKkJ82BNNHaqJsSw6D31DUX
;NY78LzES7mHR+uC2fr0N8sR3zHDks2kIa0LyYeFDc0LBCBo5EOPpZvcdxxOIK+yjBbYPcJTAyqhLwjL
;whLXFpzVejE+SIvg3Ftx3EetLfeMFMMqn0/cfXo1T4/C2RaRlhi7cbwFjK5fHHAawKIpMU2WQyqfD9w
;9ejVPj8LZFpGWGLszPUULY96bPFiAoW13jhDaah+Pmnr6NVNOQ5kRVteSd7Q/BwnikB4wmoGn7XIBlF
;pyQhKG5Cb1U9LewM1NCxJ5M7hGDmHa2vcYDiHud8taGnGHV0FkOjXTEppFDU0WFjs0/QPKpJqbMtaCo
;q+2ThbDKp8P2P16NU6IwtxakBDSuTRkX9L5j8ergUQgqDJBkNj3xlNNpOBrSguJGRaR0VJ6Mz/Ii6If
;nzCYGfp0KxINwyoH14dkI+6PzMkelRZSWLpxul9SPYfHq41V93inGkBT5hMCFzF2ON4SnIUNTRJU+WN
;9h4kgnoerSlm69DrYAYsky5aBZScvDsvW2RaR0VJ6Mz/FCWBFVmfJSLG4owfBTuYTB9Sp42hPysYYBV
;VDF/o15s6esZaM5wlPdv+nnlxPpxMD0nOurA5OBp3QRRNU+WD4xwilXo+9A8g2vD0bBdVnVx5WsXY5W
;1xLH1FUQxS9NebOnrGRSueJVy5scUqUizyXFIGh43fCnNLNA51Tk7uz+QJLsZvcd1sE4K/wjdeYs92N
;S7EyI19aiImBwQMBtHR9A4uiGs+3ncOhaSmFAY8nlxsWdXTgTg4FTlaUkod58L/dwbXLyqOVlfL6/gs
;RWKFE1kP1YC6OS8VcD95HQmxg8JNa91La9xrSoS2ynlVacx2NSTN3PUVaiI0cBQXeejQ8B8ngz9/wml
;HmKTJKUdp2g8fC4Cc9RdKcRQ1NElT5ZG/GiiJe3uuBufr0KwUBT6ZXGtZ1bvkfXpxWQcGHR3VkrEuet
;YvFOM0V9/w+GkXX5h2cljF3PUZe1tHBT5hDLWTsS577FIvnjJtrOmdU3A9iDkSWNWu5n16cVMEFHYWs
;Y2kXQ7LKj73KFXb8OoiQ37JCloFqpulKC8faT9zHgWh+6FdEtYVU5YxbazpnFkiDKh8WhGBmqApLwlL
;RkNFSeLLvxooiXt7rgZn69CsWTkMqHxZCJu3pj0vHnBqWEVO9aOSckvmHy+VN1LQ4pdsBzebRw5Zxej
;ETUp7clxYTVDkzeUiP59ve/F2E5nQr1M3DKgscyjV2ft6fxZ5NSYsPYHF+BEqi3pw2loTkqDJBkR42k
;4/av/o1U0aN1UVBQIKtM78fWvmHx7IbBWYpPM1VnXNDmAamoS8KRUSelNdQFHe0/AJP4NtcK4GYuvQr
;BVeYs0PP3z16NUqKRRwUGtKVO3G/xwmg0B4wXcKiqSsWlAMqHxEDpaHsSgVHX1ZUUJc7MbOCiKSd3Hb
;cTiOqNgkaHfFHVwBnIawEj4CZFBrTV/j0fQLIodrd8FrGrSryjBbbcUZUR2qhrQgLyR1V1ZeWPfK8Ak
;iiXEv01och7HVPEVTwBlWDp2cqCAnewU1NCxa4sz1GBSWcG3adRWEs8kqRAyrfD9p9ejfTUp7c1ZbSF
;je1+gNLuYcGK4FZ7m13AtWfKhtP2n1gbsrIxd4alVCWu3GzhEilWserQNn69CYbAw9m0k/fPXo1SQkH
;X1ZWHNZ9ML9Ii6ea2zbdg6EvqxaOwyofH4FmciwNT4JYVFRXj2Po5F9Ioh5d8JpOJux2C1SfsZ8PGz1
;6NUBIxVxRjQ+PYGj/Rwyg21BzW0GhbfJd1Bvxxhaafbo1U1Kewk1NCxR4Nr0DxSVa3/ccTibv8U3Q1P
;bGV4Eqou6PyQeZjU3Kj2Bo8MYLYp6Zq4VZ+vQwzZNafcPVwCQhLESPgJkUDQvNIGjkSoqknps6GQLh9
;C9WTcM2B1KGpC3vSgjHHxBa0BU8teRfkvmHx6uFGfr0Nw1VnjOE00EqomxKSMPfVpaLD6Fo5F9BYlxe
;64UZ+vQ3DVWeM4TTQSqibElLwh9WlosPoWjkX0FiXF7rgln69DcK15i3BlNNoGRpShKeB81NCx478f0
;D2vVP1DLcWf40KxZRW3OCGANgIm5Ei8DYEdBX1TuzZF+ReYfHuhsFZikjDxPeNoJWwyH6MZNSntmVFJ
;YYujN9xQnikBuz3ETjqLCWTQJqHw/JZyGsD5KaxQ1NF5Y9dHwHj+PcHCAYgSEtMlZNAyofD9p4ejVTT
;kQfUdAc1n0wv0iLp5rbNt2DoS+rFo5DKh8eQCHm6FtLwNgR0FIWPOjhn1L5mxxwmwDtLnCP15gxCNeB
;5KEsBImEmdBNC87gaORSX7dLi2bBXPr0KwqWGDBGGAAm468ISYkZFRAWFjzzZF+QOYfHvxgBJ+5wDBZ
;ackOP3L16NU+JRd9UWtFU+fK/REUln5q2mAVhY/ONkN4xxE/av7o1U0YHndBXUBU78bwD0vtHx6udhO
;Koth3UG/HGFpp9hPUTUpANHBaSFjzg6JdCJNsasFoR7ikzStDLO9RXAaRjd8Kc0k0cAQMBqHx9A4ukj
;9b1nEVnrTJKz1LmkQfUtWguiAvW3VZWAxc+cbidwzXP0ScK1fLlp9pBzyIRx8kmp6wbRBbVU1dXx300
;7ERIpJrcsslE4Tw3CtSes0SS0mGi6csPhh8XFpLHe7FsTUuh2s+7GAD4ZedeW88hk0fMMfY9Rd6VScV
;chkNsZO/TWvdP1PBcwLLpMN5RHjJDktJhYemJD4Se1s+awyh+6FTesZGLJ41Sdvw9mkZP4g6DlzF2Pt
;9aj4lABQXHcXR8Aprknd7jmMOmaPYeVtlxhk1LsTIjX1kTzRsBhwNr5OxJ3vILD7oMFfb4IJpFzeIMV
;AfkMihImoIfVFRDFyhz/gJP4p6FOk0R7Pggm0XVZpMHzPFxuZtDEohBQQCDaHmok1r3T9a3GQQy6TEP
;Bd/zR9QB5HIuSQkHh5yDR4dxJOxRmu0em3LcUeuqNgrQmjNDjUuxMiPf2RLNHMHHA2xg6pdBolpe45f
;R6qoxSoXedhcUwCBnLkoag97FUReWPfG/wlrlXxsz3EEg7nCPhdjzlx3DJSc9Q8vHx5yBQxltIPIT3v
;GRSyANUet5ZxpByKYXARJuIejKGoUYlBGDEnug+EPLpB6cNolBYe/znlEfd0VTAH15NVNSghgVEZYD6
;/E8hIvgx8dwgRn652ZbgUs7EwfOsXG5XRANiECBgx5sIPCTWXWJhTpN1bhl5VpPUGQTjUkxNjiRw1JL
;D9zHR3bkqRTe8ZZZdp3Bp21wAZEfM0ZWxT/vOVHDUImFXEcN8aSsSV41j9HgzdHreicaT1LmVxlWdvb
;4G0MSSQFPmsMofupSGu/MiyOQFbY8OprBzyiOw5JsNngbQxJJAU+awyh+aRdDdQvLqRCXtnw6Wk9S5h
;cekSOmrA5OBp3QV1DU97H5BwnuX5zwXAJn62MHwU8mHZrWP+v7H9qPiQ/cx0d2ZChTWu/MiyOQ1/b4K
;YeBizyTBFawMiTf3pLHnIFDGWylaFdEsstPus0VMuWnmkHBu9NHyzE3fULeEskP3MdHduWsTt51i8U6
;TxVy5WcU3A8iDkSEoeNoT8rGGBcW0Ji5dbwERSHcnHbaxOW8OprBzyiKA9jstn1CzEPZlRCSVHe0OEY
;LoJiFOM0Vtzw/CteYtwVUQ7bxvtNTXsUNUdZTfHM4wlL5RsergUphL7JWSsMqHxMHIWYuj8+JHBQWl9
;Y3sfkHCe5embadxKYucM3Nw+kfD9ptIS5bS8DYEdBSFjzo4N9S+Zsa951CJmk8z1SYtsZYB2MmLBNSX
;4UNTRgVO/G4n1d5h8e3XAXm7/eLWho3R1TNpCQoT8/CH1aWiw+j6ORfQ2PbW3aJQKTpN4sU2nafCZp9
;eimODoLe0dAc1TvxfgRJ7l+cMlpArS8xSpDDKt/P2n1xeF4SmsUNTRfSPHT/g8/uWxq3GQTjrfVWTQK
;qHw/J5qauCwmexg1NCxO9NPhEjmSQGrXdQLr06dZNwz6GVwdnIS8Iy8aZjUXLD2B0OQPLYd8e/F2CIe
;5yAZVY9wIUASqgbsrIxd4akRNSfXG4xNL5RoergUrgr7JKjcsqHw/GoCasywpHktGW0BU5fzlEju5dn
;DIbAuHj9w4Q3jNDlFp9u3VTUo3fVtRXz2Vo5F9P4Nybst3Bp+l3jxobs0YYAWcm6FNSXMUNTQdBrSTq
;k9w1h8LrgVnn7XBKVJ+yQhKG5C3uSgsD0tZXV9JgaCRfUvmHwiuBWeftcEpUn7JCEobkLenJC0TYGpY
;RU71o5J9S+YfHqEFZ+unxSlSU9wTSAyHt7giLh4UNjIsPYHt9A4/g3sevgVn66fFKVJT3BNIDIe3piU
;rC3E1Nyo9gaPSFDmFc3uuC2fr0NswR2n3C14Fmbe4Ii4eFDY+LD2B6v8JLpRzf81gA+verFk3Dqh8P2
;j16NULSnsUNDQsPY6jkX0Y5noe2gUT67msNzdrqFw/LvWa1SJKDhRFNAw9sKOQfUvmHx6uBXfr0KxZN
;wyofD9p9ejVTUp7FDU0LD2Bo156S+YUHq4FIoW0ySsXP4gyWh316NUmCXsUXncsPfvgkX1L5tLSYjtm
;69BkGzcMYD4+afXo1U2COhQ1NCw/gaORf0vmHx4qBmfq0KyRdgyofD9p9ejVgIa3KjU0LD2Bowo+S+a
;EXa4Fu6nkrFk3DKi0fWv16NVZSnsUNTQsPYGjpT9L5vdfrgVvqdCsVXUNqHw/afXo1U1KexQ1NCw9ga
;ORfV7hHx6uBWfr4axZNxyofD8ElIu9JCQeS1dVWVnzwuUYS+cfHq4FZ8vc7VkmDKh8UgiWgLwjLyR2U
;FBzTunC4RhL5x8ergVn69CsWSMMqHxSCJaAvCMvJHZQUHNJ5M7hIiaHZx6vBWfr0KzZbEyoaj9p9YW0
;LiISelBrT1Ls0/QTOIdrd8FrOJPQrVk3DKh8PzC16MNNSnt5VFdEVO/Gzh4ki297wHYGn7nDN2h1qH0
;/afXo1U0TOxQ4NCw97MLyFSKIekHKbAq0qKxYNwyofD8JmKjVQEp7FFhVT1XozfQiL49yQdcFZuvQrF
;k3bMU8P2T16NUgKxh8XFpJYuXK/CIx5h4ergVn65DDGTcQqHw/BJSLvSQkHktRXV9J4M3yGBSAbXHDW
;gWEosg8RQypfD9p9ejVTUp7ADU0LFDgwPkUJYNAe9ZxFZ60yStoYt0RP2j16NVNSnvkCjQ2PYGj/Bwo
;jnZwy1oCk6TeLFNp2iNQD5ObsDkVAyY1NSw9gaORfXKmHwSuBWeGsc8xXmLNI1oRgZqgKS8JS1pSSk7
;k184EeeYeHq4FZ+vQrFk3Hqh8PwSUi70kJB5LU11AXOzG/wkU1x8frgVn69CsWXcMunw/aZiJtiUjFX
;FqUkVR4M70Ez+5LR6vBWfr0KxZN0yoaT9p9YW0LiISelBrS1zv1+MEFI56d8ltE+vRrFk3DKh8Zin1/
;NVNShZ1VlxFU+T89h4kgnpBz2YTgr/CWTYMqHw/afXo1U1dexQ1WU1e6cr/GBSIcGTUaQK0tMU4Wmnc
;GU1p9OjVTerijewLLCSBo5EQKoV3d8BgOIW/1iNbafcYVgiYjaEoOCQmNTUsPYEDCOSS2R8HrgVnhrH
;PMV5izSNRBo+SuSgVD3FYRHNQ4NvOTEvnHx6uBWeLo+xZLgyofFIIloC8Iy8kelpOVlHk/OUYJpZAc8
;99ONnQrVk3DKh8Xxq16MdNSnt5VFdEVO/Gzg05j3Fq8WgIj7WsWDcMqHw/afXo1WxKexRYVU9V6M30I
;juUcHPecTieo8kGRW3OCGAdnZqwPiIUeFE0LT2Bo5F9S79fHqMFZ+u9zTpfZcYZYBqBjaUoSnoUNTQs
;PYGjkX1p5h8ew2QEg7nCPGh6wQ5LHJSEiigyD2ZAUElP3sz3GziDa0HWN2fq0KxZNwyoRX9p1+jVTSc
;ad11dQlje1fgPP5N+cvFgH5+i2T1SfvcTWQ+GjaESM0kUNDQsPYGjkX1L5j8ergUKirPEMFlp9x9KGo
;GHuBI6CX1bQEVT5vzhDyKJbXfafGfp0axBNwyoEV4KnYG7KBUfdUFVc17uzeUYJZJAf8phZ+nRrEw3D
;KgRXgqdgbsoFR91QVVzW+jP9CIqgnserARnz9CsWVptyxRWB5C3sDU+CWFRUV5i8tT4CSiOQGnPbBO0
;uMk4Q2XGGz9r9ejGTUp7eVRXRFTvxs4bKohAfcFrE5m/wFk1DahhP2n1hbQuIhJ6UGtLXu7H9CIuuXJ
;rwnEOm7zVBlFgxws/a/XoxU1Ke3lUV0RU78bOFS6Ha0HMYAPr0q1ZJAyofFIIloC8Iy8kfVFRVGLy2u
;IJLosfHK4Fe+vQrDRWb8AVUQyqh7gkPiRmVF1fWPXM5B4juXxxymBn6dCsTjcMqBFeCp2BuygVC2ZaW
;VxJ3tbiGBSUfnjaBWXr0IZZNwzFHVwBnIawEjoJe1hEWGL00PQiOYd5avFhEpu8xTpWeMETUTaYgac/
;JQkUNzUsJ4GjkRAqhXd3wGA4mbXAOENl3hlgDI2cpzg5EntbNC49gYGRfUuLfn3GbAmOj9o4W2XMHUs
;MqpinJCQPfVtTc03zyv4PIpJmHqwFZ/zQrFlYes0OTQCRjYo+JhJ3UGtfWPXX+BMslR8crgVw69CsNF
;ZvwBVRDKqOvCErFnFbQHNT4M70InrmHBSuBWe7nO15BiKfSVIE9f/VTUoWdVZcRVPk/PcUJ4dye8BxO
;IWxwTxoPqh/NWn16IUBC1slGwMZUOyjgH1L5nJ/zW0OhbXzP15gzSNRCJiN1U5BexQ1cUJZ5NGxTmuo
;emquEGfr0ME4VGTBElo2k4GnID0aZlBrWETxxpF+TeYfHuNkFYe5wlk9DKh8UgiWgLwjLyR9UTQvGYG
;jkUV51ysqzTRWxuPJaVEhnB8JX9jR5it+ViZXAR8JuJSiTHLVKx68BWfrvc06X2XGGWAExNjlfBUYe1
;FRLD6Bo5F9S/QfHq5oBoi4xTdSU8VND1nHt7YiLh4UNjQsPYGjg31L5nJ/zW0OhbXzNAU8mExgCpqMs
;E1JexQ1NCwxgaORECqFd3fAYDifqdw8Nw+jfD9psIaxKDhbJxV6SUmBupF9S4t+fcZsCY6P2CBHafcd
;XQuHjaMkKw99WlosPpGjkX0IlHp/wmwTkvDpN1Np2lwMafXo1U1KexQ1JCw9gaORfUvmHx6uBWfr0Kx
;ZNwzifj9p9OjVTQx5FDU+LD2B8908a9cxKZtoCuvQrLkIDKjne2n1/pZNSotVNZSgeIEbmTpL5rtcUQ
;Rn69CsWTcCqHw/efXo1SsjF3VYUUJJ3sf0EziPa2euBGfr0KxZV5/ofC5p9eizJCYaeVBaWGLlyvAQL
;pJ6bK4EZ+vQrFk38Jd8Lmn16LMkJhp5UFpYYufP/go5h2t7rgRn69CsWbdY6HwxafXosyQmGnlQWlhi
;8dH4Hi7mHh6uBWfr0JIZNxuofD8Gg42nPyMfcWpHQFTixs4OLpJrd8BiFOvSrFk5DKh8WQCZibgoJA9
;LV0ZNU+WjknpL5h9Mz2wUjuPoWSIMqHxZAJmJuCgkD0tRXV9N7cLoIiWHcnuuBnPr0KwCZW3BD1pasb
;X1HQY6NAQaGwjszpFvS+YfeMdpBoa1wi1oasEQWjabibgoSngeNTQsbc3isUxl0SpzwwV169CsP15gy
;RFaB4G3si4lH3FqUUJZgaCRfUvmHwquBWeNucA4WmnGCGAOloexKBUIYFRGWD2Co5F9S+YUHq4FAYK8
;zTRSYtwjVg316/FNSnsgVw1IW7aa81B5gn4ugzECjeSBOAE9n1EMWMCL7Sl7SyEDVk49jKORfS2Pc3/
;DYAmfj8I4WmmofzVp9eiFAQtbJRsDGVDso4t9S+Z5d8JkCo6+2AZZbcUZYAiXiqcoPBJ1QV1DU4Ggkn
;1L5k9S7wVp69CsP15gyRFaB4G3uyI+Hmc1Nyw9gaORfUvmHx6uBWf70KxZNwyofD9p9ejVTUp7FDU0L
;D2Bo5F9S+YfHq4FZ+vQrFk3DKh8
;Data end
;
;Print Time: 383
;Material#1 Used: 113.2
;Material#2 Used: 0.0
;Material#1 Cost: 0.01
;Material#2 Cost: 0.00
