;Sliced by ideaMaker 3.6.1.4415, 2020-10-11 05:50:30 UTC+1000
;Dimension: 235.000 235.000 250.000 0.400
;Plate Shape: 0
;Extruder Offset #1: 25.000 0.000
;Filament Diameter #1: 1.750
;Filament Diameter #2: 1.750
;Filament Compensation #1: 82.00
;Filament Compensation #2: 90.00
;Filament Density #1: 1240.00
;Filament Density #2: 1240.00
;Bounding Box: 32.260 141.760 14.400 140.600 0.000 0.200
;Model Gap: 0.000
M221 T0 S82.00
M140 S70.00
M104 T0 S210.00
M109 T0 S210.00
T0
M190 S70.00
; Ender 3 Custom Start G-code
G92 E0 ; Reset Extruder
G28 ; Home all axes
G1 Z2.0 F3000 ; Move Z Axis up little to prevent scratching of Heat Bed
G1 X0.1 Y20 Z0.3 F5000.0 ; Move to start position
G1 X0.1 Y200.0 Z0.3 F1500.0 E15 ; Draw the first line
G1 X0.4 Y200.0 Z0.3 F5000.0 ; Move to side a little
G1 X0.4 Y20 Z0.3 F1500.0 E30 ; Draw the second line
G92 E0 ; Reset Extruder
G1 Z2.0 F3000 ; Move Z Axis up little to prevent scratching of Heat Bed
G1 X5 Y20 Z2.0 F5000.0 ; Move over to prevent blob squish
M1001
;LAYER:0
;Z:0.200
;HEIGHT:0.200
M106 S255
G4 P500
M106 S64
M140 S50
G1 F3000 E-5.0000
G0 F4200 X46.440 Y32.769
G0 F900 Z0.200
;TYPE:WALL-INNER
;WIDTH:0.400
G1 F1500 E0.0000
G1 F600 X45.856 Y33.082 E0.0220
G1 X44.094 Y33.617 E0.0833
G1 X42.260 Y33.797 E0.1446
G1 X40.426 Y33.617 E0.2059
G1 X38.664 Y33.082 E0.2671
G1 X37.039 Y32.214 E0.3284
G1 X35.615 Y31.045 E0.3897
G1 X34.446 Y29.621 E0.4509
G1 X33.578 Y27.996 E0.5122
G1 X33.043 Y26.234 E0.5735
G1 X32.863 Y24.400 E0.6348
G1 X33.043 Y22.566 E0.6961
G1 X33.578 Y20.804 E0.7573
G1 X34.446 Y19.179 E0.8186
G1 X35.615 Y17.755 E0.8798
G1 X37.039 Y16.586 E0.9411
G1 X38.664 Y15.718 E1.0024
G1 X40.426 Y15.183 E1.0636
G1 X42.260 Y15.003 E1.1249
G1 X44.094 Y15.183 E1.1862
G1 X45.856 Y15.718 E1.2475
G1 X47.481 Y16.586 E1.3088
G1 X48.905 Y17.755 E1.3700
G1 X50.074 Y19.179 E1.4313
G1 X50.942 Y20.804 E1.4926
G1 X51.477 Y22.566 E1.5538
G1 X51.657 Y24.400 E1.6151
G1 X51.477 Y26.234 E1.6764
G1 X50.942 Y27.996 E1.7377
G1 X50.630 Y28.580 E1.7597
G1 X47.501 Y28.580 E1.8638
G1 X47.160 Y28.648 E1.8753
G1 X46.922 Y28.772 E1.8842
G1 X46.696 Y28.980 E1.8945
G1 X46.531 Y29.249 E1.9050
G1 X46.458 Y29.478 E1.9130
G1 X46.440 Y29.673 E1.9195
G1 X46.440 Y32.269 E2.0058
G0 F600 X46.440 Y32.769
G1 F3000 E-2.9942
G0 F4200 X46.840 Y33.009
;TYPE:WALL-OUTER
;WIDTH:0.400
G1 F1500 E2.0058
G1 F600 X46.010 Y33.453 E2.0371
G1 X44.172 Y34.011 E2.1010
G1 X42.260 Y34.199 E2.1649
G1 X40.348 Y34.011 E2.2288
G1 X38.510 Y33.453 E2.2927
G1 X36.816 Y32.548 E2.3566
G1 X35.331 Y31.329 E2.4205
G1 X34.112 Y29.844 E2.4844
G1 X33.207 Y28.150 E2.5482
G1 X32.649 Y26.312 E2.6121
G1 X32.461 Y24.400 E2.6760
G1 X32.649 Y22.488 E2.7399
G1 X33.207 Y20.650 E2.8038
G1 X34.112 Y18.956 E2.8677
G1 X35.331 Y17.471 E2.9316
G1 X36.816 Y16.252 E2.9955
G1 X38.510 Y15.347 E3.0594
G1 X40.348 Y14.789 E3.1233
G1 X42.260 Y14.601 E3.1872
G1 X44.172 Y14.789 E3.2511
G1 X46.010 Y15.347 E3.3150
G1 X47.704 Y16.252 E3.3788
G1 X49.189 Y17.471 E3.4427
G1 X50.408 Y18.956 E3.5066
G1 X51.313 Y20.650 E3.5705
G1 X51.871 Y22.488 E3.6344
G1 X52.059 Y24.400 E3.6983
G1 X51.871 Y26.312 E3.7622
G1 X51.313 Y28.150 E3.8261
G1 X50.870 Y28.980 E3.8574
G1 X47.540 Y28.980 E3.9681
G1 X47.294 Y29.029 E3.9765
G1 X47.154 Y29.102 E3.9817
G1 X47.008 Y29.237 E3.9883
G1 X46.897 Y29.417 E3.9954
G1 X46.852 Y29.558 E4.0003
G1 X46.840 Y29.691 E4.0047
G1 X46.840 Y32.509 E4.0985
G0 F600 X46.840 Y33.009
G1 F3000 E-0.9015
G0 F4200 X36.368 Y31.560
;TYPE:SOLID-FILL
;WIDTH:0.400
G1 F1500 E4.0985
G1 F600 X35.097 Y30.289 E4.1583
G1 F3000 E-0.8417
G1 F900 Z0.500
G0 F4200 X34.011 Y28.637
G1 F900 Z0.200
G1 F1500 E4.1583
G1 F600 X38.021 Y32.647 E4.3469
G1 F3000 E-0.6531
G1 F900 Z0.500
G0 F4200 X39.055 Y33.115
G1 F900 Z0.200
G1 F1500 E4.3469
G1 F600 X33.542 Y27.602 E4.6062
G1 F3000 E-0.3938
G1 F900 Z0.500
G0 F4200 X33.294 Y26.789
G1 F900 Z0.200
G1 F1500 E4.6062
G1 F600 X39.869 Y33.364 E4.9155
G1 F3000 E-0.0845
G1 F900 Z0.500
G0 F4200 X40.626 Y33.555
G1 F900 Z0.200
G1 F1500 E4.9155
G1 F600 X33.102 Y26.031 E5.2694
G1 F3000 E0.2694
G1 F900 Z0.500
G0 F4200 X33.040 Y25.404
G1 F900 Z0.200
G1 F1500 E5.2694
G1 F600 X41.254 Y33.617 E5.6557
G1 F3000 E0.6557
G1 F900 Z0.500
G0 F4200 X41.881 Y33.679
G1 F900 Z0.200
G1 F1500 E5.6557
G1 F600 X32.978 Y24.776 E6.0745
G0 F4200 X32.961 Y24.193
G1 F600 X42.464 Y33.696 E6.5215
G0 F4200 X42.979 Y33.645
G1 F600 X33.012 Y23.678 E6.9903
G0 F4200 X33.062 Y23.163
G1 F600 X43.494 Y33.595 E7.4810
G0 F4200 X44.009 Y33.544
G1 F600 X33.113 Y22.648 E7.9935
G0 F4200 X33.234 Y22.203
G1 F600 X44.454 Y33.423 E8.5212
G0 F4200 X44.887 Y33.291
G1 F600 X33.366 Y21.770 E9.0632
G0 F4200 X33.499 Y21.336
G1 F600 X45.321 Y33.159 E9.6192
G0 F4200 X45.755 Y33.027
G1 F600 X33.630 Y20.902 E10.1896
G0 F4200 X33.817 Y20.523
G1 F600 X46.134 Y32.840 E10.7689
G0 F4200 X46.359 Y32.500
G1 F600 X34.013 Y20.154 E11.3496
G0 F4200 X34.211 Y19.786
G1 F600 X46.359 Y31.934 E11.9210
G0 F4200 X46.359 Y31.368
G1 F600 X34.407 Y19.417 E12.4832
G0 F4200 X34.632 Y19.076
G1 F600 X46.359 Y30.802 E13.0348
G0 F4200 X46.359 Y30.237
G1 F600 X34.887 Y18.765 E13.5744
G0 F4200 X35.142 Y18.454
G1 F600 X46.359 Y29.671 E14.1020
G0 F4200 X46.461 Y29.207
G1 F600 X35.397 Y18.144 E14.6224
G0 F4200 X35.652 Y17.833
G1 F600 X46.692 Y28.873 E15.1417
G0 F4200 X47.016 Y28.631
G1 F600 X35.959 Y17.575 E15.6618
G0 F4200 X36.271 Y17.320
G1 F600 X47.456 Y28.506 E16.1879
G0 F4200 X48.016 Y28.499
G1 F600 X36.581 Y17.065 E16.7257
G0 F4200 X36.891 Y16.810
G1 F600 X48.581 Y28.499 E17.2756
G0 F4200 X49.147 Y28.499
G1 F600 X37.224 Y16.577 E17.8364
G0 F4200 X37.594 Y16.380
G1 F600 X49.713 Y28.499 E18.4064
G0 F4200 X50.278 Y28.499
G1 F600 X37.962 Y16.183 E18.9857
G0 F4200 X38.331 Y15.986
G1 F600 X50.673 Y28.328 E19.5662
G0 F4200 X50.868 Y27.958
G1 F600 X38.701 Y15.791 E20.1385
G0 F4200 X39.134 Y15.658
G1 F600 X51.000 Y27.524 E20.6967
G0 F4200 X51.132 Y27.090
G1 F600 X39.568 Y15.527 E21.2406
G0 F4200 X40.002 Y15.395
G1 F600 X51.264 Y26.657 E21.7703
G0 F4200 X51.396 Y26.223
G1 F600 X40.435 Y15.262 E22.2859
G0 F4200 X40.950 Y15.211
G1 F600 X51.447 Y25.708 E22.7796
G0 F4200 X51.498 Y25.194
G1 F600 X41.465 Y15.161 E23.2516
G0 F4200 X41.980 Y15.110
G1 F600 X51.549 Y24.679 E23.7017
G0 F4200 X51.548 Y24.113
G1 F600 X42.547 Y15.111 E24.1251
G1 F3000 E19.1251
G1 F900 Z0.500
G0 F4200 X43.174 Y15.173
G1 F900 Z0.200
G1 F1500 E24.1251
G1 F600 X51.486 Y23.485 E24.5160
G1 F3000 E19.5160
G1 F900 Z0.500
G0 F4200 X51.425 Y22.857
G1 F900 Z0.200
G1 F1500 E24.5160
G1 F600 X43.802 Y15.235 E24.8746
G1 F3000 E19.8746
G1 F900 Z0.500
G0 F4200 X44.533 Y15.400
G1 F900 Z0.200
G1 F1500 E24.8746
G1 F600 X51.258 Y22.126 E25.1909
G1 F3000 E20.1909
G1 F900 Z0.500
G0 F4200 X51.011 Y21.312
G1 F900 Z0.200
G1 F1500 E25.1909
G1 F600 X45.346 Y15.648 E25.4574
G1 F3000 E20.4574
G1 F900 Z0.500
G0 F4200 X46.324 Y16.060
G1 F900 Z0.200
G1 F1500 E25.4574
G1 F600 X50.599 Y20.334 E25.6584
G1 F3000 E20.6584
G1 F900 Z0.500
G0 F4200 X49.785 Y18.956
G1 F900 Z0.200
G1 F1500 E25.6584
G1 F600 X47.703 Y16.873 E25.7564
G1 F3000 E20.7564
G1 F900 Z0.500
G0 F4200 X128.164 Y33.082
;TYPE:WALL-INNER
;WIDTH:0.400
G1 F900 Z0.200
G1 F1500 E25.7564
G1 F600 X127.580 Y32.769 E25.7784
G1 X127.580 Y29.651 E25.8821
G1 X127.533 Y29.366 E25.8917
G1 X127.405 Y29.087 E25.9019
G1 X127.239 Y28.888 E25.9106
G1 X126.981 Y28.704 E25.9211
G1 X126.695 Y28.598 E25.9312
G1 X126.486 Y28.580 E25.9382
G1 X123.391 Y28.580 E26.0412
G1 X123.078 Y27.996 E26.0632
G1 X122.543 Y26.234 E26.1244
G1 X122.363 Y24.400 E26.1857
G1 X122.543 Y22.566 E26.2470
G1 X123.078 Y20.804 E26.3083
G1 X123.946 Y19.179 E26.3695
G1 X125.115 Y17.755 E26.4308
G1 X126.539 Y16.586 E26.4921
G1 X128.164 Y15.718 E26.5534
G1 X129.926 Y15.183 E26.6146
G1 X131.760 Y15.003 E26.6759
G1 X133.594 Y15.183 E26.7372
G1 X135.356 Y15.718 E26.7984
G1 X136.981 Y16.586 E26.8597
G1 X138.405 Y17.755 E26.9210
G1 X139.574 Y19.179 E26.9823
G1 X140.442 Y20.804 E27.0436
G1 X140.977 Y22.566 E27.1048
G1 X141.157 Y24.400 E27.1661
G1 X140.977 Y26.234 E27.2274
G1 X140.442 Y27.996 E27.2886
G1 X139.574 Y29.621 E27.3499
G1 X138.405 Y31.045 E27.4112
G1 X136.981 Y32.214 E27.4725
G1 X135.356 Y33.082 E27.5337
G1 X133.594 Y33.617 E27.5950
G1 X131.760 Y33.797 E27.6563
G1 X129.926 Y33.617 E27.7176
G1 X128.642 Y33.227 E27.7622
G0 F600 X128.164 Y33.082
G1 F3000 E22.7622
G0 F4200 X128.010 Y33.453
;TYPE:WALL-OUTER
;WIDTH:0.400
G1 F900 Z0.200
G1 F1500 E27.7622
G1 F600 X127.180 Y33.009 E27.7935
G1 X127.180 Y29.684 E27.9041
G1 X127.147 Y29.484 E27.9108
G1 X127.064 Y29.302 E27.9175
G1 X126.965 Y29.184 E27.9226
G1 X126.792 Y29.061 E27.9297
G1 X126.606 Y28.992 E27.9363
G1 X126.469 Y28.980 E27.9408
G1 X123.151 Y28.980 E28.0512
G1 X122.707 Y28.150 E28.0825
G1 X122.149 Y26.312 E28.1464
G1 X121.961 Y24.400 E28.2103
G1 X122.149 Y22.488 E28.2742
G1 X122.707 Y20.650 E28.3381
G1 X123.612 Y18.956 E28.4020
G1 X124.831 Y17.471 E28.4659
G1 X126.316 Y16.252 E28.5298
G1 X128.010 Y15.347 E28.5936
G1 X129.848 Y14.789 E28.6575
G1 X131.760 Y14.601 E28.7214
G1 X133.672 Y14.789 E28.7853
G1 X135.510 Y15.347 E28.8492
G1 X137.204 Y16.252 E28.9131
G1 X138.689 Y17.471 E28.9770
G1 X139.908 Y18.956 E29.0409
G1 X140.813 Y20.650 E29.1048
G1 X141.371 Y22.488 E29.1687
G1 X141.559 Y24.400 E29.2326
G1 X141.371 Y26.312 E29.2965
G1 X140.813 Y28.150 E29.3604
G1 X139.908 Y29.844 E29.4242
G1 X138.689 Y31.329 E29.4881
G1 X137.204 Y32.548 E29.5520
G1 X135.510 Y33.453 E29.6159
G1 X133.672 Y34.011 E29.6798
G1 X131.760 Y34.199 E29.7437
G1 X129.848 Y34.011 E29.8076
G1 X128.488 Y33.598 E29.8549
G0 F600 X128.010 Y33.453
G1 F3000 E24.8549
G0 F4200 X123.817 Y28.499
;TYPE:SOLID-FILL
;WIDTH:0.400
G1 F900 Z0.200
G1 F1500 E29.8549
G1 F600 X123.095 Y27.777 E29.8888
G1 F3000 E24.8888
G1 F900 Z0.500
G0 F4200 X122.847 Y26.964
G1 F900 Z0.200
G1 F1500 E29.8888
G1 F600 X124.383 Y28.499 E29.9611
G0 F4200 X124.949 Y28.499
G1 F600 X122.615 Y26.166 E30.0708
G1 F3000 E25.0708
G1 F900 Z0.500
G0 F4200 X122.554 Y25.539
G1 F900 Z0.200
G1 F1500 E30.0708
G1 F600 X125.514 Y28.499 E30.2101
G0 F4200 X126.080 Y28.499
G1 F600 X122.492 Y24.911 E30.3788
G1 F3000 E25.3788
G1 F900 Z0.500
G0 F4200 X122.451 Y24.304
G1 F900 Z0.200
G1 F1500 E30.3788
G1 F600 X126.661 Y28.514 E30.5768
G1 F3000 E25.5768
G1 F900 Z0.500
G0 F4200 X127.633 Y29.487
G1 F900 Z0.200
G1 F1500 E30.5768
G1 F600 X131.853 Y33.707 E30.7753
G0 F4200 X132.368 Y33.656
G1 F600 X122.502 Y23.789 E31.2394
G0 F4200 X122.552 Y23.275
G1 F600 X132.883 Y33.605 E31.7253
G0 F4200 X133.398 Y33.555
G1 F600 X122.603 Y22.760 E32.2331
G0 F4200 X122.707 Y22.297
G1 F600 X133.860 Y33.451 E32.7577
G0 F4200 X134.294 Y33.319
G1 F600 X122.838 Y21.863 E33.2966
G0 F4200 X122.970 Y21.430
G1 F600 X134.728 Y33.188 E33.8497
G0 F4200 X135.162 Y33.055
G1 F600 X123.102 Y20.996 E34.4169
G0 F4200 X123.274 Y20.602
G1 F600 X135.555 Y32.883 E34.9946
G0 F4200 X135.923 Y32.686
G1 F600 X123.472 Y20.234 E35.5802
G0 F4200 X123.668 Y19.865
G1 F600 X136.292 Y32.489 E36.1740
G0 F4200 X136.661 Y32.292
G1 F600 X123.866 Y19.497 E36.7759
G0 F4200 X124.077 Y19.142
G1 F600 X137.015 Y32.080 E37.3844
G0 F4200 X137.325 Y31.825
G1 F600 X124.332 Y18.832 E37.9956
G0 F4200 X124.587 Y18.521
G1 F600 X137.636 Y31.570 E38.6094
G0 F4200 X137.947 Y31.315
G1 F600 X124.842 Y18.210 E39.2258
G0 F4200 X125.097 Y17.900
G1 F600 X138.257 Y31.060 E39.8448
G0 F4200 X138.529 Y30.766
G1 F600 X125.393 Y17.630 E40.4627
G0 F4200 X125.703 Y17.375
G1 F600 X138.784 Y30.455 E41.0779
G0 F4200 X139.039 Y30.145
G1 F600 X126.014 Y17.119 E41.6906
G0 F4200 X126.325 Y16.865
G1 F600 X139.294 Y29.834 E42.3006
G0 F4200 X139.539 Y29.513
G1 F600 X126.645 Y16.619 E42.9071
G0 F4200 X127.014 Y16.423
G1 F600 X139.736 Y29.144 E43.5055
G0 F4200 X139.933 Y28.776
G1 F600 X127.383 Y16.225 E44.0958
G0 F4200 X127.752 Y16.029
G1 F600 X140.130 Y28.407 E44.6781
G0 F4200 X140.327 Y28.038
G1 F600 X128.120 Y15.832 E45.2522
G0 F4200 X128.541 Y15.687
G1 F600 X140.472 Y27.618 E45.8134
G0 F4200 X140.603 Y27.184
G1 F600 X128.975 Y15.555 E46.3604
G0 F4200 X129.409 Y15.424
G1 F600 X140.736 Y26.750 E46.8932
G0 F4200 X140.868 Y26.317
G1 F600 X129.843 Y15.291 E47.4118
G0 F4200 X130.340 Y15.223
G1 F600 X140.936 Y25.820 E47.9102
G0 F4200 X140.987 Y25.305
G1 F600 X130.855 Y15.172 E48.3868
G0 F4200 X131.369 Y15.121
G1 F600 X141.038 Y24.789 E48.8416
G0 F4200 X141.061 Y24.247
G1 F600 X131.912 Y15.098 E49.2719
G1 F3000 E44.2719
G1 F900 Z0.500
G0 F4200 X132.539 Y15.159
G1 F900 Z0.200
G1 F1500 E49.2719
G1 F600 X140.999 Y23.620 E49.6699
G1 F3000 E44.6699
G1 F900 Z0.500
G0 F4200 X140.938 Y22.992
G1 F900 Z0.200
G1 F1500 E49.6699
G1 F600 X133.167 Y15.221 E50.0354
G1 F3000 E45.0354
G1 F900 Z0.500
G0 F4200 X133.858 Y15.347
G1 F900 Z0.200
G1 F1500 E50.0354
G1 F600 X140.812 Y22.301 E50.3625
G1 F3000 E45.3625
G1 F900 Z0.500
G0 F4200 X140.565 Y21.488
G1 F900 Z0.200
G1 F1500 E50.3625
G1 F600 X134.672 Y15.595 E50.6397
G1 F3000 E45.6397
G1 F900 Z0.500
G0 F4200 X135.563 Y15.921
G1 F900 Z0.200
G1 F1500 E50.6397
G1 F600 X140.238 Y20.595 E50.8595
G1 F3000 E45.8595
G1 F900 Z0.500
G0 F4200 X139.590 Y19.382
G1 F900 Z0.200
G1 F1500 E50.8595
G1 F600 X136.777 Y16.568 E50.9919
G1 F3000 E45.9919
G1 F900 Z0.500
G0 F4200 X127.659 Y30.078
G1 F900 Z0.200
G1 F1500 E50.9919
G1 F600 X131.246 Y33.666 E51.1606
G1 F3000 E46.1606
G1 F900 Z0.500
G0 F4200 X130.619 Y33.604
G1 F900 Z0.200
G1 F1500 E51.1606
G1 F600 X127.659 Y30.644 E51.2999
G0 F4200 X127.659 Y31.210
G1 F600 X129.992 Y33.543 E51.4096
G1 F3000 E46.4096
G1 F900 Z0.500
G0 F4200 X129.194 Y33.311
G1 F900 Z0.200
G1 F1500 E51.4096
G1 F600 X127.659 Y31.775 E51.4818
G0 F4200 X127.659 Y32.341
G1 F600 X128.381 Y33.063 E51.5158
G1 F3000 E46.5158
G1 F900 Z0.500
G0 F4200 X123.078 Y127.004
;TYPE:WALL-INNER
;WIDTH:0.400
G1 F900 Z0.200
G1 F1500 E51.5158
G1 F600 X123.390 Y126.419 E51.5378
G1 X126.681 Y126.410 E51.6473
G1 X127.088 Y126.242 E51.6619
G1 X127.400 Y125.932 E51.6766
G1 X127.561 Y125.546 E51.6905
G1 X127.580 Y125.326 E51.6978
G1 X127.580 Y122.231 E51.8008
G1 X128.164 Y121.918 E51.8228
G1 X129.926 Y121.383 E51.8840
G1 X131.760 Y121.203 E51.9453
G1 X133.594 Y121.383 E52.0066
G1 X135.356 Y121.918 E52.0679
G1 X136.981 Y122.786 E52.1292
G1 X138.405 Y123.955 E52.1904
G1 X139.574 Y125.379 E52.2517
G1 X140.442 Y127.004 E52.3130
G1 X140.977 Y128.766 E52.3742
G1 X141.157 Y130.600 E52.4355
G1 X140.977 Y132.434 E52.4968
G1 X140.442 Y134.196 E52.5581
G1 X139.574 Y135.821 E52.6193
G1 X138.405 Y137.245 E52.6806
G1 X136.981 Y138.414 E52.7419
G1 X135.356 Y139.282 E52.8032
G1 X133.594 Y139.817 E52.8644
G1 X131.760 Y139.997 E52.9257
G1 X129.926 Y139.817 E52.9870
G1 X128.164 Y139.282 E53.0482
G1 X126.539 Y138.414 E53.1095
G1 X125.115 Y137.245 E53.1708
G1 X123.946 Y135.821 E53.2321
G1 X123.078 Y134.196 E53.2933
G1 X122.543 Y132.434 E53.3546
G1 X122.363 Y130.600 E53.4159
G1 X122.543 Y128.766 E53.4772
G1 X122.933 Y127.482 E53.5218
G0 F600 X123.078 Y127.004
G1 F3000 E48.5218
G0 F4200 X122.707 Y126.850
;TYPE:WALL-OUTER
;WIDTH:0.400
G1 F900 Z0.200
G1 F1500 E53.5218
G1 F600 X123.150 Y126.020 E53.5531
G1 X126.601 Y126.010 E53.6679
G1 X126.862 Y125.902 E53.6773
G1 X127.062 Y125.704 E53.6866
G1 X127.168 Y125.450 E53.6958
G1 X127.180 Y125.309 E53.7005
G1 X127.180 Y121.991 E53.8109
G1 X128.010 Y121.547 E53.8422
G1 X129.848 Y120.989 E53.9061
G1 X131.760 Y120.801 E53.9700
G1 X133.672 Y120.989 E54.0339
G1 X135.510 Y121.547 E54.0977
G1 X137.204 Y122.452 E54.1616
G1 X138.689 Y123.671 E54.2255
G1 X139.908 Y125.156 E54.2894
G1 X140.813 Y126.850 E54.3533
G1 X141.371 Y128.688 E54.4172
G1 X141.559 Y130.600 E54.4811
G1 X141.371 Y132.512 E54.5450
G1 X140.813 Y134.350 E54.6089
G1 X139.908 Y136.044 E54.6728
G1 X138.689 Y137.529 E54.7367
G1 X137.204 Y138.748 E54.8006
G1 X135.510 Y139.653 E54.8644
G1 X133.672 Y140.211 E54.9283
G1 X131.760 Y140.399 E54.9922
G1 X129.848 Y140.211 E55.0561
G1 X128.010 Y139.653 E55.1200
G1 X126.316 Y138.748 E55.1839
G1 X124.831 Y137.529 E55.2478
G1 X123.612 Y136.044 E55.3117
G1 X122.707 Y134.350 E55.3756
G1 X122.149 Y132.512 E55.4395
G1 X121.961 Y130.600 E55.5034
G1 X122.149 Y128.688 E55.5673
G1 X122.562 Y127.328 E55.6145
G0 F600 X122.707 Y126.850
G1 F3000 E50.6145
G0 F4200 X123.823 Y135.420
;TYPE:SOLID-FILL
;WIDTH:0.400
G1 F900 Z0.200
G1 F1500 E55.6145
G1 F600 X126.938 Y138.534 E55.7610
G1 F3000 E50.7610
G1 F900 Z0.500
G0 F4200 X128.151 Y139.182
G1 F900 Z0.200
G1 F1500 E55.7610
G1 F600 X123.175 Y134.206 E55.9951
G1 F3000 E50.9951
G1 F900 Z0.500
G0 F4200 X122.914 Y133.379
G1 F900 Z0.200
G1 F1500 E55.9951
G1 F600 X128.979 Y139.444 E56.2804
G1 F3000 E51.2804
G1 F900 Z0.500
G0 F4200 X129.792 Y139.691
G1 F900 Z0.200
G1 F1500 E56.2804
G1 F600 X122.666 Y132.566 E56.6155
G1 F3000 E51.6155
G1 F900 Z0.500
G0 F4200 X122.571 Y131.905
G1 F900 Z0.200
G1 F1500 E56.6155
G1 F600 X130.453 Y139.787 E56.9863
G1 F3000 E51.9863
G1 F900 Z0.500
G0 F4200 X131.080 Y139.848
G1 F900 Z0.200
G1 F1500 E56.9863
G1 F600 X122.509 Y131.277 E57.3894
G1 F3000 E52.3894
G1 F900 Z0.500
G0 F4200 X122.448 Y130.650
G1 F900 Z0.200
G1 F1500 E57.3894
G1 F600 X131.707 Y139.910 E57.8250
G0 F4200 X132.232 Y139.869
G1 F600 X122.489 Y130.126 E58.2832
G0 F4200 X122.539 Y129.610
G1 F600 X132.747 Y139.819 E58.7634
G0 F4200 X133.262 Y139.768
G1 F600 X122.590 Y129.095 E59.2654
G0 F4200 X122.672 Y128.612
G1 F600 X133.746 Y139.686 E59.7863
G0 F4200 X134.179 Y139.553
G1 F600 X122.804 Y128.178 E60.3213
G0 F4200 X122.936 Y127.744
G1 F600 X134.614 Y139.422 E60.8706
G0 F4200 X135.047 Y139.290
G1 F600 X123.068 Y127.311 E61.4341
G0 F4200 X123.223 Y126.900
G1 F600 X135.457 Y139.134 E62.0096
G0 F4200 X135.826 Y138.937
G1 F600 X123.419 Y126.531 E62.5931
G0 F4200 X123.952 Y126.497
G1 F600 X136.195 Y138.740 E63.1690
G0 F4200 X136.564 Y138.544
G1 F600 X124.516 Y126.496 E63.7357
G0 F4200 X125.080 Y126.494
G1 F600 X136.933 Y138.347 E64.2932
G0 F4200 X137.244 Y138.093
G1 F600 X125.644 Y126.492 E64.8389
G0 F4200 X126.208 Y126.491
G1 F600 X137.554 Y137.837 E65.3726
G0 F4200 X137.865 Y137.582
G1 F600 X126.751 Y126.468 E65.8953
G0 F4200 X127.146 Y126.297
G1 F600 X138.176 Y137.327 E66.4141
G0 F4200 X138.462 Y137.048
G1 F600 X127.429 Y126.014 E66.9331
G0 F4200 X127.610 Y125.630
G1 F600 X138.717 Y136.737 E67.4556
G0 F4200 X138.972 Y136.427
G1 F600 X127.658 Y125.113 E67.9877
G0 F4200 X127.658 Y124.547
G1 F600 X139.227 Y136.116 E68.5319
G0 F4200 X139.482 Y135.805
G1 F600 X127.658 Y123.981 E69.0881
G0 F4200 X127.658 Y123.416
G1 F600 X139.684 Y135.442 E69.6537
G0 F4200 X139.881 Y135.073
G1 F600 X127.658 Y122.850 E70.2287
G0 F4200 X127.658 Y122.284
G1 F600 X140.078 Y134.704 E70.8129
G0 F4200 X140.275 Y134.336
G1 F600 X128.023 Y122.084 E71.3892
G0 F4200 X128.427 Y121.922
G1 F600 X140.437 Y133.932 E71.9541
G0 F4200 X140.569 Y133.498
G1 F600 X128.861 Y121.790 E72.5048
G0 F4200 X129.295 Y121.658
G1 F600 X140.701 Y133.064 E73.0413
G0 F4200 X140.833 Y132.631
G1 F600 X129.728 Y121.526 E73.5636
G0 F4200 X130.204 Y121.436
G1 F600 X140.923 Y132.155 E74.0678
G0 F4200 X140.974 Y131.640
G1 F600 X130.719 Y121.385 E74.5502
G0 F4200 X131.234 Y121.335
G1 F600 X141.024 Y131.125 E75.0107
G0 F4200 X141.075 Y130.610
G1 F600 X131.749 Y121.284 E75.4493
G1 F3000 E70.4493
G1 F900 Z0.500
G0 F4200 X132.374 Y121.343
G1 F900 Z0.200
G1 F1500 E75.4493
G1 F600 X141.016 Y129.985 E75.8558
G1 F3000 E70.8558
G1 F900 Z0.500
G0 F4200 X140.954 Y129.358
G1 F900 Z0.200
G1 F1500 E75.8558
G1 F600 X133.001 Y121.405 E76.2299
G1 F3000 E71.2299
G1 F900 Z0.500
G0 F4200 X133.643 Y121.481
G1 F900 Z0.200
G1 F1500 E76.2299
G1 F600 X140.878 Y128.716 E76.5702
G1 F3000 E71.5702
G1 F900 Z0.500
G0 F4200 X140.630 Y127.902
G1 F900 Z0.200
G1 F1500 E76.5702
G1 F600 X134.457 Y121.729 E76.8606
G1 F3000 E71.8606
G1 F900 Z0.500
G0 F4200 X135.270 Y121.976
G1 F900 Z0.200
G1 F1500 E76.8606
G1 F600 X140.383 Y127.089 E77.1011
G1 F3000 E72.1011
G1 F900 Z0.500
G0 F4200 X139.762 Y125.903
G1 F900 Z0.200
G1 F1500 E77.1011
G1 F600 X136.456 Y122.597 E77.2566
G1 F3000 E72.2566
G1 F900 Z0.500
G0 F4200 X51.477 Y128.766
;TYPE:WALL-INNER
;WIDTH:0.400
G1 F900 Z0.200
G1 F1500 E77.2566
G1 F600 X51.657 Y130.600 E77.3179
G1 X51.477 Y132.434 E77.3792
G1 X50.942 Y134.196 E77.4404
G1 X50.074 Y135.821 E77.5017
G1 X48.905 Y137.245 E77.5630
G1 X47.481 Y138.414 E77.6243
G1 X45.856 Y139.282 E77.6855
G1 X44.094 Y139.817 E77.7468
G1 X42.260 Y139.997 E77.8081
G1 X40.426 Y139.817 E77.8694
G1 X38.664 Y139.282 E77.9306
G1 X37.039 Y138.414 E77.9919
G1 X35.615 Y137.245 E78.0532
G1 X34.446 Y135.821 E78.1144
G1 X33.578 Y134.196 E78.1757
G1 X33.043 Y132.434 E78.2370
G1 X32.863 Y130.600 E78.2983
G1 X33.043 Y128.766 E78.3595
G1 X33.578 Y127.004 E78.4208
G1 X34.446 Y125.379 E78.4821
G1 X35.615 Y123.955 E78.5433
G1 X37.039 Y122.786 E78.6046
G1 X38.664 Y121.918 E78.6659
G1 X40.426 Y121.383 E78.7271
G1 X42.260 Y121.203 E78.7884
G1 X44.094 Y121.383 E78.8497
G1 X45.856 Y121.918 E78.9110
G1 X46.440 Y122.230 E78.9330
G1 X46.440 Y125.353 E79.0369
G1 X46.490 Y125.635 E79.0464
G1 X46.626 Y125.938 E79.0574
G1 X46.909 Y126.218 E79.0707
G1 X47.153 Y126.352 E79.0799
G1 X47.502 Y126.420 E79.0918
G1 X50.629 Y126.420 E79.1958
G1 X50.942 Y127.004 E79.2178
G1 X51.332 Y128.288 E79.2624
G0 F600 X51.477 Y128.766
G1 F3000 E74.2624
G0 F4200 X51.871 Y128.688
;TYPE:WALL-OUTER
;WIDTH:0.400
G1 F900 Z0.200
G1 F1500 E79.2624
G1 F600 X52.059 Y130.600 E79.3263
G1 X51.871 Y132.512 E79.3902
G1 X51.313 Y134.350 E79.4541
G1 X50.408 Y136.044 E79.5180
G1 X49.189 Y137.529 E79.5819
G1 X47.704 Y138.748 E79.6458
G1 X46.010 Y139.653 E79.7097
G1 X44.172 Y140.211 E79.7736
G1 X42.260 Y140.399 E79.8375
G1 X40.348 Y140.211 E79.9014
G1 X38.510 Y139.653 E79.9653
G1 X36.816 Y138.748 E80.0291
G1 X35.331 Y137.529 E80.0930
G1 X34.112 Y136.044 E80.1569
G1 X33.207 Y134.350 E80.2208
G1 X32.649 Y132.512 E80.2847
G1 X32.461 Y130.600 E80.3486
G1 X32.649 Y128.688 E80.4125
G1 X33.207 Y126.850 E80.4764
G1 X34.112 Y125.156 E80.5403
G1 X35.331 Y123.671 E80.6042
G1 X36.816 Y122.452 E80.6681
G1 X38.510 Y121.547 E80.7320
G1 X40.348 Y120.989 E80.7958
G1 X42.260 Y120.801 E80.8597
G1 X44.172 Y120.989 E80.9236
G1 X46.010 Y121.547 E80.9875
G1 X46.840 Y121.990 E81.0188
G1 X46.840 Y125.318 E81.1295
G1 X46.875 Y125.517 E81.1362
G1 X46.960 Y125.706 E81.1431
G1 X47.150 Y125.894 E81.1520
G1 X47.291 Y125.971 E81.1574
G1 X47.541 Y126.020 E81.1658
G1 X50.869 Y126.020 E81.2765
G1 X51.313 Y126.850 E81.3078
G1 X51.726 Y128.210 E81.3551
G0 F600 X51.871 Y128.688
G1 F3000 E76.3551
G0 F4200 X50.773 Y126.857
;TYPE:SOLID-FILL
;WIDTH:0.400
G1 F900 Z0.200
G1 F1500 E81.3551
G1 F600 X50.414 Y126.499 E81.3720
G0 F4200 X49.848 Y126.499
G1 F600 X51.078 Y127.728 E81.4298
G1 F3000 E76.4298
G1 F900 Z0.500
G0 F4200 X51.325 Y128.541
G1 F900 Z0.200
G1 F1500 E81.4298
G1 F600 X49.283 Y126.499 E81.5258
G0 F4200 X48.717 Y126.499
G1 F600 X51.441 Y129.223 E81.6540
G1 F3000 E76.6540
G1 F900 Z0.500
G0 F4200 X51.503 Y129.850
G1 F900 Z0.200
G1 F1500 E81.6540
G1 F600 X48.151 Y126.499 E81.8116
G0 F4200 X47.586 Y126.499
G1 F600 X51.565 Y130.478 E81.9988
G0 F4200 X51.536 Y131.015
G1 F600 X41.844 Y121.323 E82.4547
G0 F4200 X41.329 Y121.374
G1 F600 X51.485 Y131.530 E82.9324
G0 F4200 X51.434 Y132.045
G1 F600 X40.814 Y121.425 E83.4319
G0 F4200 X40.322 Y121.497
G1 F600 X51.362 Y132.537 E83.9512
G0 F4200 X51.230 Y132.972
G1 F600 X39.887 Y121.629 E84.4847
G0 F4200 X39.454 Y121.761
G1 F600 X51.098 Y133.405 E85.0324
G0 F4200 X50.966 Y133.839
G1 F600 X39.020 Y121.893 E85.5943
G0 F4200 X38.603 Y122.041
G1 F600 X50.818 Y134.256 E86.1689
G0 F4200 X50.621 Y134.625
G1 F600 X38.234 Y122.238 E86.7515
G0 F4200 X37.865 Y122.435
G1 F600 X50.424 Y134.994 E87.3423
G0 F4200 X50.227 Y135.363
G1 F600 X37.496 Y122.632 E87.9411
G0 F4200 X37.128 Y122.829
G1 F600 X50.030 Y135.731 E88.5480
G0 F4200 X49.782 Y136.049
G1 F600 X36.810 Y123.077 E89.1581
G0 F4200 X36.499 Y123.332
G1 F600 X49.527 Y136.360 E89.7709
G0 F4200 X49.272 Y136.671
G1 F600 X36.189 Y123.587 E90.3863
G0 F4200 X35.878 Y123.842
G1 F600 X49.017 Y136.981 E91.0044
G0 F4200 X48.742 Y137.272
G1 F600 X35.585 Y124.115 E91.6232
G0 F4200 X35.330 Y124.426
G1 F600 X48.432 Y137.528 E92.2395
G0 F4200 X48.121 Y137.782
G1 F600 X35.076 Y124.737 E92.8531
G0 F4200 X34.820 Y125.047
G1 F600 X47.811 Y138.037 E93.4641
G0 F4200 X47.500 Y138.293
G1 F600 X34.565 Y125.358 E94.0725
G0 F4200 X34.356 Y125.715
G1 F600 X47.143 Y138.501 E94.6740
G0 F4200 X46.775 Y138.698
G1 F600 X34.159 Y126.083 E95.2674
G0 F4200 X33.963 Y126.452
G1 F600 X46.406 Y138.895 E95.8527
G0 F4200 X46.037 Y139.092
G1 F600 X33.765 Y126.821 E96.4299
G0 F4200 X33.596 Y127.217
G1 F600 X45.640 Y139.261 E96.9964
G0 F4200 X45.207 Y139.394
G1 F600 X33.464 Y127.651 E97.5487
G0 F4200 X33.333 Y128.085
G1 F600 X44.773 Y139.525 E98.0868
G0 F4200 X44.339 Y139.657
G1 F600 X33.200 Y128.518 E98.6108
G0 F4200 X33.101 Y128.984
G1 F600 X43.873 Y139.757 E99.1175
G0 F4200 X43.358 Y139.807
G1 F600 X33.050 Y129.500 E99.6023
G0 F4200 X32.999 Y130.015
G1 F600 X42.843 Y139.858 E100.0653
G0 F4200 X42.328 Y139.908
G1 F600 X32.949 Y130.530 E100.5065
G1 F3000 E95.5065
G1 F900 Z0.500
G0 F4200 X32.996 Y131.142
G1 F900 Z0.200
G1 F1500 E100.5065
G1 F600 X41.715 Y139.862 E100.9166
G1 F3000 E95.9166
G1 F900 Z0.500
G0 F4200 X41.088 Y139.800
G1 F900 Z0.200
G1 F1500 E100.9166
G1 F600 X33.057 Y131.770 E101.2943
G1 F3000 E96.2943
G1 F900 Z0.500
G0 F4200 X33.120 Y132.397
G1 F900 Z0.200
G1 F1500 E101.2943
G1 F600 X40.460 Y139.738 E101.6396
G1 F3000 E96.6396
G1 F900 Z0.500
G0 F4200 X39.653 Y139.497
G1 F900 Z0.200
G1 F1500 E101.6396
G1 F600 X33.361 Y133.204 E101.9356
G1 F3000 E96.9356
G1 F900 Z0.500
G0 F4200 X33.608 Y134.017
G1 F900 Z0.200
G1 F1500 E101.9356
G1 F600 X38.840 Y139.249 E102.1817
G1 F3000 E97.1817
G1 F900 Z0.500
G0 F4200 X37.699 Y138.674
G1 F900 Z0.200
G1 F1500 E102.1817
G1 F600 X34.184 Y135.159 E102.3470
G1 F3000 E97.3470
G1 F900 Z0.500
G0 F4200 X46.360 Y125.273
G1 F900 Z0.200
G1 F1500 E102.3470
G1 F600 X42.381 Y121.294 E102.5342
G1 F3000 E97.5342
G1 F900 Z0.500
G0 F4200 X43.009 Y121.356
G1 F900 Z0.200
G1 F1500 E102.5342
G1 F600 X46.360 Y124.707 E102.6918
G0 F4200 X46.360 Y124.141
G1 F600 X43.636 Y121.418 E102.8199
G1 F3000 E97.8199
G1 F900 Z0.500
G0 F4200 X44.318 Y121.534
G1 F900 Z0.200
G1 F1500 E102.8199
G1 F600 X46.360 Y123.576 E102.9160
G0 F4200 X46.360 Y123.010
G1 F600 X45.131 Y121.781 E102.9738
G1 F3000 E97.9738
G1 F900 Z0.500
G0 F4200 X46.002 Y122.086
G1 F900 Z0.200
G1 F1500 E102.9738
G1 F600 X46.360 Y122.444 E102.9906
M106 S0
G0 F900 Z5.200
G0 F4200 X46.360 Y122.444
M221 T0 S100
G92 E0
M1002
M104 T0 S0
G91 ;Relative positioning
G1 E-2 F2700 ;Retract a bit
G1 E-2 Z0.2 F2400 ;Retract and raise Z
G1 X5 Y5 F3000 ;Wipe out
G1 Z50 ;Raise Z more
G90 ;Absolute positionning
G1 X0 Y220 ;Present print
M106 S0 ;Turn-off fan
M104 S0 ;Turn-off hotend
M140 S0 ;Turn-off bed
M84 X Y E ;Disable all steppers but Z
;Data start:52280:bef0741d0fe712e725ef945d72b041c5
;SURFQSAtIFBSSU5UREFUQUlZDHzi6E17riyBkcQfrmdbNVk3TpZ8P5/06NVJSnsUtTRAPfSj9H3t9R8
;ermQEiBfAPEVt3BVQZaqKujk+FHnXNSw9gaORfWSmHwWuBWeKEc88W2naHUtimoaKLyUPYLhZc0700f
;ccjoMfH64FZ+tyrNB3DLt8PwuUi7YoJh5mtkBFUu/8+BOLj3NyrgRn63KsWTeF6HwnC/XotC4pHniyR
;k1J6Mz/IoSIbHvaWg6FHMkrNw2ofD8L9ehcDUpjFNc0TV7ixv0Yn4drd8FrOIIc3zxDU8cJS26H6NRN
;SnsU1zSlfYGxkX3th3x9y2kCmRPYMFhi9wxNYpuc1UxKexTXNCy0waOBfe3mfn3NYAuOAM0tXmPGI0t
;khejUTUp7FNc0pX2Bu5F97Yd8fctpApkT2DBYYvcIUHuqm6A/LBp3sjQtPYGjkX3tb18evQVn6xPPOl
;JgzQ5ef5yHuxI+CXWhUUA9gKORfe3mb4nuBU7rcqw4QWPBGGB/h4mjKCYkfLhYSU7e0/AJhblyf9ZaC
;44cyy1fU84dXH+amtVMSnsU1zQsVMGjuH3t5n5owWwDtAbeOEFpxCNXZJmNphI6GmC/a0Fc+fz/ErKU
;emrcZASfG8M3Nw2ofD8L9ejVTUpoFNc0TUXo0M4egotve8B2Bp8bwzdodKh9Pwv16NVNEzsUxDQsPeD
;b+A6yhXBz3mAJmBPYMFhi9wU/CvXo1U1Ke02XND49gaPzEpmScHPxaQaSF94GRHzNGVsL9OjVTUp7FP
;N0LC2Bo5EfgpJrccNaE4MbzzJZadsPPwpvcUzU0+Ld6DQyPYGj8w+Egnh3wGI4jgrYK0J/wRNRVIKBs
;TkiJGa2QEVSgaKRfe3mH57PRWf5cqxZVX7BGFhim4+KKysVS6RESVjlo5B97eYfHq5cJ+tmrFk3btoV
;W2ychrISLBJsslBzXO/E/Rjt5x8ergVnCxLsWS4MqHxdeZyMsiQkHEuxWENc9cb1IoyUen/xaA6Fcq1
;ZNwyofD8/tejETUp7dqVdSFrozfYii4pwadxkE45yrVk3DKh8P1K16M1NSnt2pV1IWujN9iKejnpywn
;Y4jR7DLkVt3Bk/CvXo1U1Ke02XNDk9gaPzD4SCeHfAYjiYGsk1W3/3D09ukIzVTEp7FNc0LAPBo5997
;eZ9bMdhAIIcywZEfM0ZWwv06NVNSnsU83QsHIGjkR+fj3t5x2sAtAHZKUdj2ghab6qJpygrJGa2QEVS
;3s7wBe3nHx6uBWfrO+xZOAyofF15nIWKISMVcYhXQ0jv15F87eYfHq4Fc6tyvlk3DMsTXniBgbsqFR9
;9pEBNU+LGoH3s5h8ergVnC02sSzcMqB9QaoacvCMtJHC+R1hc78D0T+3nHx6uBWfrkpNZJgyofFxkmo
;SKICMVS7FRSVnzwuUY7ecfHq4FZ+tW7FkkDKh8XGSahIogIxVLu1VVWPP85RSAgx8frgVn63KsTXcMt
;Xw/C5GNuz4vJGeiRFxS89fOFIOAdnLCWgieBsAwWWnbfD4L9ejVTUp7FNcpLD2Bx/QTnoNAbdt1F4QA
;2AZeYsYZTVSQkKUsJAh9uFosPBs6COR0f/Yhrh5n63LIPFl/zSNMfoWYuj8+JHi2TUlP8vzzEpmScHO
;uBGfrcqxZNwyofCwL9eixKCQIcYhHWU3xzOMJspVve8thZ+pyrFk3DKhCfwvs6NVNLhJ5slpfVO7Nzg
;WUuXxxw3UChQHNLV5jxnw+C/Xo1U1KexTXKiw9gcf4EIiIbHfBaziTC/M6WGHYGVF4lJy8IiQkfLhYS
;T2Ao5F97eYfHq4FaOtyrDxPeNoJW26Ht7QgJQ56ozQtPYGjkX3tFiAevAVn6xfULUV5zBlNVJqOsz4v
;D0uvBSw8gaORfe3mJl6uF2frcskhQ37dGFp5qoezKzkeYIhMHj2Ao5F97eYfHq4FdetyrDxPeNoJW26
;Ht7orLAhxo2tUDoGikX3t5h8ergVn+XKsWVJ03A5Kb5CaiiIsHWeyQHNEsKOQfe3mHx6uBWfrYKxZN2
;nQCE1+kY2nEiUdcqRRWGL4kZF87eYfHq4FZ+tyvlk3DM0ES3mAjLA/FRRysUdJSd7aon3s5h8ergVn6
;3KsajcMqBlHf4edsSg4JGegXVhe6fzyEoKKdnDJWg+OE9gsR1PJGElqm4uwEj4eeadRXlz11uMY3OYe
;Hq4FZ+tyxRk3P6h8P26NnKc4Lh5miEdbVPXA+SKOiXByx2sAtBrJOEN52CNeb4OJuy4vJGCyWVxY88L
;lCJ+DLR6vBWfrcqxZXkyoVz8L9Y2tOTgOcLJGc072yuUehbl8ccFpDoUV8zFSbdwJT1SUjKMsJBhxiE
;BFUOSjkH3t5h8erkEn62ysWTdp0AhNfpGNpxI5DH2jV0Ri4sz+EYSIeEHeZBWALdRZNgyofD8LdaqVT
;VR7FNdRVEnz1vUYn7lsacdxBIMtzzZYYMESWFSFiacmFQIU1jQsPYGjoRat5jsergUCkwbeLFNp2iNM
;fJyctiUVGHu4WEVT5vzlGICWemzPcRKZF51ZNgyofD8LdY6VTW57FNdRVEnz1vUYn7lsacdxBIMtzzZ
;YYMESWFSBjbg9Lwl1o0FeWLOjkH3t5h8eLmMn61esWTdp0AhNfpGNpxI5DH2jV0Ri88biCYyUa0HLfR
;OZE/M4WmPdEks59enVTUp7FNc0LD2fo5F9iJ5rbNthApkt3y5eeMsUYHmQm6EsOA9LpERJWOWRkXzt5
;h8ergVTq3KOWTcMzQRLeYCMsD8VCGO+QE9V3tH0CZ+HfGrHagm0E8E2QmLcTj8K9ejVTUp7MJc0DT2B
;o/QFmZRqest3OJgFxS1UZPcOWn+HibY5IxR6iEdcWOTHo33s5h8ergVn3zKsVjcMqBlHf4edpiQlFUu
;gXUhJ6aOQ53R/hoc33FjrY6xZN2nQCE1+hoG6IxUMfbNARGKzo5DndH+GhzfcWOthrFk3askSYGmZga
;USOhphpFFzUPLG8n3s5h8ergUnlDKsSzcMqBpeZaqKuSQ6JGC/RklO6cz9Ge3nHx6uBWfrTOxZOAyof
;Flqm7ezOCYXS79RRVrp15F87eYfHq4Fh9Ryolk3DM4dUVSTnbkhFRd1rlFePYCjkX3t5h8e7gVu63Ks
;P1Zi9w9PbpCM1UxKexTXNCxkwaOcfe3meX/AWhSbF8k9aGHJBD8K9ejVTUp7TZc0PT2Bo/cUgYdye8B
;xOI8bzTRSeM0OPwr16NVNSnvo6DQ+PYGj9xSBh3J7wHE4jxvNNFJ4zQ4NC/To1U1KexQrCywvgaORG4
;SKfnPLaxO0FsU4WmncGU049enVTUp7FNc0LD2To5F9i49zf8NgCZ8tyDBWYc0IWnnB6NRNSnsU1zQsP
;YGukX3tgHZyz2gChQbzP1tj33w+C/Xo1U1KIlTXOiw9gcX4EYyLenDaWgGHHdtoNw2ofD8L9eiMDUp1
;FNc0SlTtwvwYg5JAeMJqENlyrVk3DKh8v1216NhNSntyvlhNUOTN5SKZn297rgRn63KsWTcM6HwxC/X
;osyQmGnmyWlhi9drhGN/mHh6uBWfrcqwZNwCofD9tnIS5Ei4eeqRdWESBopF97eYfHrpFZ+dyrFlRZc
;QQYGSDjachKwsU1jQsPYGjkUOt5j4ergUBggDfLWhgyQVaeaqNrTk4Dme+W0Ji9sr1CYW5bX/abAjrc
;6xZNwyofGZL9frVTUodfaVHWGLtwugYn7lsdstpC5hyrVk3DKh8Pw+16PtNSntyvkZfSd7P8ASIlEBt
;wWkOjy3FN1FlxBBgbo2cpzg5Enu5a1tU5df5Ip+Ha3fBBWbrcqxZNwzxPD8T9ejVKyMJZ6NYTUTk0c4
;bhIp+c8trE7QUwDZADKl8Pwv16NUUCnsH1zQsW+jb9Bmyin5ny3c4mAbNK0NT0Hw+C/Xo1U1KIlTXJy
;w9gcX4BYiCQHLPfAKZLd8tVn7cI0YL9OjVTUp7FIl0LB6Bo5EajJZAeMdpC7QBxTdQYM0jWnOBmqA+I
;xR6iEZNSejMzhCMnh8frgVn63KsMHcMi3w/C5KJpRIsEni7a19U78T9GLKDZ2rccBSCHcIGRW3cFVBU
;mIG7TUt7FNc0LL3B45Fi7eYfec91OI0bwDVof8ESWGeQt7A1PglhpF1DU97Q4RiIgh8frgVn63KsHXc
;Mpnw/C5KJpRIsEni7a19N5Mb1fezmHx6uBWeiMqxJNwyoG1xkkY2KOTMLcYhdQlnk25F87eYfHq4FZ+
;tyo1k3DM8QUGmUhIoiLB1nskBzRYGikX3t5h8ergVn5HKsWVBgxx5eZ6qHsys5HmCITSw8gaORfe3mH
;x6uCmfrcss1WG7JEGBkk46mKD4kbtc1LD2Bo5F97eYfC64FZ4MXzS1CfPcbXGSRjYo+LwphslpPWIGi
;kX3t5h8ergVny3KsWV5izhVTZ6qJsSw6D32hUXNU78X4EYG5bX/abAi0H80hNw2ofD8L9ejrDUpbFNc
;0RVPnyv0Rsod7f95xDp0X8zBZasEQU1SHiaEkJSR5vlosPIGjkX3t5gterhpn63LFN1FlxBBgapGJpT
;kjDXGIXUJT5NHOGJWWfnDdbAiFcq3DrpUx5abiyujDTUp7fblSRVHt/PAZjJZrd9hgOIcT1TxFf6h9P
;wv16NVNXjsUzTQsPejN9xSBikB/ymQXnxvaPGh+zRhKaIGBuiM5exXXNCw9gaORPe3/Hx6ubAmNG8A1
;aG3MHU9/nJ6wEj0ScKNcc1DozZF87eYfHq4Fb6tysFk3DMESWWKZhIooMg9mokdFUu/85hSJkndB3GQ
;Tgh2sWDcMqHw/C6yo1VlKexS+WkpU7c/OG4SKfnPLaxO0FMA2QAypfD8L9ejVFAp7G9c0LFTvxfgRgb
;lweMh2Ap8t1Fk2DKh8Pwv16NVNRXsU111CW+jP/SKCgHlty3E4knKtWTcMqHw/C/Xo2E1Ke325UkVR7
;fziFYiKc22uBGfrcqxZNwyofCML9ei8IywSeLtrX03g0eIYsoVwc8xsCY4twDhOadoPPwr16NVNSnvk
;6DQgPYGj+BOLj3Ny8XYXjhfIWTYMqHw/C3WulU1GexTXXUJO5NehIp6WenvKBWbrcqxZN4zuPD8H9ej
;VJCQIcaNMc07xxvQZ7ecfHq4FZ2s07FknDKh8VnmahrwjLSRyu1tbT+DX9H3s5h8ergVn/zKsVDcMqB
;VNZJuBuyoVCGSyUUg9gKORfe3mHzruBWzrcqwzUn7DI11kgZy6IEp6FNc0LD2Bt9F9/uYfHsRgFYAtz
;jZDeMcRYHiAmrMsKR4U1jQsPYGjkWmt5hQergUNjgDHBl5izhVTZ/Xp1U1KexTXIGw9kaORfYeDbXXx
;bAmYF9gGXmLGGU0L9OjVTUp7FMN0LC2Bo5EXiJR0QcdrFI4G8zZCeM0OPwr16NVNSnsclzQmPYGj+xi
;fjUBu3GwJn3KtWTcMqHw/C7Xo3U1Ke36yRkdi9czhfezmHx6uBWf/MqxJNwyoFlp5nrehIjokZ6JGSl
;zixpF87eYfHq4Fc6typ1k3DMIZTWCqnKcsPB541zVKW+fF9xvnph8SrgVnhxPVPEVTwBlWbJ2c1UzQ4
;o1OrbX0vqO3fe3mc3/XYBW0GskwUGTcI15vlJihJDweS7pVVGLpxvgahZJAbM9xDoRyrVk3DKh8P0W1
;6PNNSnt4tk1JT97L9BSKjmtBz2EGmwbFL1JTxRVRVJ2NvCoiD0ulVVhU7qOQfe3mHx6uPCfrUaxZN2D
;JBVp5qoCwJC0TYIhVSFzx1/gLiLlsf8N1C4IcywZEeM0MPwqO/HsKqwGQ6DQHPYGj/RyUg21BxmAOjB
;rYBlZoyQxLYoONij4+HmS4QklP3sH+CZmJckHcZBOCHaxYNwyofD8LvKjVZUp7FLtVVVjz/PkYhIF3a
;vFkA4oC2DBBafcPS26Fh6MoOCRguERzT+DX+BLt5x8ergVn6zvsWSAMqHxTaoyNpxInHmawUXNe7czi
;GLKAfn3LdmfqcqxZNwyofD8L7ejVTSYabbJGc07kxPwYg5JAcstrAJ8a8zReYqh9xXWfVKHewkQUwzQ
;sPe3C6BifuWx2y2kLmC3DL1J+xB1PC/To1U1KexSedCwogaOREYyfemzxdhOKANgpWGXGCGB/jJiwTU
;t7FNc0LD2J45F27eYfcMF/HYcX8ypeds18Pgv16HXU06Ir1zssPYHM8xeIhWtBzWAJnxfeBk8MqXw/C
;/Xo1b31exvXNCxS48n0Hpm5fHvAcQKZLdVZNgyofD8L9RhqTUF7FNdbTlfkwOUino9xda4EZ+tyrFk3
;DKh8Lgv16LoiMB5LpFxFWO3HzhyDgXN7rgRn63KsWTcy6HwpC/XouiIwHkukXEVY7cfOEYSIekHNahK
;FBqxYNwyofD8LBdfVX0p7FLhbVlje0PkUiIp7QcFjAZgX2Fk2DKh8Pwv14JVNX3sU11taWPPL8BOKuW
;x2y2kLmC3NN1BgzXw+C/Xo1U1KRVTXLSw9gcznGJ+OfnDJWhSDF8A1RFPOHVFUhpiwKC57Fdc0LD2Bo
;8g97f4fHq5qEY4AxDhZa/cPV26ZhKYSLBd7oEZNSeSjkH3t5h8erlEn62esWTdj3hlNY5SGshI5E3G7
;WF9i8tP0GInmHh6uBWfrcogZNwCofD9kg42nISsLS7NBTVGBogvkdH+Gh2c6Z/5yrFlHfsESS1SXjbE
;SPh55p1FeXPXW4xjt5x8ergVnayPsWTwMqHxPeZyGoRI5C3GyUCw8gaORfe1mWV6uFGfrctwrXmLcI0
;tumJiwPysPYaVRLDyBo5F97aZ1Xq4XZ+ty3CteYtwjS26YmLA/Kw9hpVEePYCjkX3t5h937gV163KsK
;UVlxghgf5CFpSg4GmCiRkkOgaKRfe3mHx6uBWf5cqxZR37BEktUgY24PS8JdaNBXli1o5B97eYfHq4F
;Z+t5rFk3fskaS1SUgacqKwsU1q61pBg6CLTS5gAergUVihTYBlVt2xlgbo2cpzg5Enu5a1tU5df5Ip+
;Ha3fBBWbrcqxZNwzBPD8d9ejVPysdYIhWTU7k/PgTi49zcvFkCYweyVk2DKh8Pwv16NVNXHsU10ZNW/
;X88xyeg0B3wGMOhx7zK1Z4wRM/CvXo1U1K+1SXNDw9gaPjHIuSQHzPdgK0Hs0gUn7bfD4L9ejVTUp7V
;NcnLD2B0fAbmbl9f91gOIcbwjxAZcwIVwv0ckzU0+KNPgssMoGjkQ+MgGtBzGQUji3fKVJpzHw+C/Xo
;1U1KW1TXJyw9gdHwG5m5fX/dYDifGsU6XGLND0wL9OjVTUp7FDcLLBmBo5EPjIBrQcdrE44AyjhUafc
;ZR3+HnaYkJRVLoF1ISen84xyZj3AerwVn63KsmVVMqGc/C/WatCs+JH25QElP58LyGLKPcXjHaQu0E8
;I+W2mofT8L9ejVzRw7FMw0LD3zwvcJso9xast3AYoRyQZeYs4VU2eqmrQ5IxQU1jQsPYGjkTSt5goer
;gUVihTYBl5i3BlNbZSLsBImGm2yRl89gKORfe3mH+6RBX/rcqwrVmrcI1ZlgY2nKysYcYhYRVPk1PgZ
;mY4fH502VNhBn7oIDL58PwuHibM5FRJ6o1FeW+DA9CKeln59x2sA63OsWTcMqHzPNPX81U1KCXWxQHN
;U79f0D4uHfHvxdheOF8hZNgyofD8L9daVTVJ7FNdGTVv1/PgTmYNteM9mArQGxDBUZ8YZTHj16Yf1VP
;7/huwTPZCjkX2fh3lq8WkOhRfzKkdtyxVRbPXp1U1KexTXPGw9iqORfZ+HeWrxaAaZFcU3Nw2ofD8L9
;ejBDUpUFNc0Xlzn184Sm4NtbMdhArQUxStEePcQXnKQmoooMg9mokdFUu/85hSJkndB3GQTgh2sWDcM
;qHw/C6yo1VBKexSlVUpJ3sznGJ+UdnrLWgCHHc44W1PHGll4kJyKN0p6jk6ttaQYai59z+YfHtxkAZ8
;t3yxFaskfWlSQkKE/Pwh9uFpzSujH5RWylH5qx2pn6nKsWTcMqCV/C+Po1U04GnKja19I88XwHoi5eX
;fCaTiZE9g8Nw2ofD8L9aiADUpuFNc0Xlzn184OmJR5f81gOI0ewy5FbdwZPwr16NVNSvtylzQ1PYGj4
;xyLkkBt23cBihHJBl5izhVTZ6qJuyomHhTWNCw9gaORQ63mDB6uBRWKFNgGRHnaGl5okLe5LDMeZqQ0
;LT2Bo5F97eZfHrgFZ+sAzT9DU9sJTW2Ui7ASJhJ6skNFWfXLkXx3f4aHN5y+1HK4WTcM2h1Zf6qboD8
;sGneya19N4MD4E4rmHhR5phfWeHtmNx6ofD95lI6hEjkOZrFVT1je0OEYiIIfH64FZ+tyrBd3DL58Pw
;uHibM5FQhhpVJNXuT85RWEhXRwy3YU63OFBbjOXVTzNPX61U1KCXGkQE1P9fz1CIyKQG3eYAKPcq1ZN
;wyofD8/tejBTUp7ZrJHWFzz184YlZJtf/FkCoQHwi03Dah8Pwv16NVNSm0U1zReWPLX8A+ZuXpm2ncG
;tBPBNkJi3CMNC/To1U1KexTXNCwkgaORD4iVa3/ccTiOCtgrVlPMCV5nqom4Ij8VYNc1LD2Bo5F97eY
;fE64FZ5kX3y1WftwjTHuQjbFNS3sU1zQsPbjjkXLt5h9sy3YTigDYBkR8zRlbVMfo1E1KexTXNBV9gb
;KRfe2UemrcZASfG8M3aG3FE0plgejUTUp7FNc0OH2BsJF97ZR6atxkBJ8bwzdobcUTSmWBt+dNS3sU1
;zQsPZXjkWvt5h9sy3EVihHYMFhi9xhKapm3tCAlDnqjNC09gaORfe3CXx67BWfrAMktRW3LCFZkm7ex
;OCsXS6RESVjlo5B97eYfHq4xJ+tVrFk3fs0ITWqWnLwiJCRxuVVOUeT8/giZlXZ6y1oFhAbYNlpTxB1
;Gboeb1UxKexTXNCw9waO1fe3mbXvadwaIBsU2WVPNEl5pmY2KIj8PZ75QSWL1zOEigYdme9x2Z+pyrF
;k3DKh8fwv76NVNOB5gpVVPSejM/yKFiW8erzZU2EGfauQzqGw/C/WasDk4GnejXUNT3sv+DbLUHx+dN
;lTYQZ+KCAy9fD8Lh42hPysYYL5bQmLsyv8imZR+aMtpZ+pBn2oEP5ufAAvi6NVNOB5gpVVPSejM/yKA
;j3FB2ncGnRfABgUMqU8MOMbb5q51ewjXNCxP5NfjHI6SdnHAWgqCHMU0VmD3GUd/h52mJCUVFNZPOJP
;GQuvp0uYBHq4FFY4G3jhUeMETUVSYgbskJxp4iFFUSfPW4hSCiEAsrgQc/9zruE2Yl3wvC/Xopyg+CX
;W0QEVS7/ziDYiDex6vBWfrcqxZfkyobj8L9ZqwOTgad6NdQ1Pe0OEYiIJALK4EZ+tyrFk3Reh8JQv16
;KcoPgl1tEBFUu/86xWClkB9wWsDggbFNlk9qH0/C/Xo1U26RBTNNCw988blD4yFa3fBaziRGsMpaG/H
;EltigYG6I3h7Fdc0LD2Bo2FC7fUfHq52Aogdwj1oYMkFWnmqkoohIx1g1zUsPYGjkX3t5h8XrgVnmBn
;FK0NTzx1PC/To1U1KexTfdCwtgaORDoaPbWrxaQ6FF/M6WHnGCD8K9ejVTUp75Og0OD2Bo+IWhJRrQc
;NsCYIfzTVoYM0SWH+d6NRNSnsU1/ROfYGokX3tlXR33HE4mALJPFMMqXw/C/Xo1XkKew7XNCxO7czmI
;omJaHDxYw6ZAdgGUWnfI1NqjI2nPkp6FNc0LD2BU659+uYfHt1oBoce8z9SbdwJTW6Gt7EkKxZxo1Fe
;PYCjkX3t5h867gV763KsKlptxBBgbZCJoTg4HmeIXENR5Pz1FIyLemrLd2fqcqxZNwyoYH8L7ujVTTk
;WdbtYc1vkwuUIn4NsQcdrAYIewAZFbdwVUAv06NVNSnsUjnQsJ4GjkQ6Ah3Ny8WMCigbZK1J/9w9Pbp
;CMij8rD324NC09gaORfe2vXx6MBWfrAcM1Xmj3HlB/gYe4Ei8DYKVBX1Tuzc4KhIJrdvF3Bp8bw1k2D
;Kh8Pwv1sZVNUHsU10dDUejHzh+Ckmtxw1oBgh7NNFJi3CNZZ5qf1UxKexTXNCxkwaODfe3mbHHCbAO0
;EMMtQ2PFI1NqjI2nTUt7FNc0LH0O45Fv7eYfbcFpDo8tzjZDeMcRYHiFjbApSnoU1zQsPQHl0X375h8
;e3WoLghbzMFlqwRBTVJCQpSwkCH24Wiw8gaORfe3mHx6uFmfrct82W2XMI1Zlk4G5IRUIfLJYQE6Bop
;F97eYfHq4FZ/1yrFlEY8QVW1SchrMkJhdLoF1ISen8/BSD5h4ergVn63KsWTcZqHw/eJqEvCkVF3WuU
;V5i9cv4HoaIem3dBWbYQZ9qBD9LQz8U9ejVPiUXfbNrWFLx/PQFmZRqbcdqCbQFxT1DZPcOXn+ch9VM
;SnsU1zQsZMGjhn3t5mxxwmwDtAbDKWhqwRBeZpCGoRIsF3ugNC09gaORfe2/Xx6hBWfrAcM1Xmj3CFB
;7qoS0NC8JFNY0LD2Bo5FlreYQHq4FFIQexT1oeMcMYHiFjbApSnoU1zQsPQHl0X3j5h8e3XUSmQHzNF
;Z03xVbf53o1E1KexTXNMwCgYKRfe2Vam7eahWfLc09VnzcFUluqoG7KyMXeIhGTUnozM4QjJ4fH64FZ
;+tyrB13DIl8PwuGnaU9JQlgiFVIXPHX+AuIuXZwyGwLhy3eOENlxyNSYpvo1E1KexTXNAJ9gYORfe2V
;am7eahWfLc09VnzcFUluqoG7Iy8JS7JMXFzv0PgSg+YehDec/nLrdWY3G6h8P3iAmKUiOA9LtlBNTfX
;K5xiyin5ny3cU63OsWTcMqHwrS/Xz1U1KCGGnRENP9fzwGYyWa3fYYDiZF8gsVHjBE1F49enVTUp7FN
;cgbD2bo5F9npNvbsF3E7QTyDhHeMEKWlSCgbE5IiR5vlosPIGjkX3t5hderghn63LfLEd8xw5LVJSGs
;iEvexXXNCw9gWPDPe31Hx6udhKbAsMrQ1PKHUxuqoS0NC8JZ9c1LD2Bo5F9HdkfB64FZ5gH3ClYftwj
;XWqGjYohKwJxpUdzTvHG9Bnt5x8ergVn60zsWSkMqHxMfoWYuj8+JHe4WkJY4tf4EoO5Z2fxYQ6YBs0
;3VGmofaWSbHFM1PNEFMA0LD3y1uENgpRrQcpgCZgX8z9eYMQjTWqBjdVMSnsU1zQsacGjgn3t5mxr3n
;UImQbzPVJi2xlgZ5SRsD9KehTXNCw9gaORffjmHx7dcBebHd4taGrBEF5mkIahEiwXe6A0LT2Bo5F97
;b9fHr8FZ+sB2SlHY9oIYG2chLkSOBpgsjQtPYGjkX3tyF8euQVn6wHZKUdj2ghgYpuOvCEmJHuiQEBU
;78bifezmHx6uBWfrcqxKNwyoD0p7hYenORULfbtYTU/e0PgHiOYeHq4FZ+tyvBk3J6h8P3iAmKUiOA9
;LpFlNUe389xGCh2t7yloBjhPYLEVp2yNHcqqNrT0rFWe+W0I9gKORfe3mH+6RBWrrcqwqQnzYE01/qp
;ulKC8fFNY0LD2BoxE7reYMHq4FFJ4C3DZFePcERlSRgaY5KxV3sjQtPYGjkX3t5l8eugVn6wHZKUdj2
;ghgc4y3sDU6GnqkXUNTgaIL5HR/hodnOmf5cqxZRHnYDFB5gbevEi4SZ6NVQl7ko5BO3tUsLZ3GWOtu
;rFk3f90MT2SHnIo3FRRysUdJSd7H/gqDuXN/12AVmHKtWTcMqHw/+8roz01Ke2eiRFxS89fOB7KJeXj
;dYBO0B9wGW23RGU149enVTUp7FNfEEz2ro5F9npNteM9mArQBwzVeaPceUH+Bh7gSLwNgpUFfVO7Nzg
;qEgmt28XcGnxvDWTYMqHw/C/WxlU1XexTXR1lP58LyGLKVcHLHYTiJHdgtWGH3GlNkgpq0OS97Fdc0L
;D2Bo8g97f0fHq52EpkUzTpSU9sTU2KRt7ciPg97umtAXPjG4w7t5x8ergVn64KTWS0MqHxMfoeOtC4v
;JGe4WEVZ3sH+CZmJckHddQKOFqxYNwyofD8LsajVakp7FKRBXlvgwPQinolzd8paE4QC8zxPeNoJTGK
;ahoo6Ix9gv2teXPXK/n3s5h8ergVnsjKsQzcMqA9KeZOJtigVCHu7XUhi9czhIouKcGncZBOOcq1ZNw
;yofH9TtejNTUp7Z6JGSlzixs4Ogop2evFxCJstwDhOadoPPwr16NVNSnvk6DQ7PYGj4gifgH59y1oUh
;B7FPWh4xwxgeIWNsClKehTXNCw9gZrRfeLmHx7abQ6FLds4W2D3D09ukIzVTEp7FNc0LAPBo4h97eZr
;dsdrOJwTwDVoe8EYS2OqmrQ5IxRLulVUPYCjkX3t5h937gV+63KsLV9lxiNIapmEijojH2C/a15c9cr
;+IoCPcR6vBWfrcqxZDkyobD8L9Zy6PRUZe6NAQ1De0OEYiIIfH64FZ+tyrBd3DKR8PwuBmrQ7LxdLpE
;RJWOWjkH3t5h8eLlQn62ysWTd42h1Jbpm3rxItGHuzUXNZ6NDlHIOFekHIbAmCAcRZNgyofD8L9fyVT
;Vt7FNdCSU/yyv4Tsop+bdpaAo8b2Fk2DKh8PwvKWZVNQXsU10NNUe384hWIinNtrgRn63KsWTcM6Hwx
;C/XooiwmF0ujXEVe6s30Dp7mHh6uBcdy60VmNxaofD98nJiwEiUOYLJGc1Tv0PQJsoJ2bdpkCYgXnVk
;2DKh8Pwv16NVNUHsU10NFTeT8/giZg21Bx2sUjgbzPV5/3B1RaJDa1UxKexTXNCw9gaOGfe3maHfeYD
;iEB9g8RVPBEkxugbemPS8ecOY0LT2Bo5F97ahfHrkFZ+sFxSlSU8cJS26Ht7wjOR5giEdcWOTHo33s5
;h8ergVnpTKsTDcMqAtWe5C3oSI9HmaIUkVF5MfODYKVZx6vBWfrcqzZfEyoaT8L9Z+8PS8kYLhDSU/e
;xfgFiIJAbsF2HutzrFk3DKhMVEv1/tVNSgx9p1FzSe7U9A+yj3F4x2kLtADNLVIMqXw/C/Xo1RQKewb
;XNCxK6NP0IpmJaHvcWgiNFN88Q3SofT8L9ejVTUq7FMU0LD32yuEYspJwact3OIQUyipSeNF8Pgv16N
;VNSntU1yQsPYHU+A2IuWtx2WAVtAHcPFJoqH0/C/Xo1U0DOxTGNCw99srhGLKScGnLdzidHcAsWmmof
;T8L9ejVTWQ7FMI0LD32yuEYspJwact3OJ0dwCxaafcRVmX16dVNSnsU1xBsPZGjkX2aj2978XEInBfe
;BkBlzAhXC/To1U1KexTjdCwygaORCoSWekHZZAuHLd8pUmnMfD4L9ejVTUoyVNc6LD2B2c4Jn4dpe8J
;aFJsXyT03Dah8Pwv16PsNSmgU1zRNXuLG/Rifh2t3wWs4jhzNO1tpqH4/C8Xo1U0rDXu+UHNJ88LnGI
;G5d3HCYBS0As0tX1PFHUdUmY27Kj4TS7FVT0nu0c4Yg4d9cssFZetyo1k3DMoOVm+SgbsqFR56tlZAW
;IGhkX305h8ezHcOjxXFN1BTzh1RVIaYsCguJHG5VU5R5KOTfe39Hx6uZxWCFsswWWv3GlZzkIyKLCQc
;eLJrSVPgwf0Y7eQeHrgFZ+sQ3jBTa8ESWFSGgLAhJghLslpNX+3GkX/t5gUergUFmRvBBlJ03BlNZZS
;Eij4iHni7R3Nb6NHiCe3kHx68BWfrEN4wWlPBEkxikY2KKCQadrtRLD+Bo7J97eZ8cc92E4IcywZSYs
;keU26qgbsrIxd4iEdFU+bP9CKBj3F7nwVl63KPWTcMyxNeeIGBuyoVHnq2VkBY3sr/G4SKc0HdbAmMH
;skGW2XGGQ0L9+jVQ0p7FLRbQ1Hey/Qciblzd8hxZ+lyrE03DKgfUGSZgbsqFR11uWtFU+LR9Byegx8c
;rwV863KsOlhjxBVRbKqYpyQkD2enUUlZ3tD9EpqCcGnABWXqcp9ZNwzMGVF4kLemODoLe6VAc1Tvxfg
;RgblqbctaC4IcySpoZcYjV2KSgIopLxVnvkBVYubR+Bnt5B4ejAVn6xbJN0Rp9w9Ke4WHpzkVF3WuUV
;5O3sH+CZmJckHLawaJHslZNQyobT8L9Y27LCgXcYhDRU3k/OUSmoNtHqwFZ/5yrFlSdNwZTWWUhIo+I
;h54u0dzW+jR4gnt5B8eiwVn6xfULUV5zBlNVIafvDkpE0u0W0NR6M32Io+DeXHcYDiYBcUtVGSofj4L
;0+jVTS8DYKVBSFjz/OIKhJJ8dvFmCIQexTdQU8AZXn+AmIosLg11uVdJPYOjkV3t5h971nEVnhbJK2h
;/3xVLaJ23tiIlF325U3NU78LyCYSQeh6sBGfDcqxZUnTcDkpvkJqKPj0SYLRcc17uzP0Ug4FAbs93DL
;Qfwy9SU80SXmmZjdVPSnsw1zQsWPnX4wiJg21B3XIOnxHEBkR4xwxgfJyYsBI9Gni7a1hS9sbjfe/nH
;xGuBWeNE8IGVWDBDGBum4m3IS97FtY0Pj2Bo/ccg7l8ccFpDoUV8zxZbcoQWgv36dVGSnsUsVVCYuTN
;8B+Bg3serARn+HKsWVFtxhNZbaqPtiIuHkuyWk1f7caRf+zmBh6uBQGCAN8taGDJBVp5qpu9KCYXZ4h
;RQlzjz/R97+YfK64FZ40b3ipDU8QdRm6Ht6YiJhJwiF1CW+jP/SKInmts23YOhBzzLl5o3BRgeZScvC
;IVHnq2VkBYgaGRfc3mHx7IbB+0GsMrRWXKEFpUkJChKCQIfaFRc071yuUehY9xea4HZ+tvrFk3asEEY
;GOamqckKBdxiEFCVO7NzhyBikBq13UCtBOsWzYMtXw/C5OBrRIiFGalXU5R5PzkE4SJcUHPaQu0BtUp
;UlPKfD0L9fXVTUodfa9rRFLz0fgfgYNAa8BsCIUtwy9SfsQdT3uQjNVPSnsO1zQsW+jbzhWClG13zGk
;CtAffPGhj2BlRVJeBoT5KeRTXLyw9gcX9EpqUfmrLWhWOAcktaGvLE1tuqo27LCgXcdc2LT2Oo5F9io
;dvQchsC4ct3zFSYMQPPwn06MxNSntztkRzW+jP/SKej3F5wmA4jgrYK0J/wRNRC/fo1VFKexSwV0NZ5
;Pz3FIGDcX/DYDiNHd40Vnj3GVFql4SwTUh7FMw0LD3ozfcUgYpAL541OJ4ByQZEY8QVW1SchrMkJhcU
;1TUsK4GjkRSDgHZywloGjxPcLV56zSNaZZSKuShKeRTXECw9gcr/G4SKc0HNagmIF8ItRWXLI0xkmYG
;xEj8IcYhTTU3exfgRgeYdHq4dZ+tyxTdRZcQQYGiahrsoKQ9LslpITe7K/wme5h0ergln63LFN1FlxB
;BgbZyapjlKeRTXLiw9gcr/G4SKc0HdbQKHHt8GQn/NI1hqhbezJCYXFNU1LBiBo5EUg4B2csJaEpgX8
;zVeYs0PYGKbt70kLRNLs1FCTujX6CKKlHZ6rgdm62isWTdlxg9aeYG3vSgrD2Gna0te7sf0IoiIfnzC
;YGfpc6xXNwyoFU1km4G7KhUeerZWQFiBoZF95uYfHsRgFYAtyTdWbsQZPwn16MlNSnt4tk1JT97L9BS
;KjmtBz2EGmwbFL1JTzRJeaZmN1U9Kew/XNCxR4Nr0D7KVd3vCaRS0Hd49Un73E09/nIW8Ny97FtY0MD
;2Bo/wSiY95d8t3OJgayTVbf/cRWnmSjYo9KwlxuUAsP4Gjn33t5nFx2loUigTJBkR4yQhaC/fo1UZKe
;xS4W1ZY3tD5FIiKex6sBWf9cqxZWHrNDldqm4+KPiIeeLtHc1jvwvMRiOYdH64lZ+tywy9SfsAdUWyq
;m70oJhdniFJNU97Q4RiIgkB7wGQFhxesWzcMsHw/C5qesD84EnCya0pU7cL8GIOSQHvAZAWHF6xbNwy
;xfD8Lmp6wPzgScLJrSlTtwvwYg5JAe8BkBYcXnlk1DahmPwv1mKckJA9Lp1VeSfL84hick3pwzWA4hA
;DIPEUMqnw/BPXo1T8rHWCIX0lY8fz5EoGDbB6sBWf/cqxZRW3OCGBkg42nPyMfcYhRQlzjz/R97+cfN
;q4FZ5kX2CtWb9wVUGWqiaMiIx9LolpCWOLG4g6MlGZBx2s4mAfcKVh+3E0/CfXo/U1Ke2ayQF5c4tf4
;EoO5fmjBbAO0B8I3Um/ND0xqh5GKJCQkZ6JEXFLz16N97+YfDK4FZ5kX2CtWb9wVUGWqi7ogKBJ6sDQ
;uPYGykX3tlHpq3GQEnxvDN2hpxh1dZ5Do10xKaBTXNF5Y9dHwHpmPcHDxYAmKEMA8aD6ofj4L0ejVTT
;geYKVVT0nozP8iiIh+fMJgOIkXyjZFafcTSn+Qmoo+Ih54uzQuPIG6kX3tlHpq3GQEnxvDN2hpxh1dZ
;5C3ujg+CH2zUSw/gKOHfe3mbXvadwaIBsU2WVPEHUZuh4u9LCQccdc2LT2Uo5F9n4NrbM9mE4IdwgZZ
;Y9wjVmWGgbEoSnkU1y8sPYHR9Amfh3xqx2oJtAjENkdTxxJTcqqbuiEjHyXXNi09mqORfZ+Da2zPZhO
;CHcIGTWTHDGBkm4SsEjkUeL5QHj2DopFk7eYfbctxE4IcywZSdNwOSm+Qmop/FR56tlZAWIGhkX3/5h
;8e3W4OmQbzP1h+yxlgbpuJtyEvexbXNDk9gaPiEIyKc0HIYAafB948RFPNEl5pmY3VT0p7Ntc0LE7sw
;v0RsoB6f9pwFY4B8zBZasEQU1SHiaEkJSRxuVVOUeSjk33t6h8ernYIhxvIBlVj3AhQZvXq1E1TexTX
;R0NR6MfOFIOAdnLCWhKYF/M+Vnz3GlZnmejXTEpyFNc0X1LtyvUimYlvHqwEZ+JyrFlEfMEOXmeckrB
;NSHsU2zQsPfLT5A+euXpwz2cLjnKuWDcbqHw/eICYpSI4D0u2UE1N9crnGLKDcX/MaQLrcK1ZOQyofE
;x+hZi6Pz4kcblVTlHko5N97csfHq52EpsCwytDU8ESWWKZhIo4OR5Lu11CWPL8+BOyjnZ5xloDjhzfM
;EN19xtNYpHo10xKYxTXNF9I8dP+D5m5c3vPbh60EcM3WWnLCFZkm+jXTUpiFNc0X0jx0/4Pmblyccps
;AYIX3gZQacYZTWqBjdVPS3sK1zQsTvTT4RKfkkBtw2QLhy3KNVht3BlbVJONtDk/CXGkNC48gbSRfe2
;SenPeYBWKBtkrUlPEFUx/qo27LCgXcdc2LT2To5F9mYNybst3Bp8H3jxoYckSSmqZ6NdNSnEU1zRbVP
;HGzgmCkXpsrgdn61KsWTd7wQxaVIGHoig4JHK+TElZ3tP+DoSSdnHAWgKFE841UgyqfD8a9ejVLisPc
;bBbXkTezfAQiLl3e9YFZPtyrFkHPJ5ODzvDq+V9fU4k5wIZPYijkX2IiHswyWYIjxesWhsNqHx4MsTI
;7h8vF3WjXVpYodP+DoSSdnHAbAmMeOtoF0mFTh9Nx9/lfWpARrJAXlzi17EczYR2aqRCVss3gWsXVph
;SDSuz2uF9elsvhVFYT+DA5V2MiHs+3GQOmBeMAz1LmVxnPtWx4G0MSCTnBAwG1srhGM2JamqkQlbLKJ
;lpFzf6HVZ4kMiPbScUZrI+awSxg6o8j5VwcttxAssCwypeeMETUWWchrJHQDwl92wcHdiRo03N3U9sy
;3YChQaMKUVlxgg1RsTY420ZSzTsYFlP747+G4vGeX/ADyraQph5ZDyIR2t+h4b4IiwdNL9bWFjvx5sw
;3NIvPv01R9Am2StZIccaWSuXjbFHQDYs4xR0HdiD1F3WonZtz2cLjlLNNVss2whae4WNpz5qGWGjFHY
;9i6ORfYiIeyyAYgSEFslZNIyofD9Gx9rkbR5LNIQFHA2L7qNP3MZLL45WVttCphQGPJxcazvVu+VHB0
;ok4xR4DKHwoXeg1ysujlZX4T+daQAG70UOAbLZ9QhnSjSRBxwNi+SgXbfNLzCbJSLGR4wAGj6YXHlwg
;Zq0Oy8XS6RESVjl3ps6394/Rp4lPtt44WEDBu9FDwvg6NVNLwNgpUFIWPP84gqEknx2gGIEhBbJWTQM
;qHw/C/vo1U0sGnqIR1xY5MfOEYSVax6tCmfrcp1iBTmTTgQ+xdPmdntLJNclLD2BxfgRjIt6cNpaE5I
;CyQZEeNp8PAH16NUdBjo05hobCOzOkW/t5h94x2kGhhfCLWh40QxaVIacp39KeB7XNCxtzeKxTMPRKn
;PDBUfrcqw/Xn7bCGBnlJGwPxUIe7tdSGLozfcUgYpAbs9xE44Awlk0Cah8P0echrA+Sm4U1zRLXu7H9
;CKLj3N7wGQKji3KNkVhyQg/CJLo1U0xHHe4UEli58r9GIOHcnvxcg6fGsMsQ1PNBEt2qpO4LCkTfblR
;c0n40/QijIR9bMtzDooGxTZZcfcHWWKZibgoJA9LuVVBWN7C8x+fg2l3z3EOhBydJGh3xB1Gboe3vSg
;jHHyjSUFQgbKRfe2BfHHKYDibHd8tR37HH1p4hujWTUp7FNc+LD2BxPISiYNAatd1Autxqlk3DPoZT1
;mUmNVcSnsUvlpKVO3PzhyDgXN78WkOmAasWjEMqHwLPs7Z5nhKbhTXNEVT58r9EbKCan/CWgKTBt4sR
;GXHEj8I+ejVTQsXePdRVEnz1vUYn+YRHq4FDoUUxTVbU9gdS3+QmrtNSX4U1zRgVO/G4n3/5h8ewmQe
;jgDzOl9txhtaJZKLuikvexfXNCw9gb6Rfe2KfmfLdziYBs0rQ1PYE1ZlgbemKCsWS7RbXlPk0ZF+6+Y
;fHvxgAYcX1FknDKh8UGSPjYo+IhJxu1BzSfjT9H3u7x8erlIGnxfeH1ZgxHwuC/XopSw/CHGIXElU5s
;vlIoGPbGquBmfrcqxZJgyofE9nlJyzIjgWS7ZQSFT1yv4T7eUbHq4FKYQcyVkmDKh8T2eUnLMiOBZLt
;lBEWPLK/hPt5RsergUphBzJWTsMqHxPeZyGoSg4JGCuREk9gqiRfe2jcXrLd0fYUuI8Qwy7fD8Lh4mz
;ORUfYbZYc1j51+MIno9wcK4GaetyrB9eftsIH26NnKc4Lh5m1ycsPYHR8BuZuXZwyGwLhy3cOEN4zQ5
;RC/bt1U1KN325UV89kaORfZ+Da2zPZhOCHcJ3UG/HGFoL9ujVTUp7ANc0LE7qyuMJsoJqf8JaApMG3i
;xEZccSPwj76NVNDBJmpEAMWPnX4wiJg20euQVn6wHDNV5o9xVRbZyEuRIrFXO7UXNR6NDlfe7gHx6uM
;VLQQ59sNxiofD94moS8KRUSerFdQFHe0/AJmYNtcK4GbOtyrAtSb9wVU2KbjbQ/SmAU1zRfUu3K9SKE
;iHl3wmk4mxPYLVJ+xiNdZIGcuiBKeB/XNCxv5MDlFIGPcXvPd2fgcqxZRHjJDkslkou6KS97Fyw1LD2
;6g9QTiYNtPp0lJJ4B2DZaLPsIXnmByJJgKRRwsj5rBLOD1E3N3T9My3YCn1LpIUN+3Rhaef+v53VqQD
;SfW0FYocL9Ec2HZ3vdDyDaUvZrGTyIOgw7xdj1dmo2e6FRDGeh4ukUnsZqbo5pDp8GwDwXeMdcT3mQn
;rAjPltntEZNSeLL+BOKxnB4jk0CigaMG1JoojsOK63Y+3xqIibnFHYNr5CxO9jWLy6ANUfQUuE2QWmI
;CFArhpy0Pz5bZLhHRUnozP93qtc/Rp4rVssrnmkHIphcZTvb2/ULe04k5xocHcSSpF3Wxltsz3JHnxr
;JeVFl2g9LK5mBuyhAPCX3bBwTtYPIT93WMS6OX1fFQYwfAjyYTBE71dP1ACUNcfdAQx3yyvUYzYc/cs
;dxE4cXph4GLPBMET/Vsed9aiEk+QcMe7CWoU3D1j9bnTVH0FLoK1Z7iAhXbtWbsC4lFXD3WEVT5KnWR
;N/GWi6OPke5F988QyztBEt5gIywP0A8JfduHhOxg9dO3dYvPpUlKoQEyXltLOkEVnjVnaVtJhJgo1hJ
;HfXMsQ2fg2l7wHFHmBHeOENvwBVRbNWHs20CHnWjFG5Y5anWTM2+Kj73N1fLKJ53ByzuSQ87xcblbXF
;bWbhCSR3u1fQPzZJwPt53Ap0Xwi0XbsQTXSuGmaAkORMU2zQsPfLX8A+Z1DF5zWoDjnKvNTYMqDEKPM
;fIkX1qKCT5BBU3zJamT82iLj79NUnbS6YeBT2iOwY7/6Xtf0A2JecDJnqzm5s63MZFL5srV8s01y1Fb
;d4ZU1SGmLAoLgYegwQmeriRsTjd7Fgvjl1U21L1dAUs7kQPO/+v5G0QSzrkAQx7s5Ohd6rXP0aWMEey
;X555cj2bXHk5xdjfCntbUeYBDHuzk6F3qtc/RJslIdlCnFNwNZpcejv/r+VtD1ZvpVFYT+DA5RSCiEB
;622QLtBPBNkJi3AEfTcfY5UceSh6QDR4dxJObOtzGRy2eNUeyX555cTSYTDVMxMiPfWRIIfdyHg2xqd
;ZMzb4sKJ4lPsZAjBwGP4g6DTvF4pJ8aj4l4hRqD7GTmzrcxkUrjkNV20KmHg4+iDkPAbLY9QhnAGayQ
;F5c4tf4EoO5e2vPaTiKH8MsWXjVXHk5xdjfGXpxU+YUakb10fALiIpAbd5gAo8PphQGPZ9cb3mchqEk
;JBw6+RosOoGjkQ6Ylm9x3HFn6HasWTdCxxJaC+no1U05DmSnW15J3sf0E56DQHrbZAu0F9QtRXnbFVB
;l9evZTUp7VbtYDFj51+MIiYNtHrwFZ+sB2SlHY9oIYG+QhqYoFQ9tp1EsPoSjkX2hj3F73QVx63KsKk
;J82BNNf6qMoCwmJHGvQF5I8sr+E+3lER6uBSGCAN8tF2nQCE1+kY2nTVN7FNdHWU3xzOMJso9xeMdpC
;7QTwj5bafcQVniB6NZOSnsU+gAZPZGjkX2ek29uwXcTtAHYK1Z4zRtGC/bu1U1KNXulWU1Rga+Rfe2V
;am7eahWfLdggR2mofzQL9eiHKCkPfbtdQljg0ZFe7eYfbdt3AYoRyQZEY8QVW1SXh6E5JRZLvlpKVO3
;Pzg2Mkmt73Gtn6HesWTdAwRJaePXI1U1KCGGlUk1e5PziEoGPe0Haahe0G8I/XmDEI09qgZywPyR7F9
;I0LD3Nyv8YnuYLHq4FE44f3DxFbdwJTW6qirApFRd9pEAsPomjkX3c3SoulTdc23K5WTcM3BlSe5Cat
;Dk/CXGIWElb9fz9FJ6SHx2uBWfrcrpZNwzcGVJ7kJq0OT8JcYhGRVrp184RhJVrHq0FZ+tyrFY3DKgL
;VnuQt6EiPR5miFlDWeSjknvt5h9Qy3YTjhasSTcMqAtWe5C3oSI9HmaIR0Rc8caRfuvmHx7tbBWIHsl
;ZOQyofEhihY2KOisXeIhZQ1nko5J37eYfV8BxApkezTpSaKg1Pwv149VNSj56s1FeHbKD3xiZ5h8exU
;Zn6xnvWTd263w/C/UlGYF0ehTX/G49gWvTfO3mHx6uzSbrcqxZNQyofD0L9ejVyUl7Fdc0LBKBo5F37
;eYfTuJER9pcm2xaYah8P+vK6NXWDnsUwXcsPXHikd1hox+mpkJn69burD8MqPVvRbLl31dAexTXOWV1
;xfGRfe9UHx6uT2/tcqxZcCsfoT8L9eGlBRMIFNc/Pz2BqIJ87XyDBq4Fb0g76BhjdDSR4rab8wxUjIr
;zH75Qs1dT95XpJ8V3HAR1rBC5U+xmXnZtE4V43gUewhiFppYxbnXQ58Dku5EHK2Li1uRvWXqpB2gU/u
;9HqJLltQHQZfyYUgFfhKy92gH6yAq+DT9PwLHDR/Nn9M9Mndfwi0g5xiyE2IjHEBQeXYNdZwvNfwoN5
;MOP65gwZojln8ixjJJMxKZjT4eblXWTTBHP2zov2a+gf6d9jKU74I2oSlzP+Vwo8BrYA5yDw3lyfMs1
;PARHKU+ejxMTbaWXQJthHD9CAMjV+xS/Q4ccFmsGllyV7n5RRhYF5xFJQrf2oxxlP0gWq/e1dw+jIiC
;S2RmXBvTAwzCosIiZhhkyOqVGjSMISvTaTGQYd7B2IIKbgqI9rA5YJ4IoiQFwGnGqe7B+GpJGkGcHNn
;yN58OpmHuKVhy1I3qv8kl5EDstzoOPIEaOltWNqasjdg1LowzXPH0bUXWqGuEdgNZ52KF/tse9WirMl
;A9YOpAl6ZkhJATR9E+IjNP9k8xjErOWZFlcPwdQYlJ/hr77TwESuX3IXzoFqt73QgiACo65eAR6cdZ4
;yc0Ggx9Dm992JpcLugG0pmhmo6sfjX0pA+w0bwchiNFMwSpyT3oTVUPJVzl3Smk4OOtKI2xc76Wb3ZS
;uU/wEdSCudnsCzXCTshSotFTMJ6F0BEdHtgSJJftDlhMrt9Snf5fcHXYmynErDpzXNJI8URPFxHUrfJ
;5/pWj0I6ALJuquJWohWgll4k80lwdEjArevggr5Y8voeAm1pKGB8JJBLztdTSsJNcXp8N0M9+8G7Ty0
;gFJ25VnJ5upL9jzdqgmAttg4NgH7M/NOpBxGclWtdlsfBAOFNdOvETmU4GA39QemdC9yv4jgVnfQhMz
;8tiIAvbyyglI2jSRFZEaPNuMyQf7UOvzqVbqXqW6j6UNADLl6YrP6pN2MigcaIHLzm7SedSO1YkpUgM
;f63FtzHIX3PTEtfG6eNh1eSFdKnciyZgcTa8xLD2Bo5F97eYfHq4FZ+tyrFk3DKh8Pwv16NVNSnsU1z
;QsPYGjkX3t5h8ergVn63KsWTcMqHw/C/Xo1U1KexTXNCw9gaORfe3mHx6uBWfrcqxZNwyofD8L9ejVT
;Up7FNc0LD2Bo5F97eYfHq4FZ+tyrFk3DKh8Pwv16NVNSnsU1zQsPYGjkX3t5h8ergVn63KsWTcMqHw/
;C/Xo1U1KexTXNCw9gaORfe3mHx6uBWfrcqxZNwyofD8L9Ygpge5cJLkRy9/x3lILQhHm5WP2WS00XEG
;CKAHiSPCPejm5UdSxCs+GYuF8kX2NWlnTuOKq/80cb4lhci3TvgKST+ufiNr6pfuqyJnD030AMEXiaP
;fmPTaps+WVNQnXBUjvhvSIOWrGckL8WuOGwqFYi+fKYOvy6aifXABAFdfczwvmc5Ldi5Xyu917/XZuF
;qsYToxjMuDfKIh8krOe/0m2rOIdiYbzH+UnIty2FBh5xheYDkD8cqyKmTs7UCbipAmbNAOpRuFCzoDP
;haPGBHXV9fFMwJgu48uqRc7uFAJHFVdnaw4g0IqJwviM9rGEZoq6u0xMqHz7ob0ml9U3s/XooarYKo6
;wf76rDHIcETSudbSzbYBSSZcXTiKh/9FeEXqeSJOlB1SEVkQoX3g8JImYG3bybqTWAii1IqgccWewbZ
;+Suzm1q63RE+YU1y+mxNuQ55sq9W2xN3ybo8QcLFHYYRO8v9SjnAl0dKzqxnKoZQCuBTs/Fdu2Cq05S
;sQl74ZSS5OHAdn1WUO8na2hk5prRjfxW+tylPboSfmZsI7OjEF0HzCGPc+u0PNMkZyYV+eFheLZF2qs
;WeSszLNAArgkW0CtmRmgG7oHIBWmrXPgxrMGVUZXXDoDhDVY5okL9aRu8m0UY6leQUFWu0xPvp1aTyJ
;Ef4Gx28q6SCAhC76Tu2AbGY73NNnWzPDGQ47s5v+8UPG2rD1CAizTOq1wA0Hj9rLU9D3uI1NDdn0CNK
;LuSHlhstM8gEEC2AUYfL+yhzcPtX0qQPluN+JPHW8OKv6yDMTivQSF2mZqQhQrHSTCVeq/zwjeVJ8I6
;NtOGvg5aZCpHd6tL1SqWfcZ0OaZ3lITLph/EHeeTjx4ZJZ6H5RJSleRXw2Mbh6Xy6Sd5+VgQDKSucH0
;KyFiflmNpOi7aUcq8RZPtbYRWO6gI6HTP4twXbMgtlueHQMIKDLo5aQBWNcOwGIyFWNllqkzR4jjFLO
;5MCxe7itHQH97V+sH/tbz3a7Uv4loh5j02TuyR/55ADLyREq7gIz7FouOADlRpA1GpvNQgJHW1V+lxO
;mvXdOyzG7DmsGhpuWVhelO94UnY5xkGwsboOAYxrLZDrK5XlzTZUuhrn9MHCw98sVMpzVOAnQl0wmh7
;0I0GeNK+kajyKbzV/14ywVK5/bKWae1r58Z9NOSHgNjhAMs854H6jkZSAtBvDmfadlpLcOs7TYCmnin
;0+6chtRxbZoyi9A9C8WZEOHJYJKL3UAbE5koNYeBPFfz/C/JUeXES/hqy+sDR7m6Y7BdWXzrGCe6TFo
;8CphZ5bPROOaKxWHsucSoNd2i7zky2KQk6y48E44gYNtJkXWxUTJ/lEPMAn5m0NOQ2EHCnJJMWmHgL/
;cYKaGRTZ4UUzrbO8F7FQ8GDBuPP4m+yAObC4flpb74Zm9+H4UbSKBQULSR9hXhiIzpUNyicz8jj3epF
;ucSRPkj1zsWCiPX2191WPjYYu7GKQfAdXaZ1GEcqD2V0DUWBvAbmELgWXDgTlfU5tp110XAKB7QYgPy
;OmpqSkp7n7oJJIDThLIYGotV8/KXwHkjHssTkWALCgEOUQBevVWGTmqjrRZRPakduEDrSqFbyP+XRnp
;BJ8fbV2nsmqnq+OYcqj8cfVhPKt9HEJP/qKgEhlo3xDmpaD8LuUFg01ZPPPihsLberJnVLtTMNtds/V
;mgU1i2bKjJ+fwK2tVNSntdknpok8PDE/zl5h+X/ksg5ni2UzcMqHF2Q7G61U1IyRTXNGY1h6ORfarBq
;MOuBWfiAuQARAyodywL9ePGTErhiM80LDWu6tU8uZ6D83POKfgfrN7G83j/Ov++nPSBWj07FhQKERvr
;c7uGBhminaumftmCf41dH1IlLOOg3fncWaJK95u9mHyfENRwgYDxZ71ybNCUA2M2wnFQvijWPhesDxL
;H1oM+lhua6GZG3ZKJPor/11mvcE742LGbVw7KJDQWCMMr07LM8m/r1vaMl/zNUgV+v9VyWwxJdAPWGY
;TycTXs03DqdG9YU1TYdg1ORlTIhU5WpCUoe1rFOkY+f2UclgCsi6QeRIlc1qHV+9z/SZWsi53spPxWl
;V/fpE1NDLFhiltLWuZ/UuXHO3FJVf6cx0xg+Mu0r/zuIGIji/QWZePnknaQ1/A8K/YRLx5ihLI+J9lj
;KhkjuU4EkILBR8+XNlrzzv79g/WarVHES74BrQxLcI5GftreWbjcob970YlpiLlqflTJBHT8JtdjUPk
;eIIXRNlRv61Nht2XM+GBnsqb70t1WK3b7R9DbAume9WfTx8wX77pFEVFlP50IOXg3MhNdsyXaDgdHcG
;hVuzxPwnn4afshGr4SwzdLBz6W/RR+4y6+mfsePztOp6Mcti68XU97LMLwUQ922SZPmri4nt+MCXsTF
;vCNuuclT3+2L+1JCbCw9D+/Yhsd6g7EbHH8CBDFAhNkmx/E0mvFJiAgOmWu7vin0n4znltNf+TT1+YZ
;axmmn3U+59S5dLsqYnbedwAVBfjxrwEdnfri1dUs9fev/TCgTXxIstJ+7KSKXPFOLoL+somtJamuk1t
;8ZcCprSwVykroU40SIwm5SAWgR+NWMZ5csfbrGxbo9XC6K4p16SWe1UoVfDYy14daAfxpNX5NvYFtux
;0njbaHWu8CGgwh2BcBvU9IM8vVVkTwW/EEifYFa0D/HTZY9VAZsWC+emBfwnJmdn13AJvQ73dQh4qBF
;0CeG3Ow0gv16NVNSnsU1zQsPYGjkX3t5h8ergVn63KsWTcMqHw/C/Xo1U1KexTXNCw9gaORfe3mHx6u
;BWfrcqxZNwyofD8L9ejVTUp7FNc0LD2Bo5F97eYfHq4FZ+tyrFk3DKh8Pwv16NVNSnsU1zQsPYGjkX3
;t5h8ergVn63KsWTcMqHw/C/Xo1U1KexTXNCw9gaORfe3mHx6uBWfrcqxZNwyofD8L9ejVTUp7FNc0LD
;2Bo5F97eYfHq4FZ+vyvejxMSiH2bFbfwzzoIWjLg/+1j9MToUcZQGNc+qcFaQhxisMqKCU4EMtmNYoH
;nGSuzIAE4fkR/D7AwJyfQs2HPuizPfVE9Tc7lsDW1lgpjG/6kHgx85ZWu/Od39v0j8cG6zC5/8BxvmQ
;Tos1SntYZYND4vt4SqYHkKSUDG27KGs1Z7xkK9Jwb3Jk8CkXrOEt8cURxkrcyDaLqsXDTDXV7ftnqNt
;2oqF1CBLwJHAlSNc0YIftMMnrSAvyc/eTQiBIY/0XBLz63rNz0ITPaqvKCWqW0HpdyeaJwj7FgVHuP5
;nlD1YHLT4lu2d8HqjesPHRCgLGj0lzcmztH4bVY/C3FV2VhSBNDoY/k8UeH14+HhREimrmTMKvyID3k
;AxOif/AdU4xvdILfhtRB9VeiXni/dInFDo8QXjtKp1sF+lqMw0LvmpU8OxLFUOZyV77jDC+pmaYE89O
;x6pIAqzIsbke9y2Q1/cWCkh8fLHVjZ6hzQ7FdHUa3SbwNkc+hRLGRrcV+/xlXQ0uHm306Iaqh+AjCY9
;b0keenfFlCeRJKGhZUPHUxBh7kRE+C3WZjxIVZOPHBG6Tasn2Gqp0++UQUs6/XKk0Lb5NDuYoqw+e4B
;zAwSDULj2xqu+BFUd40TDs2BSM/+hvEF8MD0mzPK+rtV1PxSUXUusWCxdYfLXLBK+ywdW5WTeqfofI5
;Eg9ABhf8FHqStClIT6CtAqaM8nbuAMyZB+w0+jssVlYOI6Gam1cEPs0TJstDT8HQriijE09jsQXgXQa
;pfhUs3KR8HCQlybxbOmCv6HrLtL5NTAX+ewbHic+8+Jm2jX/CfWOH4yLusIQuzNYWhW2NPb9BKzDXvW
;/Wrjti7CENYvF+UEAJyBNjzCTOkF5U1C2ChVFQvLhR6RrnwOkGf81RfkRYWsytVWdrzEs8aZ4J8Bgax
;JHOKDSXkflplV62Q2ObO479nQPicdwe3fUVswsAxA8xMJy6Z6uW6K3UzzLKdUGo6F/mqERIM3SWf+Uo
;xHxiSNpbd1W9Q9KIn3CkCocyQTo3MzL11nNJAmei+zY+haGlAM5k72+Q5cMh4haA1l2YlkupDFjLbEJ
;VBmLCPWRfYMvqXNht8t1hOV3JGqr5SJP5jVqG+Hu4gfb84JStdtnxR2g0u16dyoDsHbMoo29fhYbHCF
;596V+YiCqXPv+Q9ilq8v12xh69ofASpwMqEADzIRUXobUdd7hpYiDrDf8X/cPQAEzm/nBeq4Q0GE8kZ
;3oFovIUlUkzZbj0rRb5y7+d3pPgzs4z5puC4K0MuFE8UTtdkjQF8IrXZbYihdcbYR+CCjdmy5v6W+yR
;302l0y2cUh2iV/gexSbrYi0rw1mIUNJsLkP0yhUuplifpZkKq3xAnpsYrMMM0oAhKx3VGZSmDdShUbD
;RtD+R+Npu3MxiMZ28hI8MPsSUptF5UDsCaL4gRm4iviaEIVmnvB9hA+DyNHJ/wTXNbOw4Rhcb5irR8+
;oHh4uoRgMlYqjmvwyYUyWo3pxfUZUEadi2ob0zEIxcKj41FUhyo9cTHylShKTAbEieGjGJn8b7RwHFq
;reZuZMOlC3+teodE1XZ/l40AR3i/foVcTedvaW2c+HL3l8CzI9mSt9cB2C4PawSNaqgvqepr/2TUp7F
;J5xYnkv4fH/TdgfHq8FZ+swklk3mKl8Pw/16NUvShcUojRJPYGwkX3th3x9y2kCmRPYMFhi9x5Qf4GH
;uE1LexTXNCw9COORZu3mH3/NZgKHF944Q2XHEmBpmpyhIickZ6JGSlzixpF87eYfHq4F7qtyv1k3DMk
;fXG6ZjacsPhJ7uWtFU+fK/RHt5x8ergVn6/vsWS8MqHxeaJaNuSg4GmC+W0Ji6M3iGJm5dnDAYBXrc6
;xZNwyofLZL9fDVTUoad7RRQFjzwuUUgohAd8B2Ap8twyxDadp8Pgv16NVNSvJU1yYsPYHC8h6Iinpsz
;3EOhBzzKUVlxgg/CvXo1U1Ke52XNDw9gaPwHo6Dc3vcZBOCHcIGQ2PYfD4L9ejVTUryVNcsLD2BwvIe
;iIp6bM9xDoQc8y1YfPcPSnmTibYoSnoU1zQsPYEq0X3+5h8ez2YEjh7JK1Z4wRNRVIGatDsvFxTWNCw
;9gaPh6q3mNh6uBQadHcU9aHjaHUlumbe9IiYeZ4hETUnp/Pwclblze8BiE4MtyjhUeMcOPwr16NVNSn
;t9lzQFPYGj8AuCj3tB2ncGnRfABl9jxBlMVIWJoSUVFnWva0JS3tH0CZ+HfGrHagnrc6xZNwyofD8L9
;fvVTUoabL5Hc17uzuEYg5V+asdqCbQKrFg3DKh8PwusqNVeSnsUtkxFTt7A/hCdg3Ftz3EOhBzzIDcN
;qHw/C/XojA1KaRTXNE5S9df+ELKKfmfLdziYAsk8UwypfD8L9ejVaQp7BNc0LF/u1+USgLlrdsdmDIU
;X3yo3DTLlppJscRxySmUU1zROT+jH9hSDgUB71nEVngHFNllT3xVbf523pyw+EnvXNSw9gaOR/YymHw
;yuBWeJAMU9UGXGG2BtlIaKPjoecbM0LT2Bo5F97b9fHroFZ+sQ3jBTa8ESWFSTga0oLiR1uVNAWIGik
;X3t5h/+zkVn8nKsWVV+wRhYYpuPiismFHWjUUhi4NH0HLKLdnCuBGfrcqxZNzjofC4L9ei3PyMfc75a
;S2Lnz/4Kn4dre64EZ+tyrFk3Veh8Jwv16Lc/Ix9zvlpLYvLL9BGBlUB4wmoQmRPYPDcNqHw/C/XojA1
;KbhTXNE5P6Mf2FIOBQG3GYAuHAfMqR2nNGD8K9ejVTUp7Kpc0Ij2Bo/MPhIJ4d8BiOJgCyTxTDKl8Pw
;v16NVpCns11zQsX/PK9RqEiHhB3XAXmx3eLVJo9x1NbpS3pyw+EnuIWU1FgaKRfe3mHx7nRWfkcqxZV
;X7BEWBnnIawEikUYblALDyBo5F97eYLXq4XZ+tyzzZWf9wVUWyqjLw+Php6tFEdPYCjkX3t5h/+kQV1
;63KsOlht2whWZZK3sSQ5D3W5V0kPgaKRfe3mHx5OOmf6cqxZVGPHEGBmnIaKKy8ecKVVWFiBopF97eY
;fHopFZ/hyrFlUY8cQYGachoohKwJxpWtYVOzGkXzt5h8ergVzq3KxWTcMzBlReJC3pjg6C3ulQHNU78
;X4EYG5cGvaaQ6FF99ZNgyofD8L9ejVTVd7FNdQSVPyxs4OmJZvcdxxOIIcwjxFU80ET2qbm7wiJHsVT
;a21pBg6eELt/R8ermEChQHJBkR52AxQeYG3uSwzHmaka05S9df+EO3nHx6uBWfrcqxZJAyofFtum5uw
;EjkOZKdbXkne0OEYiIIfH64FZ+tyrGd3DLF8PwuRgbgoJAh9uFpzRfj88hKAlnpw3WQTgh3CWTYMqHw
;/C/Xo1U1UexTXUEVQ5M3iFIKIQGbXWgSEH9w8WX/JCFZkm7e9IiYeFNY0LD2Bo5F97eYQHq4FApMG3i
;xTadojXmaanbs5SnoU1zQsPYFTrn3/5h8ey30TmQfIPEVTxxpZeJCcijV7exXXNCw9gaOoPe30Hx6uY
;B+fANk9Un73E1ltho2hEjJJFNY0LD2Bo5F97eYNHq4FApMG3ixTadojUG2Tm7A5FQMn1zUsPYGjkX3t
;5h8MrgVnjgrYK0JozQ5gZJOOpig+JG3mNC09gaORfe3mHx68BWfrF9QtRXnMGU1Umo6zPi8PS64GLDy
;Bo5F97eYfHq4XZ+tyySFDft0YWnmqh7MrOR5giE0fPYCjkX3t5h8ergVU63KsPE942glbboe3pjojD3
;e/a09S7s/4E4q5d3vPcRKbLc09QW3GH1pUgY24PS8JdaNBXliwo5B97eYfHq5sJ+tBrFk3adAITX6Rj
;acSOQx9o1dEYuLM/hGEiHhBxmAGnwfcBlZo3h1RaJC3oSgnC3GlVVhI88ajfezmHx6uBWeCMqxyNwyo
;GUd/h52xKDgkZ6BdWF7p/PISgop2cMlaD44T2CxHU8kYSWqbi7ASPhJ5sjQtPYGjkX3tol8esAVn6xf
;ULUV5zBlNVIafvDkpE0u0W0NR6M32Ip2HbXXxfWfqcqxZNwwoPn8L6+jVTS8DYKVBSFjz/OIKhJJ8dv
;FmCIQexTdQU9gdTWCqkdVMSnsU1zQcVsGjtX3t5npm2ncSjxfeBkR7wQhcY6qLuiImEnqwa1hY7NP0D
;4ySamzLNGfqcqxZNwwoGn8L0ejVTS8DYKVBSFjz/OIKhJJ8dvFmCIQexTdQU9wZUnuQmrQ5Pwlx5TQt
;PYGjkX1tgF8eiwVn6xfULUV5zBlNVIafvDkpE0ulUV9J4NHlIoiea2zPWgaGHdk3Qz6ofT8L9ejVTUp
;7FMk0LD3k2+UPmIJ6bPF2EIIGzzFofs0PS2qHnIo+Oh5xswYsPIGjkX3t5iteridn63LJIUN+3Rhaea
;qboiQ+GHyIRklJ88LyCYSJcUHPaAieHNhrNw2ofD8L9ejxDUpaFNc0SUX10eQZiJRAbdlsE4ga8ytSe
;NodXH+ch7sSOQtxslAePYCjkX3t5h8q7gVo63KsPE942glMYpqGijojH2C/NC2nGDoI5HQ/IB6/BWfr
;F9QtRXnbFVBlqp+8KT4TS+U0LacYOgjkdD8gHr0FZ+sUzTdobsQVT1SFiaA+LyR5pFFPPYCjkX3t5l9
;h7gV163KsP1Zi9x5TYoW3oSU4Hme/W0BZgaKRfe3mHx6QRWfkcqxZUW3GI1l+mYSKJS8Sc79ALDyBo5
;F97eb/Ia4LZ+tyyjhZU84JU2eqhLQ0LwkU1jQsPYGjkX2t5hYergUBihzzKkdpzRg/CvXo1U1Ke02XN
;CE9gaP3HIO5bG7LYAO0H80hNw2ofD8L9eiMDUpqFNc0SlTtwvwYg5JAesdkCo4GySs3Dah8Pwv16Cly
;SmkU1zRKVO3C/BiDkkB6x2QKjgbJKwUMqXw/C/Xo1bF1ewbXNCxb6M/wEIiIa0HKbAaGF9g8RT+ofT8
;L9ejVTUp7FMU0LD3nyv0cgINxavFhDoofyS1Sfpx8Pgv16NVNSnsU1zksPYHF+BGMi3pw2loBhx3bWT
;YMqHw/C/WxlU1EexTXUkVR4M70E5m5eXLBclbrc6xZNwyofGZL9ebVTUodfbtVQVjv184bgYloLK4EZ
;+tyrFm3Wuh8Mgv16LMkJhp5slpYYvXa4Rjt5x8ergVn63LsWTkMqHxZYpmJuCgkD0ujTVxYs6OQfe3m
;Hx6uBSfrfqxZN2rBEFNUkY27PiMPbdc1LD2Bo5F9+aYfEq4FZ40bwDVoY94ZTWeUmNVMSnsU1zQsA8G
;jsH3t5nl33HYTtB7NIFJ+9xlHf4edpiQlFUugXUhJ6fzjHJmPcB6vBWfrcqxZbkyobj8L9Y68PzkPS7
;tVVVjz/OIViIpzba4EZ+tyrFk3COh8EQv16LMkOAhgiFhNROTRzg6CinZ68WwJjRvANWhp0AhNfoaBu
;iMVDH2zQERi88LlFILmHh6uBWfrcvUZNxSofD9tnJqmOSYabbJGc1voz/AQiIhrQchpCJxyrVk3DKh8
;P1K16MZNSntyvkxJWd7P8ASIlEBt2mQVny3UWTYMqHw/C/WxlU1ZexTXUkVF5MfOEYyfemzxdhOKANg
;GTgypfD8L9ejVEwp7N9c0LFrg084bhIpzQd1sCYweyQZSdNwOSnich7sSOBpgvltzUODbkXzt5h8erg
;UOq3KPWTcMzx1PVJOBuSEVCH25U0BY3sbpCZ+TbHfBaziZE9gwWFPFFVEL9OjVTUp7lJd0LCKBo5Eaj
;JZAeMdpC7QBxTdQYM0jWnOBmqA+IxR6iEdcWOTHkXzt5h8ergUjq3KiWTcMzx1PVJOBuSEVCGSyUUg9
;gKORfe3mH1fuBXfrcqw+VGPMGWB/jJiwEiMVcLJMLDyBo5F97eYfHq4KZ+tyyzVYbskQYGSTjqYoPiR
;s1zUsPYGjkX3t5h8RrgVnjB7DO1Zg9xNZbYaNoRIzexXXNCw9gaORfe3pHx6uYguEEM01aGPOGkxugb
;evTUt7FNc0LD2Bo5Fo7eYfdstkE54C8z5UY8wZYHiQmaAoJBhx1zUsPYGjkX3t5h8+rgVnghzKMFtg9
;x1baoWcvDsvJH25UkVR7fzjHJmPcEHDZB/rc6xZNwyofAFL9cjVTUoSerFdQFHewvUcnZJ2aMtaDoUU
;xTVbU9odS2Kat7gkJHsV1zQsPYGjhT3t+R8ermwJjRvANWhtzB1Pf5yesBIjFXqyRnNY+dPwE56PcHC
;uBP1y6zXAruWXfCkL9ei8IywSeLtrTVng0+UUm4NAcs98ApkBrFg3DKh8PwvhqNVXSnsUvlpKVO3Pzh
;yJh29qx3MCtADJPUJv3BVQZYbo1E1KexTXNCx9gbqRfe2PcXjHaQu0E8g4R3jBClpUgoGxOSIkeb5aL
;DyBo5F97eYXXq4ZZ+tyxTdRZcQQYG6NnKc4ORJ7uWtbVOXX+SKfh2t3wQVm63KsWTcM8Tw/H/Xo1SQk
;HX27WHNb6M/wEIiIa0HIaQiccq1ZNwyofD9StejaTUp7fblSRVHt/P4bi5V6avF9Z+pyrFk3DKh8Pwv
;66NVNIxVyvlhAYu7F9w6IkkBnrgRn63KsWTcMqHwyC/XovCMsEni7a19V5M/9Du3nHx6uBWfrcqxZKw
;yofFZlk4G5IRUIZLZGX1jewP4Qj49xe/FpBpIX3io3Dah8Pwv16CVySncU1zRFU+fK/RGylW97y2Fn6
;nKsWTcMKDp/C/no1U0jFWeyQBxi8tP0GInmHh6uBWfr8uoZNwCofD9im5uwOTIkZ6dRSVmBopF97eYf
;nuhFZ/tyrFlefscSVmWSt7MhJQxmtkBJPYCjkX3t5h8K7gVq63KsMEVjxhVRbKqbpSgvHxTWNCw9gaO
;RWa3mFB6uBQ2OAMcGVWPcCFBm9enVTUp7FNcgbD2So5F9h4NtdfFnCJ8GwzRof90OWWqWjdVMSnsU1z
;QsKcGjmn3t5nV73G44ghzKMFtgqH0/C/Xo1U1eOxTHNCw968bjFrKPcW3LcTiCHMI8RQypfD8L9ejVW
;Qp7BNc0LFfk0foihIhse9paCJ4GySs3Dah8Pwv16N0NSnEU1zRGWPPIzg2fj3FqrgRn63KsWTcM6Hw3
;C/Xovyg4EEujW1w9gKORfe3mHwruBXfrcqwzUn7DI0tkhbemODgddbRRLDyBo5F97eYLXq4OZ+tyxjx
;FZ/cITWqDjblNSx1ysVJKW4vjkXHt5h9yz3wCmS3EPF5rwAg/Cm9xTNTT4t3oNAo9gaP9HJSDbUHGYA
;6MGtgGVmjJDEtig42KICsDS79RRVrp184PjJJ2ca4EZ+tyrFk3Quh8GQv16LksMx5miFxJVObL5SKMg
;n5u2mwRji3BMFlTwBlWbJ2cij8rD324NC09gaORfe3fXx6NBWfrHs0gUn73FFpikoChEisfdadARUvk
;/OIcgJZzd8BiOJgGySk3DdNokUwUklFySlAU1zRAXPjG4yKFg3Z5xnE4ihbNKUNl3hlgeIGNpSI8Hma
;IVkNJ9cz8Ip+Ha3fBBWbrcqxZNwzhPD8j9ejVISsCcaVrRFjoxPkJsod7f95xDp0X8ypDadgTSW6Ht6
;EiOiRmtkBFUoGikX3t5h8e50Vn/HKsWVtt0RlNVJiNpyovJHe7W19Y3sXwHoiVHx+uBWfrcqxZNwywf
;D8LmYmsKDgkZ7JTQVjv184RiIh4asZaCoIcrFjNcsLAS5h919VZSnsUu1VVWPP84hWIinNt8WoRjgDA
;OEcMqXw/C/Xo1QQKewHXNCxR4Nr0D7KVa3/ccReEG8ItaHjRDFoL9OjVTUp7FN90LDaBo5ETgpxlcst
;aFIIIyVk2DKh8n5JsMepNRXsU11tOV+TA5SKOg3Fqy3c4k3KtWTcMqHw/+0ro2k1Ke3u1Xkle9fzyGI
;OSemzxfGfqcqxZNwyojIAL/ujVTSUZfrJXWGLyyv8W7ecfHq4FZ+tyrFkmDKh8UGSPjYo+IhJxu1BzX
;O/E/Rjt5x8ergVn60zsWSEMqHxQZI+Nij4iEnG7UHNR6M30Io6JanDaBWbrcqxZNwxYQz8Z9ejVIiUB
;cYhHRFTkz/UigoB5bctxZ+pyrFk3DKh0fwvg6NVNJQ1xpVxNU+b84hWIinNt8WQJjB7JWTYMqHw/C/X
;WlU1TexTXW1pY88vwE4q5bHbLaQuYLco4WVPbDFpukejUTUp7FNc0dX2Bu5F97Ylpe9xtBoUV8ypfac
;QQTFSThLo6OBpgsjQtPYGjkX3tsl8euwVn6x3aPEVkyRJYVIaAsCEmCEukRElY5aOQfe3mHx6uISfrf
;qxZN2PeGU1nlJiKKT8aeNc1tqQYOgjkJNkfC64FZ5sAxTdDU8oZW1SBjbg9Lwl1o0FeWIGikX3t5h+e
;/0Vn4HKsWUd+wRJLVIaYsCguexXXNCw9gSPXPe33Hx6udRWCHNgGQ2nFDFp5lJygPy97Fdc0LD2B4/s
;97fQfHq51FYIc2AZDacUMWnmUnKA/L0kU1jQsPYGjkRSt5g0ergUXmRvCLWh4zRFPboeJoTg4HifXNS
;w9gaORfe3mHwyuBWebAMU3Q1PcGVJ7kJq0OT8JceM0LT2Bo5F97eYfHqUFZ+sAzT9DU8kVTWyUmNVM0
;OKNTq219L6jjn3t5m1/yHE4iRPfPGhp0AhNfoaBuiMVDH2zQERi88LlFILmHh6uBWfrcsUZNxqofD95
;lI6hEigaZ7JrRVPnyv0RsodxecJgZ+pyrFk3DKh8Pwvj6NVNOBpyo2tOXPLGzhSDgHZywloVigbFNjc
;NqHw/C/VolQ1KaxTXNF5c59fOH4yVekHCZB6OAN9ZNgyofD8L9eiVTVl7FNdGTVv1/PMcnoNAcsdrAp
;wbyC1fDKnmppJscUykdXsb1zQsT+DF5SKPh2x78XYXjhfIWTYMqHw/C/XIlU1ZexTXRk1b9fzzHJ6DQ
;GrGbASAHMkqRAypfD8L9ejVrXV7MNc0LE/gxeUihIhre9xjBogX8zxPeNoJTGKahoo6Ix9gv2teXPXK
;/n3s5h8ergWniTKsQjcMqA5ebYG3vCM+HmaxVU9Y3sr/G4SKc0HPawCHF6xYNwyofD+Lo6jVVkp7FKV
;VSkneyv8JiJR5f81gOIIcyjBbYPcOXn+ch9VMSnsU1zQsdMGjhH3t5m1/yHE4ghzYPEVqyR9aVJmJrC
;g4CBTWNCw9gaORjdLmBx6uBRWKFNgGXmLcGU1tlIuwEiYSerJDRVn1y5F83tUsLZ02hNRyulk3DNodW
;X+qgbs5LwlytldJYvLT8B6EiHgerwVn63KsWcczqGg/C/WatCs+JH25QElP58LyGLKVb3vLYWfqcqxZ
;NwyoQn8L7ejVTTgacqNrRVP1xuMbjIV6QdptDogZwjxEf6h9bbPrbT4ckkQUxjQsPfPC9wmyinZwy1o
;UmxPPMFlrqH0/C/Xo1U1COxTcNCw988L3CbKLfmzJbAnrc6xZNwyofCtL9cfVTUoJdbFAc1L3xuMPhI
;J6QchsFZgG8zVWdc0OYG6NnKc4ORJ7uWtbVOXX+SKfh2t3wQVm63KsWTcM8Tw/FvXo1T8rHWCIW1pY8
;9H4GYi5eHLBZwaHLcM/UX/NCGBx9elP1NPijU79kz2jo5F9n4d5avF2EpkUzTpSU80ES3mAm7wiJCRj
;vlBYVd7R8AmEiR8frgVn63KsAHcMvnw/C4eJszkVCGGlUk1e5Pz3FIGKQGzPcQLrc6xZNwyoPGpL9f3
;VTUoJdbFAc0700fccjoNAeMJqEJkT2Dw3Dah8Pwv1aLMNSmIU1zReXOfXzg6YlHl/zWA4ghzKMFtg9x
;1RbJmN1UxKexTXNCwDwaOCfe3mbX/IcTiYB94/Vm/NI1NqjI2nPkp6FNc0LD2Bo9F9++YfHtxkAZ8t3
;yxFaskfWlSZgbsoPRJwo1wsPBs6COR0f8YhrhFn63LeOFF49w9KeZOJtigVCGS2V0VT5qOQdzpFbyOk
;0ljrYKxZN37JGktUhp2nKysYcYhHXFjkx5F87eYfHq4FKatyulk3DNodWX+qm6A/LBp3smtYVejA+hO
;IlWweryw7ZLBZcfszqG4/C/WasD4+Gmaja0hI4M/ODp2DenquBGfrcqxZNzjofCsL9einKDkPdaVAc1
;j51+McsodycdtrE+tzrFk3DKh8Pwv1/tVNSglxpEBNT/X89AWZlH5Bz2gInhzYBgUMqXw/C/Xo1U1Ke
;w3XNCxP5NDlHJ+SQHvWcRWKLcgsVmD3HVJkgIahTUt7FNc0LD2Bo5Fw7eYfbMt2E4oA2AZEfM0ZWwv0
;6NVNSnsU7nQsMoGjkQ+IlWt/3HE4mALJPFNTmnw+C/Xo1U1KQlTXJSw9gdH0CZ+HfGrHagm0E8E2QmL
;cfD4L9ejVTUpvVNcnLD2B0fQJn4d8asdqCbQTwTZCYtwjDQv06NVNSnsUw3QsK4GjkQ+Ikm1/zXEOhB
;zzPUJtxCNeZpqduzlKehTXNCw9gYfRffjmHx7cYBOZE88tXmPGI1t+lISKPjoecbM0LT2Bo5F97dJfH
;okFZ+sAyS1FbcsIVmSbt7AjKxl4smtDSPXQ+BmIuX1x2nEIhi3AOE5p2g8/CvXo1U1KexSXNAg9gaPj
;GJmUfn3abAiFLck3Vm7EGWBkgJymJC4eS6NbXGLtwugYn5UfH64FZ+tyrFl3DKZ8PwuHjaE/Kxhgvlt
;CYunM4X3s1SwtnTZUOE2sSTcMqA5af4eJtjkjFHqIXENN3pGRfN7VLC2dNrTUcrlZNwzaGUt5lIuhJC
;UVS7pdQmL10fALiIofH502VNhBn7oIDL98PwuHjaE/KxhgvltCYuzK/yKZlH5oy2k42XKtagQ/m08M6
;MroyU1Ke2ayQF5c4tf4EoO5cnfAbAqKHvM8T3jaCUximobVTDFvupDVVqm+o4997eZte9p3BogGxTZZ
;U8UVUWKYibkSLwNgpUFfVO7Nzk/t52QKAEKGkeaTWScMqHxNboGatC4+Enu5a19N5Mb1fezmHx6uBWe
;iMqxLNwyoDlp/h4m2OSMUeohHXFjkx85P7ecfHq4FZ+s77FktDKh8TW6BmrQuPhJ7uWtWVe7Tzh6CiH
;t32mwIhUOsWDcMqHw/CwXX1VdKexSlUVhP4MDlFIKIQGTGahe0EcM3U2XcFVBlx+jUTUp7FNc03AKBs
;JF97ZV6fcFrA7QezSBSfvcGYGecjqFNS3sU1zQsPYGjkXTt5h9txWwVny3LOEcMqXw/C/Xo1UUKewTX
;NCxO6srjCbKKdnDLWgSEB8ItNw2ofD8L9eglckpvFNc0X1bo0eUigI9xd8NkC7QeyTdQeMB8Pgv16NV
;NihlU1z8sPYHQ+hSfkkBt3mACj3KtWTcMqHw/P7Xoz01Ke2e7W1ti5czmE7KAdmzdcTiNF9sGW23RGU
;149enVTUp7FNfEEz2Wo5F9not+csJaAY4T2CxFadsjW2KUhbA5LwkU1jQsPYGjkVmt5gMergUUhhPAN
;WhqzR1LfoeNphIiFHiya0hU4M70CYiUHx+uBWfrcqxFdwyzfD8LhoW0ISYkcrJVWEjzxuIihIh5d8Jp
;OJkT2DBYDKl8Pwv16NUUCnsO1zQsTuzC/RGygHp/2nAVjgHzKkdpzRhgeZScvCJKehTXNCw9gerRfc/
;mHx7daguCFvM7WHjcE1JUkJChPz8Ifbhac0rox+UVspR+asdqZ+pyrFk3DKglfwvv6NVNORR4vlBzX+
;7X5RKAuXl3wmQKjhzYBlFgxws/CvXo1U1Ke02XND49gaPiEoGPe0HMahOfHcEGW23RGU0L9OjVTUp7V
;Fh0LC+Bo5EOgop2evFnCJ8GwzRof9gZWm/16dVNSnsUV3JsPZejkX2eiXN3yloOhRTFNVtTzQRPapub
;vCIkexXXNCw9gaORfe31Hx6udgiHG8gGXmLOFVNnqpu9KCYXZ9c1LD2Bo5F97eYfCK4FZ5gdwDBTU8E
;SWWKZhIo6Ix9gv2tBVO+jkH3t5h8ergVn62esWTd/xxBWb6qEtDQvCUujXEVe6s30Dp7mHi2dNlTYQU
;9mNxOofD94moS8KRUPe6drSUX10eQOhIlxQdlsA58a8ytWeMETPwr16NVNSntNlzQ7PYGj4hKBj3tB2
;moXtBTFNVZhzRJLVJOEujpKehTXNCw9gfrRfeLmHx7daguCFvMtWHz3EF5ykJrVTEp7FNc0LCXBo559
;7eZsccJsA7QGwylof9gZWm/16dVNSnsUV3JsPY+jkX2elmps3VoKigrbMFN4wHw+C/Xo1U1KmyvXFSw
;9gdDkDZ2JbWrxZAOKAtgwQWn3FVFtnIS5EjgaYL5bc1Dg25F87eYfHq4FI6tyjVk3DNsJT3uamqESKx
;91p0BFS+T8+BOLj3Ny8XcGnxvDBlplxnw+C/Xo1U1KVVTXFCw9gdDkDZ2JbWrxZAOKAtgwQWn3FVFlk
;JqKKDILdblHRVLvo5DndH+GhzfcWOtlrFk3f90MT2SHnIosLhpko11aWN7P8ASIlGwerwVn63KsWSNM
;qGc/C/WboD06FGaja01Z4NPlFJuDQGzLYRKIBsU2WX+ofT8L9ejVTV47FM00LD3y1uENgpRrQc9hBps
;GxS9SU98VW3+dt7gkJHsV1zQsPYGjmT3t6x8ernYSmwLDK0NTyRJYZ5Do1E1KexTX9H59gbCRfe2Vam
;7eahWfLc44RGn3EF5ykJqmTUt7FNc0LD1xnJFk7eYfbdt1F4QA2AZVbdsZYGeUkbA/OSRnp1FJWYGik
;X3t5h8ekEVn9XKsWUR52AxQeYG3tiIkFXG0QEVS7/zpBLKCdm3aZAmIF6xYrZUx5aaSTNfVWkp7FKRB
;XE3u0eUiiYNxbctaAYIewAZFbdwZPwr16NVNSntAlzQ/PYGj4gidlnBs2loDjhzfPGhgyQVaefXp1U1
;KexTXNCw9lKORfZ6Tb27BdxO0FMU1VmHNEktUk4S6Okp6FNc0LD2B+tF9/OYfHt1wF5sd3i1oasEQU1
;SHiaEoSnoU1zQsPYGN0X365h8e3XAXmx3eLWhlxhpWZ5m3ujg+F325UV89gKORfe3mHx6uBXTrcqwqQ
;nzYE01/qpi8ISYaZohHRUfko5B97eYfHq4VJ+tZrFk3f90MT2SHnIo+Jxp4u2tKUe7C5RiJuXl7z3ES
;mRffBk919xlHe5SGpiQlFRTWNCw9gaORjdLmEh6uBRSeAtw2RXj3D09ukIzVTEp7FNc0rHvBo4J97eZ
;sa951CJkG8yFOU8wVTH+UhrYoSnoU1zQsPYGj0X355h8e3XAXmx3eLWh00SNac4WJuz4jFHrXNbakGD
;oI5CTZHwyuBWeYB9wpWH7cI0VUkYGmOSsVd7I0LQ6ykKJO3iUgHrIFZ+sB2SlHY9oIYHGqh7MrOR5gi
;FBDSu/8/RyUg21trgRn63KsWTf8l3wlC/Xopjg6C3ulQHNH3sz3G56Da0HbdTiHE9U8RX+ofT8L9ejV
;TbpEFP00LD3y1uMbjIV6Qd1qC4IW8ztYeNwTUlSQkKE/Pwh9uFpzSujH5RWylH5qx2pn6nKsWTcMqCV
;/C+jo1U05DmaxVU9Y3tD+EYSCQHzBcROEH/M/W2PfDl5/kOjUTUp7FNc0dX2BuJF97ZVqbMhkBI4t3z
;ZbZcwjXWSBnLogFRd1rlFeToGikX3t5h8eXjpn8XKsWUR52hpeaJC3piImEnCIVkNJ9cz8Ip6WenvKB
;WbrcqxZNwzsPD8s9ejVPj8JcrZXSWLyzP0Uiblrcd5aApMG3ixEZccSYHycjKElFQl1o11DPYCjkX3t
;5h9H7gV963KsKkJ+zh1cbqqbuiEjH0ujW1xi58/+Cp+Ha3uuBGfrcqxZd1TofCcL9eimODgddbRRc07
;uz/gZspJwbvFpBpIX3io3Dah8Pwv16CVySmwU1zRfSPPF8B6IuWxxwmwDtAbDKWh/2Blab/Xp1U1Kex
;TXDWw9jqORfZmOdnDxcgaHHvMqR2nNGD8K9ejVTUp7Kpc0NT2Bo+UVhIhAac9pC7QFxT1DZPcOXn+ch
;4ogKwMU1jQsPYGjkRSt5gYergUTgxvCBkBtxBBgfJyMoSUVCXWjXUNi7Mr/fezmHx6uBWfSMqxJNwyo
;CFB7qoq6OT4UeYhHXFjkx5F87eYfHq4FKatyoFk3DNwOXn2QhIo+Oh5xszQtPYGjkX1tt18esAVn6wb
;eOEFpxCNFVJKLuikvJHC+R1hc78D0IouPcXfdbWfqcqxZNwyoaH8L5OjVTTweZqRdQ1Pez/AOmbl6es
;dxZ+pyrFk3DJfNfwv+6NVNPRp4u2tfVeTP/Q7t5x8ergVn63LsWTkMqHxIapmEijkiEne8WklO8qOQf
;e3mv4c37FjraKxZN3vBDFpUmp2hKDgkfblHSUnex/gOmYdxfcs0Z+pyrFk3DKh8Pwvv6NVNPRJksmtD
;SPXG4yKEiGx72loDggHYOFlvzU4/CvXo1U1KexTXNDs9gaPmFJ2DQHHbcQKZLcU3RGncI0x7kI2xfEp
;6FNc0LD2B7dF9+uYfHtlsF44twyxDadojVmWGjaESOQtxslAePYCjkX3t5h9Q7gVy63KsLl58zSNLZI
;KNpxIsEmyyUHNN7tDpfezmHx6uBeegMqxMNwyoC1Z7kLehIj0eZohSRUXkx84NgpVmHq8FZ+tyrGlcT
;KhqPwv1n7w9LyRguENJT97K/xuEinNB3GQTjnKtWTcMqHw/UrXox01Ke2O+REli9czmGJ+5cHjIdgKf
;CqxYNwyofD8L9SjVX0p7FKBdXFje1/4KiJRAcchjFI4G1Vk2DKh8Pwv16JVNWnsU10NFTeT85RKag21
;B3XUCjhasWDcMqHw/C7yo1VxKexSgXVxY3tf+CoiUQGjBaRKGF6xYNwyofD8L26jVWEp7FKBdXFje1/
;4KiJRAaMFpEoYX8zReYqh9Pwv16NVNbjsUxzQsPfbK4RiyknBpy3c4nBvILV8MqXw/C/Xo1XkKexvXN
;CxK6NP0IpqHc3LxdheOF8hZNgyofD8L9aGVTUR7FNdOc0nzwucYgblsbstgA+tzrFk3DKh8EUv1+9VN
;Shp3tFFAWPPC5RSCiEB7wGQFhxesWzcMmHw/C5SeuiQuJGClVVpY7fz5EoGDbEHeZBODLcE4T1PEGVF
;sgYCKKysYYLhGc1jvwvMRiOYdHq4KZ+tyziteaM8VUWyqjbssKBdx1zYsPZijkX2PlHZ6yWwJjC3KOF
;lT2wxabpG3sCMrGXiyNC49gbiRfe2EbXfKYg6FFfM/XnTNGGBqm4+5KBUeerZWQFiBoZB9++YfHsx3D
;o8VxTdQU9sUWmeZm4ooJBp2u1EsP4Gji33t5n1sx2g4jgrYPEViyRBgeJ2NuSE5JHK+Rl9JgaGRff/m
;Hx7Mdw6GLcU3RGXMGWBum4m3IS97Ftc0Dz2Bo/ISjJVrd8BiOI4czTtbafcVUW2chLkSORJ6sFhJYu3
;K/xjc5h0eriZn63LPNlZ/3BVRbKqNuywoF3GIXUJb6M/9Ip6PcXnCYDiHG8I8BQyqfD8F9ejVLiUUeI
;hcSVzl/P0Ui5IfHK4Fc+tyrDpYY8QVUWyqjrQjFRJ6tEZJXPLGkX/s5gQergUEhB3AMFlr9wxNYpucp
;j0vHnCIR0BS9sf+CoPmHR+uNmfrcsg8WX/NI0x+hZi6Pz4kfblSRVHt/OQOiLlzd8BgFLQbwgZfZc8U
;YG+QhqYkPgJLsEZFWYGhkH3P5h8eymAJmBfzKkJ82BNNf6qEtDQvCWeIVkNJ9cz8IoiIfnzCYGfpcqx
;INwyoGVFql4SwEj0SZLJrWFL2xuN97+YfC64FZ44K2DxFYskQYHidjbkhOSRyvkZfSYGhkX3I5h8ey3
;0TmQfIPEVT2wtWf5aAii4lFHi+Wkti48b3Ep+DQG3ZbBOIGqxbNgyOfD8LkJChPz8fcaVrX0ro1/IVs
;oVwccJsCYwtxDxWeN0MYGqRnrQjKR4U1TQsHYGjkRiVkm1rymAVtAHbMENvwCNcZJqEvCMtJH25VU9J
;6NX0fe/nHzauBWeOCtgrQmjNDmB4goGhLiIkd7hbQFTvxM4NjJR0QcNqEY4tyTdWbsQZPwn16PFNSnt
;xr0BeSOXG4yKekXZqzW04mAbDKWh7wQxaVIKJuSEVD3ugUV49g6KRcu3mH3jPaziJHsUpaGnGHV1nkO
;jXTEppFNc0Slzv/PISgop2cMlaAoUTzjVSDKp9PwD16NUrKxVLslpNX+3G9X3v5x8NrgVnjRPCNlFq9
;xtcZJGNiigkGna7USw/gKOIfe3meXfcdhO0Hs0gUn73D1dumYSmEi8VdbVYST2Do5FI7eYfeMd3FJ8t
;wDhOadojTGSZgbESIxVyvlhAYuTb5Q+YlXZxwFoQghbYMWh+yQhWZKqNuywoF3HXNiw9oaORfYuPZ0H
;GahWZG841UlPNBEtum5u8Oy8kZ6NdWF7pyv8a7eQfHrMFZ+sUxSFoZMcOTWKXhLASPxV9uFpzXO3Pzg
;mUlnpBzwVl6nKxWTcMzhVHVJ2Hpz8jGXiya1lT6Mz/IoyKc0HafBeOLc5ZNQyoYT8L9Y68NRUTe6VGR
;V/txs4Ig49wcPFqEY4AwDhHfM0YPwn16M9NSntyvkxzVe7R4xSPinpB23YCtB3cPFlTyhVLePXq1U1R
;exTXUkBS9tHwCYi5bXvdYBO0Fc82U2n3GVFql4SwTUh6FNg0LD3mwuEii49zcvF2D44ewCo3Dql8Jgv
;16LIsOiRyvlhAYvLK/xqBg0B71nEVngHFNlkMqnw/F/Xo1SopFHCya0pU7cb/HICDQHjBdwqKBvM8WW
;3KEFoL9+jVVkp7FL5aSlTtz85M3dZAa91gOJgdwDBTU8ESWWKZhNVPS3sC1zQsVO/F+BGBuX56z3UTg
;gTJBlJiyR5TbvXq1U1uexTXXUJb6M/9Io6JcX3LaxOZG88GRGPEFVtUgJuwEi0aZIhSRVHto5N97f4f
;Hq5sCY0bwDVob8cSUW6WnIooJB9kuF1CSfKjk33t6h8ermwJjRvANWhqwQ5Mf/Xq1U1QexTXXUJb6M/
;9Ip6OenLCdjieAckGUG3YI1limYTVT0t7Mdc0LFTvxfgRgblqbctaC4IcySpoZcYjV2KSgIopLxVnvk
;BVYubR+Bnt5B4etAVn6xvCKlJ+3CNXbpScoD0VHHe4UEli5M3wH4GDHxyvBWnrcqwwRWPGFVFsqo27L
;CgXcdc2LD2Ko5F9h4NtdfFgCYoQwDw3Dqh8Iwv16LksMx5miFxJVObL5SKMgn5u2mwRji3JN1ZuxBk/
;CfXozk1Ke3i2TUlP3tD5GIGKbEHBdwOOAPM2R3jBEVZxkOjXTEpnFNc0QVLlyvcUiJRAbcZgC4cB8zR
;Sfs8ZYHuUmrAjPnsW1zQiPYGj/xKZuWx/2GA4mAbNLVIMqnw/APXo1SIlAXGIR0RU5M/1fe/mHwiuBW
;eEBMkrX23GG2B4nY25ITkkcblVTlHko5N87cYfHq5qEY4AxDhZa/cPV26ZhKYSLBp6iEdcWOTHzhiDh
;31yywVl63K0WTcMxwpaeYeBsSgVHX27VUFY79fOGIOHfXLLBWXrcrVZNwzHClp5h4GxKBUdfbtVQVjv
;184Yg4d9css3Z+lzrEM3DKgMTWKbnIo9KwlgpGtfWPDW9BOOg0Bx3GECmXKuWTcDqHw/eZSOoRIhHnG
;na0RS7cbife/mHwquBWeZE8otaGPeGU15nIywEi8VdbVYST2DopFV7eYfbMtxFYoR2DBYYvcdSWScjI
;o4JBVxtFFfTuDR6CKEiEBt23UXhADYaDcOqHwXC/Xopyg+CXW0QEVS7/zwC4KPe0HbawmOEckqRG3aB
;WBim7emODoLe6VAHj2Do5Fv7eYfbMtxFYoR2DBYYvcfUGaXgbsqSnkU1yUsPYHR9Amfh3xqx2oJtBfC
;OFVgzXw9CvX71U1KCXGjRk1e9cr+E7KDcX/MaQK0QKxbNgyMfD8Lh42hPysYYL5bQmLkzfAfgYNAfMt
;jCJkX8zZCeM0OYHidjbkhSnkV1y0sPYHR9Amfh3xqx2oJtBfCOFVgzSNQfoGbvCkvexbWNDo9gaPjGJ
;mUfn3abAiFLcA4TmnaH1dqm4+wTUh6FMI0LD3zxuUPjIVrd8FrOIUd2AZeYtsVW2716tVNUXsU10ZJS
;fPC8gmEiXFB1G0Imy3DN1t19w9QZ5yM5E1IehTMNCw988blD4yFa3fBaziRGsMpaGPGEEZUhoe5JC5J
;FNU1LCSBo5EOiJJrd8BiOI4K2CtCaM0OYDmqjbssKBdx1zYsPZOjkX2ejXZs2loBhADPPGhpxh1dZ5D
;o101KbhTXNF9Q4M/9IouDfmrbdwKYLck3Vm7EGT8J9ej3TUp7Z7pVQFHexfQcmZNte91aDoUUxTVbU9
;odS2Kat7AjKxl4sjQuPYGvkX3tlXByx2E4iR3YLVhhqH4+C+zo1U05FHi+UHNU78X4EYG5am3LWgCKA
;vM/XmDEfD0K9eHVTUoIe7tdSGL1zOF97+cfF64FZ5gCxStWYMEGWgv36NVBSnsUpERZT/L89BOMhHN7
;rgdm62WsWTd/3QxPZIeciiwuGmSjXVpY3sb/HI+Keh6sBGflcqxZRHnYDFB5gbewIysZeLI0Lj2BjpF
;97ZVqbt5qFZ8txTdRZcQQYH6GjYohIxVxpGtFU97L+BqFuXt7wHYOnwvzPkVlzHw9CvXw1U1KCGGnRE
;NP9fz9GIyNZkHNagmFF88tXmPGfD0L9fHVTUoIYadEQ0/1/PwSiY95d8t3OIwXwjxFbdwZPwn06MtNS
;ntnokRcUvPXzg6Ah3Ny8WMLhBPYPFNTzhlef4CasD5KeRXXIyw9gdf0EJ2DbX/acBWOLcAwRHj3GVFq
;l4SwTUh6FMU0LD31xvwNiJR+att3ArQfzTdCbcR8PQv14tVNSgx9p1FzSe7U9A/t5B8ejgVn6wXFKVJ
;T3BNIboe3syQyHnCIRENO6Nf4EoO5enDPZwuOcq5ZNx2ofD9olJywKiUJbYhaTVDk/PkYleYcDq4FZ9
;tCmmsHPJ4/DzvC3eV9fE4U3jQsPeTN9VOKhXB6ywVkx3OsWXA1mVwEWZCEtDkjDXH3RENO6Nf4EoOPc
;XmkQlbLN4FrF0qaSw871dOHKD4JdbRADFyhwfgJ56EuPusoVcsonHcFLO5OCzvFyO4fLw9mtldYHeDN
;9V2fh3ZtyyU94TWdeW85iCUKK7Pb5X16Wy+AXVxYoczkCeehLj70MFfLSf44Xn/NXGUrmIenKEA8Lec
;UF3zj0P4RmJJ6Pt5qFIIGxTZZYsESWAH/r+RtEks0jgYeDaGYwQ+IlXpw2iUXmRvCLT1BmUwJK6bY9X
;YeDma5GUNb54P3HIPsUi+eMUe4QoxiY3naEhJkk471JSUPcblQJnCwl6FdvtY/JfpwFYVfwz9RLMoZW
;wH/pe15aiM0jhRpHbrn+A6MhHN7jmQLh1LfLVJ82BlNeNWKoDlqIRTdNCw95M31T8OBfHHKYGfo8qxZ
;N0GaTg4rodj1HntLJN15Hg+wg8VMzbUuLp4PKtpCmHljPIgvDwG42eV5ai8l92ccN8ySpU3NtS8U4zR
;X3HjrYAYG700fTtjZ9Qt5SyTdcx0d24ihU9jGWjObJT7GQJx5cXfcDl59kISKPjoecbNJJnqzm7El3c
;ZGLqRIX99462AHDL18PwuQkKE/Px9xpWtfSujX8hXDgXxxymBn6HKsWTcMpnw/C5OJuxI5C3GyUHNR6
;NDlfe7pHx6uNFzZR5drDDmYRwwwxNjlTVt7FNdSRVHgzvQTmblrZ95gOJgG3lk0Bqh8P1u5qfV8ZEwh
;ulksL4GjkRuEin5zy2sTtAbVKVJT2whNOfXr301Ke0SbdQwMr5SkEIDmPx6uBQGCAN8taGDJBVp5qpu
;6ISMfS75aSlTtz84NjJJre9xrZ+h3rFk3QMESWnj1/dVNShx3uFBJYufK/RiDh3J78WMImR/NLTcPz3
;w/C46PtiIuHkuxXUBY78L8GLKRdmrGahKfLckhQ3H3B1JqloC8Iy8kYK5ESWLgwfMPiJB2f9psCIUP8
;yJRZcQdUm6bnIojKxZxiFVOX/PG5xSMknZxwDQatAnAOE5p2iNXbpyPvTk3FnnXJSw9gcTyEomDQG7B
;dhObAMM6Un/bfDwL9ejVTUB7FNdTT1Llxs4JlJZ6Hq0DZ+ty/jxHXskMPxr16NUkJB19u1hzXO/E/Ri
;yinZt2gVk7XKsWQM5k00MPvX91U1KEnqxXUBR3sfkHIG5embadxKYG8M3Nw+kfD8LtIS5bS8DYKVBSF
;jzo5997eZ2cMhsC4ct3DhDeM0OUQv27dVNSjd9uVFfPZOjkX2Bh2Z73FoEgxPCPlIizx9Qb5Do1k1Ke
;xTXKSw9gc/wBIiUQG3aZBWfLdw2XmLcI0xulIWKLiUJerJGLD6Ho5F9v4N5cst9Z/tyrFlYY9IZYHid
;gbAhLiRgrkRJPYKqkX3tsX5qy3chih7AWSYMqHxPaoCbsBIiHn2wXFhi7criCe3lHx6uBWf6cqxZR2D
;JCFlkh4WKLC4ffaNdQ1OBoJV97eZRccBgZ/pyrFlHYMkIWWSHhYosLhNxpF1DU4GglX3t5lFxwGBn53
;KsWUd+wRJLboe3oTQ6HhTUPyw9geb/GYiUPy2OSwKfcr9ZNwzaHVl/qoygLCYkca9AXkjyyv4T7eURH
;q4FIYIA3y0XadAITX6RjadNWXsU10ZNW/X8+BOLj3Ny8XUGnwbJK1kMq3k/C/WkvCMvCBTHNCw988bl
;D4yFa3fBa0mMEcM9UgyrfD8L9ejBTUp7Z7xdXknex+Qcgbl6Ztp3Epgbwzc3D6Z8Pwuzgac+Pltxr0B
;eSOXG43365h8e3WoLghbzMFlqwRBTVJSGsiEvJHi+R1g9gqWRfe3SKiWfNlLrZqxZN3/HEFZvqoG7Ky
;MXeIhETUn1xuMT7eUUHq4FNY4R2DBbZcYZXnn189VNSgh7u11IYujN9xSBikBuz3ETjgDCBlVj3AhQZ
;vXr3k1Ke0ayV1hU7cr/GIyUHxWuBWeYBs0rQyLPH1BvkOjWtkt7FOwUaVPlxuNd3sZca91xCIZS/y1W
;ftxceCaWh7EoQDwt5RRpDaGYsS+IlXpqjkAfnwDZPVJ+ojsNM9XT9QUlFnH3VUBRocLpGJ7sWC+OX1X
;FQowfBDyYTB8w1aW6Oy9bTvd1VFTyg+QNzYp2atppAssGw3lHfs0KWmWByKYuOBpgtFxFU+aD/hvNrn
;p/2iUljhamHgYs8EwROtWx531qIST5Bwx7tJOhTcPWPyWOSAidF4wtWCzbCF55gcilIjkSYL5bQjfGk
;rEl3cguPvc3V9tcnHltPIZPH03E3eV9ZEs0kgUZHbqD1Q+MkT9qxmBHjRveKkMsxBVRbv+v5G0SSzrj
;FHUPsZO/Tc28LzCdJSHeQpxpGTyIRx9Gmp6wbT4UNKRdSFihwrERhJJrcssPINpS9GkZOIglDTvVsuV
;jeVtS5gEcDa+TsTje1j8ljkEVigWMLV9piA9aaJqGsW0mEnqyPmsEs4PUTc3dP0zLdgKfUukhQ37dGF
;p5/6/kbRBJOucUag6xk6Fd1sZScdhgR7FS7SFef4gJTyuZgaE5Jh40o1sMTfPG5xiDkj9tzXcGnxHEM
;FlriBNZK72NtDlqOXGzPmsMofukXbTULz70N0nbUupsBzyYUg8rzsiYIjweNLhCSU+h1/5dnZR6aMtr
;E8sQwDZVLNsNSmKGgNVBSnsUpEBNT/WRvxqOiXt7rgYL6nKsFAI7mlx7O9W75WN6Qh6aARsPoeegXb7
;WMS6XDyDZQ6YeDjyiMQc5/6XkfX1xU+UMJnqwg8tM2MgvPuh+E5kT2jxbU9sMWm6Rld8ZenFT7gYMeL
;Gp1kzNviwujlxK2VLqYQc8ojsOK6/Y+35/W1LlBBw3xpKxJdXTP0eDN0euQ595cT6YTDVMxMiQfH9bU
;uUEHDfGkrEn2MZZLJ41baxLnnlyPKI7Dyuwxa4/Lw9mtldYVO7NzhmYh3NBz2gInhzYJBdKmkwPAaHZ
;3wpzSTSSBCZ6sIPJTt3WP0eDN0etSpxpPUuZXGU729vgbQxJJOc+awyh+6JL3cZGM5wlItpBjB8FPJh
;2eDrVreR4aj0m5wQmerCDy0jNoC0ung8g0kCMHAcG70wfTtiTpyg+CXW0QEVS7/z1CIyKQH/DahKFBt
;F5cT6YTDVfxeKSfGo9b6NGTUvkz84OnYN6etMPKtpDm3lnfsESS2Kbj/tjZHsT1zQsTvTT4RKfkh8dq
;gVn6zzDN1IMtHw/C4adpT0lCWCIUElT8sbOGZiHc0HLfROZB98wWGKofzML9eiUISZbca9AXkjlxuN9
;/+YfHt1wF5sd3i1oaM0STG6qnKw9L3sX0jQsPc3K/xie5gkergUUngLcNkV49xhKapm3sDU+CWGkXUN
;TgaCffe3mWXfcdhPLF9QtRXnMGU0L7OjVTTkOZKdbXkneyv8bhIpzQc9rAIcX8zVef9x8PAj16NVgfk
;4UxzQsPfLW4Q2ClGtB3XEVigbJPk4Mq3o/C/Wmuj8nGnjXOCw9gdDkDZ2JbWrxcR6bF6xaPAyofG1ul
;py8ISMVcbZGLB6Bo5EOmJR5f81gOJgdwDBTU8oTS3+ahYokJB19u1hzTeDX5RifiB8dqwVn6z7FN1J/
;qFw/C/WboD8sGneya19S7cr1IpmJb0HHawGCHsAGR23cCFp5m+jWSEp7FJtdQljyo4V97eZre8N1Apk
;T2CxFafceWm+qhLw+PnsX3zQsPbCYpE3W1CQurhBn63LYPFp8zQ5ef4CasBImHnKja0BU8teRfu3mHx
;6uE2frctg8WnzNDl5/gJqwEjgSc79Ac1Ho0OV97uYfHq4FaOtyrC5efM0jS2SCjacSJxRwsjQvO4Gjk
;TOIlWt7ygV363KsLl58zSNLZIKNpxI5E3WnUSw+h6ORfa6PbX3CYGflcqxZQGXYGWB8lIS5EicUcLI0
;LzeBo5E0g5J6bMJkBI4WrFc3DKh+Pwv16dVNSj0U1zQtPYGjnn3t5kweywUT6wasMDdiqBs/K/Wv1T9
;KFBSiNFw9oaOgfezmHx6uBWfrYqxZNwyofD8L9ejVTUp7FNc0LD2Bo5F9IuEfHqUFZ+s3wj1SfohPH0
;WQnNVNShBX1zRHfoGj6z7t5h8eY8mr1XOsWf9OqHz3SfTo1U1Ke9yWNCw9gaGRfe3kHx6uBePocq1ZN
;8TpfD8L9ejVTUq22BsKLD2Bo5F9dqUfHjVGZ+uu7m03DKh8P8O36tVNSm8U1zQsPYGjkX3ZpB8eRkRn
;63ruWTcA6n0/C/Xo1U1KexTXNCw9gaORfe3mChmuBWfrcqxoNwyobD8L9YW0LiISerJrTlz0x+McmYM
;fH64FZ+tyjFV2DLl8PwuYibYlIxVxiFZJWd7Q+Rydgx8frgVn63KsWTcMvHw/C5iJtiUjFXGIVklZ3t
;f0EJ25cn/WBWbrcqxZN4zzPD8d9ejVICsYfL5aSWLizPwNiIhsf9psCIUt1Fk2DKh8Pwv1sZVNXHsU1
;1lNXunK/xiyhXBz3mAJmBPYMFhi9wU/CvXo1U1Ke02XNCE9gaP8HI6OdnDLWgOCH/MhNw2ofD8L9Yi4
;DUp2FNc0QVziy/gTiLl7d8NaHutzrFk3DKgcUkv15dVNShZ1tFxFU+T89RSAuWUerwVn63KsGVhMqGA
;/C/WFtC4iEnqya0hU8tfwE46DQHjcagq0EMMrU2nafD4L9ejVTUp7FNcgLD2BzvAehY9xe/FgH58A2T
;1SfvcSSmb16dVNSnsU18QTPZujkX2Ah3x2x2sCtBfULUV5zBlNVJqOsz4vD0uvBiw8gaORfe3mJl6uH
;2frcsE4VGTBElpUkJChPz8fcaVrQ1vn0PQJsp8tHq8FZ+tyrFk3DKhuPwv1hbQuIhJ6smtKVO3C/BiD
;kkAvrgRn63KsWTcM6HwtC/XouCwpE325UXNb6M/wEIiIa0GcBWbrcqxZNwyoPD8e9ejVICsYfL5aSWL
;mwv8Jn59AdstsAIMGrFg3DKh8PwusqNVZSnsUulVPVejN9CKKhXB6y1oGiAbFNlkMqXw/C/Xo1U1Kew
;PXNCxQ4MD5FIODQHDBfx2HF/M9Xm3FGUtuh+jUTUp7tE6t9QKBupF97Yt+fcZsCY4twjZNdsQZYG+ci
;bgoPh5miAYsPIGjkd10f8Yhrhxn63LBOFRkwRJaVJuHrzcmHkujUUFN3s7wBbLXHx+uBWfrcswqdwyx
;fD8LmIm2JSMVcYhaQ0f7z/QimYNybvFoBpMtnlk2DKh8PwuVm5VNWHsU11lNXunK/xiylm13wHE4hh3
;IPDcNqHw/C/Xo1U1KWhTXNEFc4sv4E4i5b2zBaBefLdkqUlPaHVl/qpy9Py8IfLhYSD2Ao5F97eYfR+
;4FautyrDRWb8AVUW6qm6EoOh4U1jQsPYGjkX3t5j0ergUKihHEMFlp9wpWeYGdtCEVHmyjRllZ5NHOE
;ouAbHvaWh/Zcq1ZNwyofD8ytej3TUp7ebZXRFTvxs4LhJRra89pOI4K2CtCaM0OYGSTjqYoPiRt5TQt
;PYGjkX3t5h8ejgVn6x/NOl9lxhlgaICboSInJGSlXUJJ6M32Ip2UdnHcbBOScq5YNxSofD9mlIu9JCQ
;eS7NVWFzewP4TmYNxavFkA49yrlg3Gah8P2aUi70kJB5Ls1VYXN7F+BGIuX56ygVl6nKIWTcMxR1cY5
;yGsBIvA2ClQUhY8/ziCoSSfHbxcgaCBvMxUm3cFVFs9erVTVl7FNdZTV7pyv8YsoB+cPFmCIUG3jZbD
;Kp9Pxb16NUgKxh8vlpJYubA/hmIuXpBw3ALnxvcNU5TzhBQfPXq1U1aexTXWU1e6cr/GLKOen/aWgWO
;FqxbNgy7fD8LmIm2JSMVcYhdSFj5/OIEnpJ6c64HZ+turFk3YckfV2KbjYoiJxJgiEZNVPLG5RKYhXd
;BzWoDjnKuWTcbqHw/ZpSLvSQkHkunRkNQ8dfOCJ6DQGzPYxPrcKxZHQyofFJqloC8Iy8kZKVbQU31/O
;QOiLltf8hxOI8H3DVeb8kIVmSbt7gkOAl7pTQuPIG5kX3ti359xmwJji3ePFtt3BVJbqqNrTk4Dme+W
;0I9g6ORX+3mH3PPZg+CHMkGQW3EFVtqgY2KPTgSeqNdQlre0+MUgpR2atcFZetyu1k3DMcKWnmHgbEo
;FQh4vldJYvLG5QmEiHhtrgdn62WsWTdhyR9XYpuNiisjF3W6UUJJ3s3wEIi5Lh6tD2frcvwVdiyZUgg
;+mIXVWkp7FLpVT1XozfQii49zf8NgCZ8twjhaafdOPwj/6NVNGjdV9wUCCrTO/H385h8ew2QEgxvCPG
;hqwRBaVJuJuChKeB/XNCx478f0D83VP1DLcWf+cqxZWm3LFFZlkLezJDgWY7ZGSWL12uEY7eUZHq4FK
;ooAwDBZDKJ8PwuYibYlIxVxiF1IPYKHkX3t3i0vmjEE2kOBalI8zlELaMPe+HR5HSD6Bk4IspeoSt7X
;Ji2aBXXrcqw0Vm/AFVFuqoXkfXpKS7RbSFiBoJF97eYfDK4FZ4YTzzFeYs0jUjrF2OcSKRRwsjQvPYG
;jkX3/5h8ew2QEgxvCPGhhmkwPO6qLuikvexfXNCw9ga+Rfe2Lfn3GbAmOLdggR2mofzQL9eiQIy4eZv
;cHDHPk15Fk7eYfc89mD4IcyQZDddgZYGqXiqcoPBJ1o11DU4GggX3t5lxsy2QLggbVeXJizBlNK8bo1
;U1KexTXNCwtgaORfe3mHx6uBWfrcqxZNwyofHUJ9ejUTUp7UtU0LDeBo5Etoac/L4AyUoYfrFk37Jd8
;P5Cx6NVbCXsUJ3UsnQ3mkcXloR8eCkeY6nKsWTcMqHI/C/X41U1KHX27VUFY79fOGYiIbHfafGfqcqx
;ZNwzI738L5OjVTSwSeLZZSVP1/PUUjIt6ast3Z+pyrFk3DKiAAAvk6NVNLBJ4tllJU/X89xGCkW1/2m
;Bn6nKsWTcMKCh/C/vo1U0sEni2WUlT9fzhD4SFeh6vBWfrcqxZCUyoaz8L9YejKDgJfbNRc07tyvIYs
;pV6atpsCYwBrFs3DKZ8PwuTgbksJx56o2tOT+DN9X3u4R8erlcGggHJanMMvXw/C5OBuSwnHnqja0hU
;8tP9HJS5cX/DYGfoZqxZN1f6HVZ4kNuREGorWJYUHRO2lvwQ7fQfHq5jDocTwTxZePcaVmeQt7ssJx4
;U1D4sPYHz3TzN1zEpm2gK62CsWTdqwRBeZpCGoRItGHuzUXNY78eRfu3mHx6uEWfrcsowW23FGVF/qo
;+2Ii4eS6RATU/1o5J97eYfHqUFZ+sUxTVWYc0SS1ScjNVObnsU1wBOBOXFpkSPyy16zzVK3xfKbRptn
;k0IJsbZ4C5yHyXnARpf46Ocfe3meXfCZAqOHNgGWW3FGT8I/+jVTRo3VfcFAgq0zvx99+YfHshsC4of
;yTdDU8YdUm6qibcvOB5ivlVYVO7NkX7u5h8e/kkm63ysWTdqwRBeZpCGoRIkFGCyRyw+gaORfe3mHx6
;uBWfrcrxZNwyofD8L9ejVTUp7FNc0LD2Bo5F97eYfHq4FZ+tyrFk3DKh8Pws=
;Data end
;
;Print Time: 383
;Material#1 Used: 103.0
;Material#2 Used: 0.0
;Material#1 Cost: 0.01
;Material#2 Cost: 0.00
